<gpx xmlns:ns3="http://www.garmin.com/xmlschemas/TrackPointExtension/v1" xmlns="http://www.topografix.com/GPX/1/1" xmlns:xsi="http://www.w3.org/2001/XMLSchema-instance" xmlns:ns2="http://www.garmin.com/xmlschemas/GpxExtensions/v3" creator="Garmin Connect" version="1.1" xsi:schemaLocation="http://www.topografix.com/GPX/1/1 http://www.topografix.com/GPX/11.xsd">
  <extensions>
<distance>1953.69</distance>
<average_hr>83.0</average_hr>
<average_speed>2.631999969482422</average_speed>
<start_time>2026-07-23T14:59:34+00:00</start_time>
<end_time>2026-07-23T15:11:56.244000+00:00</end_time>
<moving_time>500.0</moving_time>
<elapsed_time>742.244</elapsed_time>
</extensions>
<metadata>
    <link href="connect.garmin.com">
      <text>Garmin Connect</text>
    </link>
    <time>2026-07-23T14:59:34.000Z</time>
  </metadata>
  <trk>
    <name>Seattle Cycling</name>
    <type>cycling</type>
    <trkseg>
      <trkpt lat="47.68545356579124927520751953125" lon="-122.34725690446794033050537109375">
        <ele>31.6000003814697265625</ele>
        <time>2026-07-23T15:00:23.000Z</time>
        <extensions>
          <ns3:TrackPointExtension>
            <ns3:atemp>25.0</ns3:atemp>
            <ns3:hr>65</ns3:hr>
          </ns3:TrackPointExtension>
        </extensions>
      </trkpt>
      <trkpt lat="47.68540226854383945465087890625" lon="-122.347237206995487213134765625">
        <ele>30.799999237060546875</ele>
        <time>2026-07-23T15:00:26.000Z</time>
        <extensions>
          <ns3:TrackPointExtension>
            <ns3:atemp>25.0</ns3:atemp>
            <ns3:hr>66</ns3:hr>
          </ns3:TrackPointExtension>
        </extensions>
      </trkpt>
      <trkpt lat="47.68537578172981739044189453125" lon="-122.34723477624356746673583984375">
        <ele>30.6000003814697265625</ele>
        <time>2026-07-23T15:00:27.000Z</time>
        <extensions>
          <ns3:TrackPointExtension>
            <ns3:atemp>25.0</ns3:atemp>
            <ns3:hr>66</ns3:hr>
          </ns3:TrackPointExtension>
        </extensions>
      </trkpt>
      <trkpt lat="47.68529799766838550567626953125" lon="-122.3472328484058380126953125">
        <ele>30.200000762939453125</ele>
        <time>2026-07-23T15:00:29.000Z</time>
        <extensions>
          <ns3:TrackPointExtension>
            <ns3:atemp>25.0</ns3:atemp>
            <ns3:hr>65</ns3:hr>
          </ns3:TrackPointExtension>
        </extensions>
      </trkpt>
      <trkpt lat="47.684966661036014556884765625" lon="-122.34722052700817584991455078125">
        <ele>30.3999996185302734375</ele>
        <time>2026-07-23T15:00:38.000Z</time>
        <extensions>
          <ns3:TrackPointExtension>
            <ns3:atemp>25.0</ns3:atemp>
            <ns3:hr>65</ns3:hr>
          </ns3:TrackPointExtension>
        </extensions>
      </trkpt>
      <trkpt lat="47.68478418700397014617919921875" lon="-122.34714140184223651885986328125">
        <ele>29.3999996185302734375</ele>
        <time>2026-07-23T15:00:43.000Z</time>
        <extensions>
          <ns3:TrackPointExtension>
            <ns3:atemp>25.0</ns3:atemp>
            <ns3:hr>62</ns3:hr>
          </ns3:TrackPointExtension>
        </extensions>
      </trkpt>
      <trkpt lat="47.684758119285106658935546875" lon="-122.3469458520412445068359375">
        <ele>28.6000003814697265625</ele>
        <time>2026-07-23T15:00:47.000Z</time>
        <extensions>
          <ns3:TrackPointExtension>
            <ns3:atemp>25.0</ns3:atemp>
            <ns3:hr>61</ns3:hr>
          </ns3:TrackPointExtension>
        </extensions>
      </trkpt>
      <trkpt lat="47.68475937657058238983154296875" lon="-122.34681886620819568634033203125">
        <ele>27.799999237060546875</ele>
        <time>2026-07-23T15:00:49.000Z</time>
        <extensions>
          <ns3:TrackPointExtension>
            <ns3:atemp>25.0</ns3:atemp>
            <ns3:hr>62</ns3:hr>
          </ns3:TrackPointExtension>
        </extensions>
      </trkpt>
      <trkpt lat="47.6847730390727519989013671875" lon="-122.346543185412883758544921875">
        <ele>26.799999237060546875</ele>
        <time>2026-07-23T15:00:53.000Z</time>
        <extensions>
          <ns3:TrackPointExtension>
            <ns3:atemp>25.0</ns3:atemp>
            <ns3:hr>62</ns3:hr>
          </ns3:TrackPointExtension>
        </extensions>
      </trkpt>
      <trkpt lat="47.68477530218660831451416015625" lon="-122.3464239947497844696044921875">
        <ele>26.6000003814697265625</ele>
        <time>2026-07-23T15:00:56.000Z</time>
        <extensions>
          <ns3:TrackPointExtension>
            <ns3:atemp>25.0</ns3:atemp>
            <ns3:hr>63</ns3:hr>
          </ns3:TrackPointExtension>
        </extensions>
      </trkpt>
      <trkpt lat="47.68477865494787693023681640625" lon="-122.34613909386098384857177734375">
        <ele>25.200000762939453125</ele>
        <time>2026-07-23T15:01:00.000Z</time>
        <extensions>
          <ns3:TrackPointExtension>
            <ns3:atemp>25.0</ns3:atemp>
            <ns3:hr>65</ns3:hr>
          </ns3:TrackPointExtension>
        </extensions>
      </trkpt>
      <trkpt lat="47.68477899022400379180908203125" lon="-122.34591948799788951873779296875">
        <ele>23.799999237060546875</ele>
        <time>2026-07-23T15:01:03.000Z</time>
        <extensions>
          <ns3:TrackPointExtension>
            <ns3:atemp>25.0</ns3:atemp>
            <ns3:hr>65</ns3:hr>
          </ns3:TrackPointExtension>
        </extensions>
      </trkpt>
      <trkpt lat="47.684778235852718353271484375" lon="-122.34580314718186855316162109375">
        <ele>22.6000003814697265625</ele>
        <time>2026-07-23T15:01:05.000Z</time>
        <extensions>
          <ns3:TrackPointExtension>
            <ns3:atemp>25.0</ns3:atemp>
            <ns3:hr>65</ns3:hr>
          </ns3:TrackPointExtension>
        </extensions>
      </trkpt>
      <trkpt lat="47.68478862941265106201171875" lon="-122.3456089384853839874267578125">
        <ele>21.3999996185302734375</ele>
        <time>2026-07-23T15:01:08.000Z</time>
        <extensions>
          <ns3:TrackPointExtension>
            <ns3:atemp>25.0</ns3:atemp>
            <ns3:hr>65</ns3:hr>
          </ns3:TrackPointExtension>
        </extensions>
      </trkpt>
      <trkpt lat="47.68479005433619022369384765625" lon="-122.34543618746101856231689453125">
        <ele>20.3999996185302734375</ele>
        <time>2026-07-23T15:01:11.000Z</time>
        <extensions>
          <ns3:TrackPointExtension>
            <ns3:atemp>25.0</ns3:atemp>
            <ns3:hr>65</ns3:hr>
          </ns3:TrackPointExtension>
        </extensions>
      </trkpt>
      <trkpt lat="47.68479307182133197784423828125" lon="-122.34536133706569671630859375">
        <ele>19.6000003814697265625</ele>
        <time>2026-07-23T15:01:12.000Z</time>
        <extensions>
          <ns3:TrackPointExtension>
            <ns3:atemp>25.0</ns3:atemp>
            <ns3:hr>65</ns3:hr>
          </ns3:TrackPointExtension>
        </extensions>
      </trkpt>
      <trkpt lat="47.68479935824871063232421875" lon="-122.34519462101161479949951171875">
        <ele>18.6000003814697265625</ele>
        <time>2026-07-23T15:01:15.000Z</time>
        <extensions>
          <ns3:TrackPointExtension>
            <ns3:atemp>25.0</ns3:atemp>
            <ns3:hr>64</ns3:hr>
          </ns3:TrackPointExtension>
        </extensions>
      </trkpt>
      <trkpt lat="47.68480145372450351715087890625" lon="-122.34513980336487293243408203125">
        <ele>17.799999237060546875</ele>
        <time>2026-07-23T15:01:16.000Z</time>
        <extensions>
          <ns3:TrackPointExtension>
            <ns3:atemp>25.0</ns3:atemp>
            <ns3:hr>64</ns3:hr>
          </ns3:TrackPointExtension>
        </extensions>
      </trkpt>
      <trkpt lat="47.68480078317224979400634765625" lon="-122.3450899310410022735595703125">
        <ele>17.3999996185302734375</ele>
        <time>2026-07-23T15:01:17.000Z</time>
        <extensions>
          <ns3:TrackPointExtension>
            <ns3:atemp>25.0</ns3:atemp>
            <ns3:hr>64</ns3:hr>
          </ns3:TrackPointExtension>
        </extensions>
      </trkpt>
      <trkpt lat="47.68479801714420318603515625" lon="-122.34500317834317684173583984375">
        <ele>17.200000762939453125</ele>
        <time>2026-07-23T15:01:19.000Z</time>
        <extensions>
          <ns3:TrackPointExtension>
            <ns3:atemp>25.0</ns3:atemp>
            <ns3:hr>65</ns3:hr>
          </ns3:TrackPointExtension>
        </extensions>
      </trkpt>
      <trkpt lat="47.68479399383068084716796875" lon="-122.34480955637991428375244140625">
        <ele>16</ele>
        <time>2026-07-23T15:01:26.000Z</time>
        <extensions>
          <ns3:TrackPointExtension>
            <ns3:atemp>25.0</ns3:atemp>
            <ns3:hr>67</ns3:hr>
          </ns3:TrackPointExtension>
        </extensions>
      </trkpt>
      <trkpt lat="47.6847948320209980010986328125" lon="-122.34472003765404224395751953125">
        <ele>15.3999996185302734375</ele>
        <time>2026-07-23T15:01:30.000Z</time>
        <extensions>
          <ns3:TrackPointExtension>
            <ns3:atemp>25.0</ns3:atemp>
            <ns3:hr>70</ns3:hr>
          </ns3:TrackPointExtension>
        </extensions>
      </trkpt>
      <trkpt lat="47.68479122780263423919677734375" lon="-122.3447043634951114654541015625">
        <ele>15.19999980926513671875</ele>
        <time>2026-07-23T15:01:31.000Z</time>
        <extensions>
          <ns3:TrackPointExtension>
            <ns3:atemp>25.0</ns3:atemp>
            <ns3:hr>71</ns3:hr>
          </ns3:TrackPointExtension>
        </extensions>
      </trkpt>
      <trkpt lat="47.68477831967175006866455078125" lon="-122.34466974623501300811767578125">
        <ele>15.19999980926513671875</ele>
        <time>2026-07-23T15:01:34.000Z</time>
        <extensions>
          <ns3:TrackPointExtension>
            <ns3:atemp>25.0</ns3:atemp>
            <ns3:hr>75</ns3:hr>
          </ns3:TrackPointExtension>
        </extensions>
      </trkpt>
      <trkpt lat="47.68477831967175006866455078125" lon="-122.34466974623501300811767578125">
        <ele>15.19999980926513671875</ele>
        <time>2026-07-23T15:01:36.000Z</time>
        <extensions>
          <ns3:TrackPointExtension>
            <ns3:atemp>25.0</ns3:atemp>
            <ns3:hr>77</ns3:hr>
          </ns3:TrackPointExtension>
        </extensions>
      </trkpt>
      <trkpt lat="47.68477831967175006866455078125" lon="-122.34466974623501300811767578125">
        <ele>15</ele>
        <time>2026-07-23T15:01:40.000Z</time>
        <extensions>
          <ns3:TrackPointExtension>
            <ns3:atemp>25.0</ns3:atemp>
            <ns3:hr>78</ns3:hr>
          </ns3:TrackPointExtension>
        </extensions>
      </trkpt>
      <trkpt lat="47.68477831967175006866455078125" lon="-122.34466974623501300811767578125">
        <ele>15</ele>
        <time>2026-07-23T15:01:57.000Z</time>
        <extensions>
          <ns3:TrackPointExtension>
            <ns3:atemp>25.0</ns3:atemp>
            <ns3:hr>82</ns3:hr>
          </ns3:TrackPointExtension>
        </extensions>
      </trkpt>
      <trkpt lat="47.68477831967175006866455078125" lon="-122.34466974623501300811767578125">
        <ele>15</ele>
        <time>2026-07-23T15:01:58.000Z</time>
        <extensions>
          <ns3:TrackPointExtension>
            <ns3:atemp>25.0</ns3:atemp>
            <ns3:hr>85</ns3:hr>
          </ns3:TrackPointExtension>
        </extensions>
      </trkpt>
      <trkpt lat="47.68477831967175006866455078125" lon="-122.34466974623501300811767578125">
        <ele>15</ele>
        <time>2026-07-23T15:02:01.000Z</time>
        <extensions>
          <ns3:TrackPointExtension>
            <ns3:atemp>25.0</ns3:atemp>
            <ns3:hr>81</ns3:hr>
          </ns3:TrackPointExtension>
        </extensions>
      </trkpt>
      <trkpt lat="47.68477831967175006866455078125" lon="-122.34466974623501300811767578125">
        <ele>15</ele>
        <time>2026-07-23T15:02:04.000Z</time>
        <extensions>
          <ns3:TrackPointExtension>
            <ns3:atemp>25.0</ns3:atemp>
            <ns3:hr>84</ns3:hr>
          </ns3:TrackPointExtension>
        </extensions>
      </trkpt>
      <trkpt lat="47.68477831967175006866455078125" lon="-122.34466974623501300811767578125">
        <ele>15</ele>
        <time>2026-07-23T15:02:05.000Z</time>
        <extensions>
          <ns3:TrackPointExtension>
            <ns3:atemp>25.0</ns3:atemp>
            <ns3:hr>81</ns3:hr>
          </ns3:TrackPointExtension>
        </extensions>
      </trkpt>
      <trkpt lat="47.68477831967175006866455078125" lon="-122.34466974623501300811767578125">
        <ele>15</ele>
        <time>2026-07-23T15:02:07.000Z</time>
        <extensions>
          <ns3:TrackPointExtension>
            <ns3:atemp>25.0</ns3:atemp>
            <ns3:hr>84</ns3:hr>
          </ns3:TrackPointExtension>
        </extensions>
      </trkpt>
      <trkpt lat="47.68477831967175006866455078125" lon="-122.34466974623501300811767578125">
        <ele>15.3999996185302734375</ele>
        <time>2026-07-23T15:02:11.000Z</time>
        <extensions>
          <ns3:TrackPointExtension>
            <ns3:atemp>25.0</ns3:atemp>
            <ns3:hr>87</ns3:hr>
          </ns3:TrackPointExtension>
        </extensions>
      </trkpt>
      <trkpt lat="47.68477831967175006866455078125" lon="-122.34466974623501300811767578125">
        <ele>15.3999996185302734375</ele>
        <time>2026-07-23T15:02:12.000Z</time>
        <extensions>
          <ns3:TrackPointExtension>
            <ns3:atemp>25.0</ns3:atemp>
            <ns3:hr>84</ns3:hr>
          </ns3:TrackPointExtension>
        </extensions>
      </trkpt>
      <trkpt lat="47.68477831967175006866455078125" lon="-122.34466974623501300811767578125">
        <ele>15.3999996185302734375</ele>
        <time>2026-07-23T15:02:14.000Z</time>
        <extensions>
          <ns3:TrackPointExtension>
            <ns3:atemp>25.0</ns3:atemp>
            <ns3:hr>81</ns3:hr>
          </ns3:TrackPointExtension>
        </extensions>
      </trkpt>
      <trkpt lat="47.68477831967175006866455078125" lon="-122.34466974623501300811767578125">
        <ele>15.3999996185302734375</ele>
        <time>2026-07-23T15:02:16.000Z</time>
        <extensions>
          <ns3:TrackPointExtension>
            <ns3:atemp>25.0</ns3:atemp>
            <ns3:hr>76</ns3:hr>
          </ns3:TrackPointExtension>
        </extensions>
      </trkpt>
      <trkpt lat="47.68477831967175006866455078125" lon="-122.34466974623501300811767578125">
        <ele>15.19999980926513671875</ele>
        <time>2026-07-23T15:02:22.000Z</time>
        <extensions>
          <ns3:TrackPointExtension>
            <ns3:atemp>25.0</ns3:atemp>
            <ns3:hr>73</ns3:hr>
          </ns3:TrackPointExtension>
        </extensions>
      </trkpt>
      <trkpt lat="47.68477831967175006866455078125" lon="-122.34466974623501300811767578125">
        <ele>15.19999980926513671875</ele>
        <time>2026-07-23T15:02:25.000Z</time>
        <extensions>
          <ns3:TrackPointExtension>
            <ns3:atemp>25.0</ns3:atemp>
            <ns3:hr>68</ns3:hr>
          </ns3:TrackPointExtension>
        </extensions>
      </trkpt>
      <trkpt lat="47.68477119505405426025390625" lon="-122.34464007429778575897216796875">
        <ele>15</ele>
        <time>2026-07-23T15:02:30.000Z</time>
        <extensions>
          <ns3:TrackPointExtension>
            <ns3:atemp>25.0</ns3:atemp>
            <ns3:hr>71</ns3:hr>
          </ns3:TrackPointExtension>
        </extensions>
      </trkpt>
      <trkpt lat="47.68476172350347042083740234375" lon="-122.34458324499428272247314453125">
        <ele>15.19999980926513671875</ele>
        <time>2026-07-23T15:02:32.000Z</time>
        <extensions>
          <ns3:TrackPointExtension>
            <ns3:atemp>25.0</ns3:atemp>
            <ns3:hr>75</ns3:hr>
          </ns3:TrackPointExtension>
        </extensions>
      </trkpt>
      <trkpt lat="47.68475669436156749725341796875" lon="-122.344538234174251556396484375">
        <ele>15.3999996185302734375</ele>
        <time>2026-07-23T15:02:33.000Z</time>
        <extensions>
          <ns3:TrackPointExtension>
            <ns3:atemp>25.0</ns3:atemp>
            <ns3:hr>72</ns3:hr>
          </ns3:TrackPointExtension>
        </extensions>
      </trkpt>
      <trkpt lat="47.68474965356290340423583984375" lon="-122.3444213904440402984619140625">
        <ele>15.19999980926513671875</ele>
        <time>2026-07-23T15:02:36.000Z</time>
        <extensions>
          <ns3:TrackPointExtension>
            <ns3:atemp>25.0</ns3:atemp>
            <ns3:hr>75</ns3:hr>
          </ns3:TrackPointExtension>
        </extensions>
      </trkpt>
      <trkpt lat="47.684754766523838043212890625" lon="-122.3443332128226757049560546875">
        <ele>15</ele>
        <time>2026-07-23T15:02:38.000Z</time>
        <extensions>
          <ns3:TrackPointExtension>
            <ns3:atemp>25.0</ns3:atemp>
            <ns3:hr>78</ns3:hr>
          </ns3:TrackPointExtension>
        </extensions>
      </trkpt>
      <trkpt lat="47.68477479927241802215576171875" lon="-122.34410262666642665863037109375">
        <ele>14.6000003814697265625</ele>
        <time>2026-07-23T15:02:43.000Z</time>
        <extensions>
          <ns3:TrackPointExtension>
            <ns3:atemp>25.0</ns3:atemp>
            <ns3:hr>75</ns3:hr>
          </ns3:TrackPointExtension>
        </extensions>
      </trkpt>
      <trkpt lat="47.6847784034907817840576171875" lon="-122.34405501745641231536865234375">
        <ele>14.6000003814697265625</ele>
        <time>2026-07-23T15:02:44.000Z</time>
        <extensions>
          <ns3:TrackPointExtension>
            <ns3:atemp>25.0</ns3:atemp>
            <ns3:hr>76</ns3:hr>
          </ns3:TrackPointExtension>
        </extensions>
      </trkpt>
      <trkpt lat="47.6847825944423675537109375" lon="-122.34386734664440155029296875">
        <ele>14.19999980926513671875</ele>
        <time>2026-07-23T15:02:48.000Z</time>
        <extensions>
          <ns3:TrackPointExtension>
            <ns3:atemp>25.0</ns3:atemp>
            <ns3:hr>73</ns3:hr>
          </ns3:TrackPointExtension>
        </extensions>
      </trkpt>
      <trkpt lat="47.68478770740330219268798828125" lon="-122.34375243075191974639892578125">
        <ele>13.80000019073486328125</ele>
        <time>2026-07-23T15:02:50.000Z</time>
        <extensions>
          <ns3:TrackPointExtension>
            <ns3:atemp>25.0</ns3:atemp>
            <ns3:hr>73</ns3:hr>
          </ns3:TrackPointExtension>
        </extensions>
      </trkpt>
      <trkpt lat="47.68479307182133197784423828125" lon="-122.34360314905643463134765625">
        <ele>13.6000003814697265625</ele>
        <time>2026-07-23T15:02:53.000Z</time>
        <extensions>
          <ns3:TrackPointExtension>
            <ns3:atemp>25.0</ns3:atemp>
            <ns3:hr>72</ns3:hr>
          </ns3:TrackPointExtension>
        </extensions>
      </trkpt>
      <trkpt lat="47.6847847737371921539306640625" lon="-122.3432643525302410125732421875">
        <ele>12.6000003814697265625</ele>
        <time>2026-07-23T15:02:59.000Z</time>
        <extensions>
          <ns3:TrackPointExtension>
            <ns3:atemp>25.0</ns3:atemp>
            <ns3:hr>73</ns3:hr>
          </ns3:TrackPointExtension>
        </extensions>
      </trkpt>
      <trkpt lat="47.68478603102266788482666015625" lon="-122.343145497143268585205078125">
        <ele>12.19999980926513671875</ele>
        <time>2026-07-23T15:03:01.000Z</time>
        <extensions>
          <ns3:TrackPointExtension>
            <ns3:atemp>25.0</ns3:atemp>
            <ns3:hr>76</ns3:hr>
          </ns3:TrackPointExtension>
        </extensions>
      </trkpt>
      <trkpt lat="47.684775888919830322265625" lon="-122.342869900166988372802734375">
        <ele>12.19999980926513671875</ele>
        <time>2026-07-23T15:03:06.000Z</time>
        <extensions>
          <ns3:TrackPointExtension>
            <ns3:atemp>25.0</ns3:atemp>
            <ns3:hr>79</ns3:hr>
          </ns3:TrackPointExtension>
        </extensions>
      </trkpt>
      <trkpt lat="47.68477790057659149169921875" lon="-122.342755906283855438232421875">
        <ele>12.19999980926513671875</ele>
        <time>2026-07-23T15:03:08.000Z</time>
        <extensions>
          <ns3:TrackPointExtension>
            <ns3:atemp>25.0</ns3:atemp>
            <ns3:hr>80</ns3:hr>
          </ns3:TrackPointExtension>
        </extensions>
      </trkpt>
      <trkpt lat="47.68478368408977985382080078125" lon="-122.34258256852626800537109375">
        <ele>12.19999980926513671875</ele>
        <time>2026-07-23T15:03:11.000Z</time>
        <extensions>
          <ns3:TrackPointExtension>
            <ns3:atemp>25.0</ns3:atemp>
            <ns3:hr>77</ns3:hr>
          </ns3:TrackPointExtension>
        </extensions>
      </trkpt>
      <trkpt lat="47.68478636629879474639892578125" lon="-122.34230822883546352386474609375">
        <ele>11.19999980926513671875</ele>
        <time>2026-07-23T15:03:16.000Z</time>
        <extensions>
          <ns3:TrackPointExtension>
            <ns3:atemp>25.0</ns3:atemp>
            <ns3:hr>76</ns3:hr>
          </ns3:TrackPointExtension>
        </extensions>
      </trkpt>
      <trkpt lat="47.684784270823001861572265625" lon="-122.34216389246284961700439453125">
        <ele>10.6000003814697265625</ele>
        <time>2026-07-23T15:03:19.000Z</time>
        <extensions>
          <ns3:TrackPointExtension>
            <ns3:atemp>24.0</ns3:atemp>
            <ns3:hr>76</ns3:hr>
          </ns3:TrackPointExtension>
        </extensions>
      </trkpt>
      <trkpt lat="47.68478234298527240753173828125" lon="-122.3417866230010986328125">
        <ele>11.3999996185302734375</ele>
        <time>2026-07-23T15:03:26.000Z</time>
        <extensions>
          <ns3:TrackPointExtension>
            <ns3:atemp>24.0</ns3:atemp>
            <ns3:hr>78</ns3:hr>
          </ns3:TrackPointExtension>
        </extensions>
      </trkpt>
      <trkpt lat="47.68478066660463809967041015625" lon="-122.34150842763483524322509765625">
        <ele>10.80000019073486328125</ele>
        <time>2026-07-23T15:03:31.000Z</time>
        <extensions>
          <ns3:TrackPointExtension>
            <ns3:atemp>24.0</ns3:atemp>
            <ns3:hr>81</ns3:hr>
          </ns3:TrackPointExtension>
        </extensions>
      </trkpt>
      <trkpt lat="47.68477798439562320709228515625" lon="-122.34131262637674808502197265625">
        <ele>10</ele>
        <time>2026-07-23T15:03:34.000Z</time>
        <extensions>
          <ns3:TrackPointExtension>
            <ns3:atemp>24.0</ns3:atemp>
            <ns3:hr>82</ns3:hr>
          </ns3:TrackPointExtension>
        </extensions>
      </trkpt>
      <trkpt lat="47.68477597273886203765869140625" lon="-122.3411896638572216033935546875">
        <ele>9.3999996185302734375</ele>
        <time>2026-07-23T15:03:36.000Z</time>
        <extensions>
          <ns3:TrackPointExtension>
            <ns3:atemp>24.0</ns3:atemp>
            <ns3:hr>82</ns3:hr>
          </ns3:TrackPointExtension>
        </extensions>
      </trkpt>
      <trkpt lat="47.68477664329111576080322265625" lon="-122.34106251038610935211181640625">
        <ele>8.80000019073486328125</ele>
        <time>2026-07-23T15:03:38.000Z</time>
        <extensions>
          <ns3:TrackPointExtension>
            <ns3:atemp>24.0</ns3:atemp>
            <ns3:hr>82</ns3:hr>
          </ns3:TrackPointExtension>
        </extensions>
      </trkpt>
      <trkpt lat="47.6847924850881099700927734375" lon="-122.34071709215641021728515625">
        <ele>7.599999904632568359375</ele>
        <time>2026-07-23T15:03:43.000Z</time>
        <extensions>
          <ns3:TrackPointExtension>
            <ns3:atemp>24.0</ns3:atemp>
            <ns3:hr>83</ns3:hr>
          </ns3:TrackPointExtension>
        </extensions>
      </trkpt>
      <trkpt lat="47.68478318117558956146240234375" lon="-122.34039396978914737701416015625">
        <ele>6.80000019073486328125</ele>
        <time>2026-07-23T15:03:48.000Z</time>
        <extensions>
          <ns3:TrackPointExtension>
            <ns3:atemp>24.0</ns3:atemp>
            <ns3:hr>86</ns3:hr>
          </ns3:TrackPointExtension>
        </extensions>
      </trkpt>
      <trkpt lat="47.68475971184670925140380859375" lon="-122.34029841609299182891845703125">
        <ele>6.599999904632568359375</ele>
        <time>2026-07-23T15:03:50.000Z</time>
        <extensions>
          <ns3:TrackPointExtension>
            <ns3:atemp>24.0</ns3:atemp>
            <ns3:hr>86</ns3:hr>
          </ns3:TrackPointExtension>
        </extensions>
      </trkpt>
      <trkpt lat="47.684748061001300811767578125" lon="-122.3402666486799716949462890625">
        <ele>6.599999904632568359375</ele>
        <time>2026-07-23T15:03:51.000Z</time>
        <extensions>
          <ns3:TrackPointExtension>
            <ns3:atemp>24.0</ns3:atemp>
            <ns3:hr>86</ns3:hr>
          </ns3:TrackPointExtension>
        </extensions>
      </trkpt>
      <trkpt lat="47.684714533388614654541015625" lon="-122.34019414521753787994384765625">
        <ele>6.400000095367431640625</ele>
        <time>2026-07-23T15:03:53.000Z</time>
        <extensions>
          <ns3:TrackPointExtension>
            <ns3:atemp>24.0</ns3:atemp>
            <ns3:hr>86</ns3:hr>
          </ns3:TrackPointExtension>
        </extensions>
      </trkpt>
      <trkpt lat="47.68468058668076992034912109375" lon="-122.34010613523423671722412109375">
        <ele>6.19999980926513671875</ele>
        <time>2026-07-23T15:03:56.000Z</time>
        <extensions>
          <ns3:TrackPointExtension>
            <ns3:atemp>24.0</ns3:atemp>
            <ns3:hr>85</ns3:hr>
          </ns3:TrackPointExtension>
        </extensions>
      </trkpt>
      <trkpt lat="47.68471009097993373870849609375" lon="-122.33988426625728607177734375">
        <ele>5.599999904632568359375</ele>
        <time>2026-07-23T15:04:01.000Z</time>
        <extensions>
          <ns3:TrackPointExtension>
            <ns3:atemp>24.0</ns3:atemp>
            <ns3:hr>85</ns3:hr>
          </ns3:TrackPointExtension>
        </extensions>
      </trkpt>
      <trkpt lat="47.6847602985799312591552734375" lon="-122.3396091721951961517333984375">
        <ele>4.400000095367431640625</ele>
        <time>2026-07-23T15:04:07.000Z</time>
        <extensions>
          <ns3:TrackPointExtension>
            <ns3:atemp>24.0</ns3:atemp>
            <ns3:hr>84</ns3:hr>
          </ns3:TrackPointExtension>
        </extensions>
      </trkpt>
      <trkpt lat="47.68476239405572414398193359375" lon="-122.3395622335374355316162109375">
        <ele>4.400000095367431640625</ele>
        <time>2026-07-23T15:04:08.000Z</time>
        <extensions>
          <ns3:TrackPointExtension>
            <ns3:atemp>24.0</ns3:atemp>
            <ns3:hr>84</ns3:hr>
          </ns3:TrackPointExtension>
        </extensions>
      </trkpt>
      <trkpt lat="47.6848008669912815093994140625" lon="-122.3392500914633274078369140625">
        <ele>3.7999999523162841796875</ele>
        <time>2026-07-23T15:04:15.000Z</time>
        <extensions>
          <ns3:TrackPointExtension>
            <ns3:atemp>24.0</ns3:atemp>
            <ns3:hr>83</ns3:hr>
          </ns3:TrackPointExtension>
        </extensions>
      </trkpt>
      <trkpt lat="47.684831209480762481689453125" lon="-122.3392014764249324798583984375">
        <ele>3.7999999523162841796875</ele>
        <time>2026-07-23T15:04:17.000Z</time>
        <extensions>
          <ns3:TrackPointExtension>
            <ns3:atemp>24.0</ns3:atemp>
            <ns3:hr>82</ns3:hr>
          </ns3:TrackPointExtension>
        </extensions>
      </trkpt>
      <trkpt lat="47.68485744483768939971923828125" lon="-122.33918295241892337799072265625">
        <ele>3.7999999523162841796875</ele>
        <time>2026-07-23T15:04:19.000Z</time>
        <extensions>
          <ns3:TrackPointExtension>
            <ns3:atemp>24.0</ns3:atemp>
            <ns3:hr>82</ns3:hr>
          </ns3:TrackPointExtension>
        </extensions>
      </trkpt>
      <trkpt lat="47.68486465327441692352294921875" lon="-122.33917842619121074676513671875">
        <ele>3.7999999523162841796875</ele>
        <time>2026-07-23T15:04:22.000Z</time>
        <extensions>
          <ns3:TrackPointExtension>
            <ns3:atemp>24.0</ns3:atemp>
            <ns3:hr>83</ns3:hr>
          </ns3:TrackPointExtension>
        </extensions>
      </trkpt>
      <trkpt lat="47.684888206422328948974609375" lon="-122.339162416756153106689453125">
        <ele>4</ele>
        <time>2026-07-23T15:04:26.000Z</time>
        <extensions>
          <ns3:TrackPointExtension>
            <ns3:atemp>24.0</ns3:atemp>
            <ns3:hr>82</ns3:hr>
          </ns3:TrackPointExtension>
        </extensions>
      </trkpt>
      <trkpt lat="47.68491779454052448272705078125" lon="-122.33914263546466827392578125">
        <ele>4.19999980926513671875</ele>
        <time>2026-07-23T15:04:28.000Z</time>
        <extensions>
          <ns3:TrackPointExtension>
            <ns3:atemp>24.0</ns3:atemp>
            <ns3:hr>82</ns3:hr>
          </ns3:TrackPointExtension>
        </extensions>
      </trkpt>
      <trkpt lat="47.68503279425203800201416015625" lon="-122.339014895260334014892578125">
        <ele>4.19999980926513671875</ele>
        <time>2026-07-23T15:04:36.000Z</time>
        <extensions>
          <ns3:TrackPointExtension>
            <ns3:atemp>24.0</ns3:atemp>
            <ns3:hr>79</ns3:hr>
          </ns3:TrackPointExtension>
        </extensions>
      </trkpt>
      <trkpt lat="47.685044445097446441650390625" lon="-122.339002154767513275146484375">
        <ele>4.19999980926513671875</ele>
        <time>2026-07-23T15:04:37.000Z</time>
        <extensions>
          <ns3:TrackPointExtension>
            <ns3:atemp>24.0</ns3:atemp>
            <ns3:hr>79</ns3:hr>
          </ns3:TrackPointExtension>
        </extensions>
      </trkpt>
      <trkpt lat="47.685145027935504913330078125" lon="-122.33890333212912082672119140625">
        <ele>4.599999904632568359375</ele>
        <time>2026-07-23T15:04:44.000Z</time>
        <extensions>
          <ns3:TrackPointExtension>
            <ns3:atemp>24.0</ns3:atemp>
            <ns3:hr>80</ns3:hr>
          </ns3:TrackPointExtension>
        </extensions>
      </trkpt>
      <trkpt lat="47.685247957706451416015625" lon="-122.3387421481311321258544921875">
        <ele>4</ele>
        <time>2026-07-23T15:04:49.000Z</time>
        <extensions>
          <ns3:TrackPointExtension>
            <ns3:atemp>24.0</ns3:atemp>
            <ns3:hr>81</ns3:hr>
          </ns3:TrackPointExtension>
        </extensions>
      </trkpt>
      <trkpt lat="47.68527151085436344146728515625" lon="-122.33870602212846279144287109375">
        <ele>4</ele>
        <time>2026-07-23T15:04:50.000Z</time>
        <extensions>
          <ns3:TrackPointExtension>
            <ns3:atemp>24.0</ns3:atemp>
            <ns3:hr>84</ns3:hr>
          </ns3:TrackPointExtension>
        </extensions>
      </trkpt>
      <trkpt lat="47.68540243618190288543701171875" lon="-122.3384625278413295745849609375">
        <ele>3.7999999523162841796875</ele>
        <time>2026-07-23T15:04:55.000Z</time>
        <extensions>
          <ns3:TrackPointExtension>
            <ns3:atemp>24.0</ns3:atemp>
            <ns3:hr>88</ns3:hr>
          </ns3:TrackPointExtension>
        </extensions>
      </trkpt>
      <trkpt lat="47.68542297184467315673828125" lon="-122.33841114677488803863525390625">
        <ele>3.7999999523162841796875</ele>
        <time>2026-07-23T15:04:56.000Z</time>
        <extensions>
          <ns3:TrackPointExtension>
            <ns3:atemp>24.0</ns3:atemp>
            <ns3:hr>86</ns3:hr>
          </ns3:TrackPointExtension>
        </extensions>
      </trkpt>
      <trkpt lat="47.6855121552944183349609375" lon="-122.338200174272060394287109375">
        <ele>3.400000095367431640625</ele>
        <time>2026-07-23T15:05:00.000Z</time>
        <extensions>
          <ns3:TrackPointExtension>
            <ns3:atemp>24.0</ns3:atemp>
            <ns3:hr>87</ns3:hr>
          </ns3:TrackPointExtension>
        </extensions>
      </trkpt>
      <trkpt lat="47.68552950583398342132568359375" lon="-122.33811543323099613189697265625">
        <ele>3.400000095367431640625</ele>
        <time>2026-07-23T15:05:02.000Z</time>
        <extensions>
          <ns3:TrackPointExtension>
            <ns3:atemp>24.0</ns3:atemp>
            <ns3:hr>88</ns3:hr>
          </ns3:TrackPointExtension>
        </extensions>
      </trkpt>
      <trkpt lat="47.6855998300015926361083984375" lon="-122.33799858950078487396240234375">
        <ele>3.400000095367431640625</ele>
        <time>2026-07-23T15:05:06.000Z</time>
        <extensions>
          <ns3:TrackPointExtension>
            <ns3:atemp>24.0</ns3:atemp>
            <ns3:hr>89</ns3:hr>
          </ns3:TrackPointExtension>
        </extensions>
      </trkpt>
      <trkpt lat="47.6856355369091033935546875" lon="-122.33780228532850742340087890625">
        <ele>4</ele>
        <time>2026-07-23T15:05:11.000Z</time>
        <extensions>
          <ns3:TrackPointExtension>
            <ns3:atemp>24.0</ns3:atemp>
            <ns3:hr>90</ns3:hr>
          </ns3:TrackPointExtension>
        </extensions>
      </trkpt>
      <trkpt lat="47.68565137870609760284423828125" lon="-122.3374151252210140228271484375">
        <ele>3.7999999523162841796875</ele>
        <time>2026-07-23T15:05:17.000Z</time>
        <extensions>
          <ns3:TrackPointExtension>
            <ns3:atemp>24.0</ns3:atemp>
            <ns3:hr>88</ns3:hr>
          </ns3:TrackPointExtension>
        </extensions>
      </trkpt>
      <trkpt lat="47.68565095961093902587890625" lon="-122.3372635804116725921630859375">
        <ele>3.7999999523162841796875</ele>
        <time>2026-07-23T15:05:19.000Z</time>
        <extensions>
          <ns3:TrackPointExtension>
            <ns3:atemp>24.0</ns3:atemp>
            <ns3:hr>87</ns3:hr>
          </ns3:TrackPointExtension>
        </extensions>
      </trkpt>
      <trkpt lat="47.68561500124633312225341796875" lon="-122.33695797622203826904296875">
        <ele>3.2000000476837158203125</ele>
        <time>2026-07-23T15:05:23.000Z</time>
        <extensions>
          <ns3:TrackPointExtension>
            <ns3:atemp>24.0</ns3:atemp>
            <ns3:hr>87</ns3:hr>
          </ns3:TrackPointExtension>
        </extensions>
      </trkpt>
      <trkpt lat="47.68550218082964420318603515625" lon="-122.33653963543474674224853515625">
        <ele>3.7999999523162841796875</ele>
        <time>2026-07-23T15:05:29.000Z</time>
        <extensions>
          <ns3:TrackPointExtension>
            <ns3:atemp>24.0</ns3:atemp>
            <ns3:hr>88</ns3:hr>
          </ns3:TrackPointExtension>
        </extensions>
      </trkpt>
      <trkpt lat="47.685371004045009613037109375" lon="-122.33623377978801727294921875">
        <ele>3</ele>
        <time>2026-07-23T15:05:34.000Z</time>
        <extensions>
          <ns3:TrackPointExtension>
            <ns3:atemp>24.0</ns3:atemp>
            <ns3:hr>89</ns3:hr>
          </ns3:TrackPointExtension>
        </extensions>
      </trkpt>
      <trkpt lat="47.6852062158286571502685546875" lon="-122.33597151003777980804443359375">
        <ele>3.400000095367431640625</ele>
        <time>2026-07-23T15:05:39.000Z</time>
        <extensions>
          <ns3:TrackPointExtension>
            <ns3:atemp>24.0</ns3:atemp>
            <ns3:hr>91</ns3:hr>
          </ns3:TrackPointExtension>
        </extensions>
      </trkpt>
      <trkpt lat="47.6851713471114635467529296875" lon="-122.33592708595097064971923828125">
        <ele>3.599999904632568359375</ele>
        <time>2026-07-23T15:05:40.000Z</time>
        <extensions>
          <ns3:TrackPointExtension>
            <ns3:atemp>24.0</ns3:atemp>
            <ns3:hr>91</ns3:hr>
          </ns3:TrackPointExtension>
        </extensions>
      </trkpt>
      <trkpt lat="47.685015611350536346435546875" lon="-122.33576883561909198760986328125">
        <ele>4</ele>
        <time>2026-07-23T15:05:44.000Z</time>
        <extensions>
          <ns3:TrackPointExtension>
            <ns3:atemp>24.0</ns3:atemp>
            <ns3:hr>94</ns3:hr>
          </ns3:TrackPointExtension>
        </extensions>
      </trkpt>
      <trkpt lat="47.684862725436687469482421875" lon="-122.33561025001108646392822265625">
        <ele>4.400000095367431640625</ele>
        <time>2026-07-23T15:05:48.000Z</time>
        <extensions>
          <ns3:TrackPointExtension>
            <ns3:atemp>24.0</ns3:atemp>
            <ns3:hr>97</ns3:hr>
          </ns3:TrackPointExtension>
        </extensions>
      </trkpt>
      <trkpt lat="47.684527449309825897216796875" lon="-122.3352874629199504852294921875">
        <ele>3.400000095367431640625</ele>
        <time>2026-07-23T15:05:57.000Z</time>
        <extensions>
          <ns3:TrackPointExtension>
            <ns3:atemp>24.0</ns3:atemp>
            <ns3:hr>99</ns3:hr>
          </ns3:TrackPointExtension>
        </extensions>
      </trkpt>
      <trkpt lat="47.68449090421199798583984375" lon="-122.33524915762245655059814453125">
        <ele>3.400000095367431640625</ele>
        <time>2026-07-23T15:05:58.000Z</time>
        <extensions>
          <ns3:TrackPointExtension>
            <ns3:atemp>24.0</ns3:atemp>
            <ns3:hr>99</ns3:hr>
          </ns3:TrackPointExtension>
        </extensions>
      </trkpt>
      <trkpt lat="47.68408547155559062957763671875" lon="-122.33483542688190937042236328125">
        <ele>3.7999999523162841796875</ele>
        <time>2026-07-23T15:06:09.000Z</time>
        <extensions>
          <ns3:TrackPointExtension>
            <ns3:atemp>24.0</ns3:atemp>
            <ns3:hr>99</ns3:hr>
          </ns3:TrackPointExtension>
        </extensions>
      </trkpt>
      <trkpt lat="47.68384440802037715911865234375" lon="-122.33459092676639556884765625">
        <ele>4.19999980926513671875</ele>
        <time>2026-07-23T15:06:16.000Z</time>
        <extensions>
          <ns3:TrackPointExtension>
            <ns3:atemp>24.0</ns3:atemp>
            <ns3:hr>98</ns3:hr>
          </ns3:TrackPointExtension>
        </extensions>
      </trkpt>
      <trkpt lat="47.68374030478298664093017578125" lon="-122.334490008652210235595703125">
        <ele>4.599999904632568359375</ele>
        <time>2026-07-23T15:06:19.000Z</time>
        <extensions>
          <ns3:TrackPointExtension>
            <ns3:atemp>24.0</ns3:atemp>
            <ns3:hr>100</ns3:hr>
          </ns3:TrackPointExtension>
        </extensions>
      </trkpt>
      <trkpt lat="47.68360585905611515045166015625" lon="-122.3343460075557231903076171875">
        <ele>4.599999904632568359375</ele>
        <time>2026-07-23T15:06:23.000Z</time>
        <extensions>
          <ns3:TrackPointExtension>
            <ns3:atemp>23.0</ns3:atemp>
            <ns3:hr>103</ns3:hr>
          </ns3:TrackPointExtension>
        </extensions>
      </trkpt>
      <trkpt lat="47.683496810495853424072265625" lon="-122.33423955738544464111328125">
        <ele>4.19999980926513671875</ele>
        <time>2026-07-23T15:06:26.000Z</time>
        <extensions>
          <ns3:TrackPointExtension>
            <ns3:atemp>23.0</ns3:atemp>
            <ns3:hr>106</ns3:hr>
          </ns3:TrackPointExtension>
        </extensions>
      </trkpt>
      <trkpt lat="47.68318927846848964691162109375" lon="-122.3338917084038257598876953125">
        <ele>4.19999980926513671875</ele>
        <time>2026-07-23T15:06:35.000Z</time>
        <extensions>
          <ns3:TrackPointExtension>
            <ns3:atemp>23.0</ns3:atemp>
            <ns3:hr>106</ns3:hr>
          </ns3:TrackPointExtension>
        </extensions>
      </trkpt>
      <trkpt lat="47.68301007337868213653564453125" lon="-122.33362189494073390960693359375">
        <ele>3.599999904632568359375</ele>
        <time>2026-07-23T15:06:41.000Z</time>
        <extensions>
          <ns3:TrackPointExtension>
            <ns3:atemp>23.0</ns3:atemp>
            <ns3:hr>105</ns3:hr>
          </ns3:TrackPointExtension>
        </extensions>
      </trkpt>
      <trkpt lat="47.68290244974195957183837890625" lon="-122.33341502957046031951904296875">
        <ele>3.2000000476837158203125</ele>
        <time>2026-07-23T15:06:45.000Z</time>
        <extensions>
          <ns3:TrackPointExtension>
            <ns3:atemp>23.0</ns3:atemp>
            <ns3:hr>105</ns3:hr>
          </ns3:TrackPointExtension>
        </extensions>
      </trkpt>
      <trkpt lat="47.6827315427362918853759765625" lon="-122.3329683579504489898681640625">
        <ele>3.2000000476837158203125</ele>
        <time>2026-07-23T15:06:53.000Z</time>
        <extensions>
          <ns3:TrackPointExtension>
            <ns3:atemp>23.0</ns3:atemp>
            <ns3:hr>106</ns3:hr>
          </ns3:TrackPointExtension>
        </extensions>
      </trkpt>
      <trkpt lat="47.6825796626508235931396484375" lon="-122.33225899748504161834716796875">
        <ele>3.2000000476837158203125</ele>
        <time>2026-07-23T15:07:05.000Z</time>
        <extensions>
          <ns3:TrackPointExtension>
            <ns3:atemp>23.0</ns3:atemp>
            <ns3:hr>104</ns3:hr>
          </ns3:TrackPointExtension>
        </extensions>
      </trkpt>
      <trkpt lat="47.68255040980875492095947265625" lon="-122.33182062394917011260986328125">
        <ele>2.7999999523162841796875</ele>
        <time>2026-07-23T15:07:12.000Z</time>
        <extensions>
          <ns3:TrackPointExtension>
            <ns3:atemp>23.0</ns3:atemp>
            <ns3:hr>104</ns3:hr>
          </ns3:TrackPointExtension>
        </extensions>
      </trkpt>
      <trkpt lat="47.6825518347322940826416015625" lon="-122.3317586816847324371337890625">
        <ele>2.7999999523162841796875</ele>
        <time>2026-07-23T15:07:13.000Z</time>
        <extensions>
          <ns3:TrackPointExtension>
            <ns3:atemp>23.0</ns3:atemp>
            <ns3:hr>104</ns3:hr>
          </ns3:TrackPointExtension>
        </extensions>
      </trkpt>
      <trkpt lat="47.6825726218521595001220703125" lon="-122.33136883936822414398193359375">
        <ele>3.2000000476837158203125</ele>
        <time>2026-07-23T15:07:19.000Z</time>
        <extensions>
          <ns3:TrackPointExtension>
            <ns3:atemp>23.0</ns3:atemp>
            <ns3:hr>101</ns3:hr>
          </ns3:TrackPointExtension>
        </extensions>
      </trkpt>
      <trkpt lat="47.6825910620391368865966796875" lon="-122.3311635665595531463623046875">
        <ele>3.2000000476837158203125</ele>
        <time>2026-07-23T15:07:22.000Z</time>
        <extensions>
          <ns3:TrackPointExtension>
            <ns3:atemp>23.0</ns3:atemp>
            <ns3:hr>98</ns3:hr>
          </ns3:TrackPointExtension>
        </extensions>
      </trkpt>
      <trkpt lat="47.68265048973262310028076171875" lon="-122.3306179046630859375">
        <ele>2.7999999523162841796875</ele>
        <time>2026-07-23T15:07:30.000Z</time>
        <extensions>
          <ns3:TrackPointExtension>
            <ns3:atemp>23.0</ns3:atemp>
            <ns3:hr>97</ns3:hr>
          </ns3:TrackPointExtension>
        </extensions>
      </trkpt>
      <trkpt lat="47.68265384249389171600341796875" lon="-122.3305526934564113616943359375">
        <ele>2.599999904632568359375</ele>
        <time>2026-07-23T15:07:31.000Z</time>
        <extensions>
          <ns3:TrackPointExtension>
            <ns3:atemp>23.0</ns3:atemp>
            <ns3:hr>97</ns3:hr>
          </ns3:TrackPointExtension>
        </extensions>
      </trkpt>
      <trkpt lat="47.6826341450214385986328125" lon="-122.330063693225383758544921875">
        <ele>2</ele>
        <time>2026-07-23T15:07:38.000Z</time>
        <extensions>
          <ns3:TrackPointExtension>
            <ns3:atemp>23.0</ns3:atemp>
            <ns3:hr>94</ns3:hr>
          </ns3:TrackPointExtension>
        </extensions>
      </trkpt>
      <trkpt lat="47.6826108433306217193603515625" lon="-122.32984920032322406768798828125">
        <ele>2</ele>
        <time>2026-07-23T15:07:41.000Z</time>
        <extensions>
          <ns3:TrackPointExtension>
            <ns3:atemp>23.0</ns3:atemp>
            <ns3:hr>95</ns3:hr>
          </ns3:TrackPointExtension>
        </extensions>
      </trkpt>
      <trkpt lat="47.68256532959640026092529296875" lon="-122.3295696638524532318115234375">
        <ele>1.39999997615814208984375</ele>
        <time>2026-07-23T15:07:45.000Z</time>
        <extensions>
          <ns3:TrackPointExtension>
            <ns3:atemp>23.0</ns3:atemp>
            <ns3:hr>95</ns3:hr>
          </ns3:TrackPointExtension>
        </extensions>
      </trkpt>
      <trkpt lat="47.6824995316565036773681640625" lon="-122.32923229224979877471923828125">
        <ele>0.800000011920928955078125</ele>
        <time>2026-07-23T15:07:50.000Z</time>
        <extensions>
          <ns3:TrackPointExtension>
            <ns3:atemp>23.0</ns3:atemp>
            <ns3:hr>94</ns3:hr>
          </ns3:TrackPointExtension>
        </extensions>
      </trkpt>
      <trkpt lat="47.6823664270341396331787109375" lon="-122.32881604693830013275146484375">
        <ele>1.60000002384185791015625</ele>
        <time>2026-07-23T15:07:57.000Z</time>
        <extensions>
          <ns3:TrackPointExtension>
            <ns3:atemp>23.0</ns3:atemp>
            <ns3:hr>94</ns3:hr>
          </ns3:TrackPointExtension>
        </extensions>
      </trkpt>
      <trkpt lat="47.68229291774332523345947265625" lon="-122.328640781342983245849609375">
        <ele>2.400000095367431640625</ele>
        <time>2026-07-23T15:08:00.000Z</time>
        <extensions>
          <ns3:TrackPointExtension>
            <ns3:atemp>23.0</ns3:atemp>
            <ns3:hr>93</ns3:hr>
          </ns3:TrackPointExtension>
        </extensions>
      </trkpt>
      <trkpt lat="47.6821982860565185546875" lon="-122.32844925485551357269287109375">
        <ele>2.599999904632568359375</ele>
        <time>2026-07-23T15:08:03.000Z</time>
        <extensions>
          <ns3:TrackPointExtension>
            <ns3:atemp>23.0</ns3:atemp>
            <ns3:hr>92</ns3:hr>
          </ns3:TrackPointExtension>
        </extensions>
      </trkpt>
      <trkpt lat="47.6821639202535152435302734375" lon="-122.3283881507813930511474609375">
        <ele>2.7999999523162841796875</ele>
        <time>2026-07-23T15:08:04.000Z</time>
        <extensions>
          <ns3:TrackPointExtension>
            <ns3:atemp>23.0</ns3:atemp>
            <ns3:hr>92</ns3:hr>
          </ns3:TrackPointExtension>
        </extensions>
      </trkpt>
      <trkpt lat="47.68200357444584369659423828125" lon="-122.328129149973392486572265625">
        <ele>2</ele>
        <time>2026-07-23T15:08:09.000Z</time>
        <extensions>
          <ns3:TrackPointExtension>
            <ns3:atemp>23.0</ns3:atemp>
            <ns3:hr>92</ns3:hr>
          </ns3:TrackPointExtension>
        </extensions>
      </trkpt>
      <trkpt lat="47.68191824667155742645263671875" lon="-122.3279987275600433349609375">
        <ele>1.39999997615814208984375</ele>
        <time>2026-07-23T15:08:12.000Z</time>
        <extensions>
          <ns3:TrackPointExtension>
            <ns3:atemp>23.0</ns3:atemp>
            <ns3:hr>93</ns3:hr>
          </ns3:TrackPointExtension>
        </extensions>
      </trkpt>
      <trkpt lat="47.68186778761446475982666015625" lon="-122.32792161405086517333984375">
        <ele>1.2000000476837158203125</ele>
        <time>2026-07-23T15:08:14.000Z</time>
        <extensions>
          <ns3:TrackPointExtension>
            <ns3:atemp>23.0</ns3:atemp>
            <ns3:hr>95</ns3:hr>
          </ns3:TrackPointExtension>
        </extensions>
      </trkpt>
      <trkpt lat="47.68174842931330204010009765625" lon="-122.32773863710463047027587890625">
        <ele>0.800000011920928955078125</ele>
        <time>2026-07-23T15:08:21.000Z</time>
        <extensions>
          <ns3:TrackPointExtension>
            <ns3:atemp>23.0</ns3:atemp>
            <ns3:hr>95</ns3:hr>
          </ns3:TrackPointExtension>
        </extensions>
      </trkpt>
      <trkpt lat="47.681717835366725921630859375" lon="-122.32769186608493328094482421875">
        <ele>1</ele>
        <time>2026-07-23T15:08:28.000Z</time>
        <extensions>
          <ns3:TrackPointExtension>
            <ns3:atemp>23.0</ns3:atemp>
            <ns3:hr>96</ns3:hr>
          </ns3:TrackPointExtension>
        </extensions>
      </trkpt>
      <trkpt lat="47.68169277347624301910400390625" lon="-122.32765716500580310821533203125">
        <ele>1</ele>
        <time>2026-07-23T15:08:31.000Z</time>
        <extensions>
          <ns3:TrackPointExtension>
            <ns3:atemp>23.0</ns3:atemp>
            <ns3:hr>96</ns3:hr>
          </ns3:TrackPointExtension>
        </extensions>
      </trkpt>
      <trkpt lat="47.68167056143283843994140625" lon="-122.32763118110597133636474609375">
        <ele>1.2000000476837158203125</ele>
        <time>2026-07-23T15:08:33.000Z</time>
        <extensions>
          <ns3:TrackPointExtension>
            <ns3:atemp>23.0</ns3:atemp>
            <ns3:hr>95</ns3:hr>
          </ns3:TrackPointExtension>
        </extensions>
      </trkpt>
      <trkpt lat="47.6816291548311710357666015625" lon="-122.32763268984854221343994140625">
        <ele>0.800000011920928955078125</ele>
        <time>2026-07-23T15:08:35.000Z</time>
        <extensions>
          <ns3:TrackPointExtension>
            <ns3:atemp>23.0</ns3:atemp>
            <ns3:hr>95</ns3:hr>
          </ns3:TrackPointExtension>
        </extensions>
      </trkpt>
      <trkpt lat="47.6815869100391864776611328125" lon="-122.3276740126311779022216796875">
        <ele>0.60000002384185791015625</ele>
        <time>2026-07-23T15:08:37.000Z</time>
        <extensions>
          <ns3:TrackPointExtension>
            <ns3:atemp>23.0</ns3:atemp>
            <ns3:hr>95</ns3:hr>
          </ns3:TrackPointExtension>
        </extensions>
      </trkpt>
      <trkpt lat="47.68156863749027252197265625" lon="-122.32770033180713653564453125">
        <ele>0.4000000059604644775390625</ele>
        <time>2026-07-23T15:08:38.000Z</time>
        <extensions>
          <ns3:TrackPointExtension>
            <ns3:atemp>23.0</ns3:atemp>
            <ns3:hr>95</ns3:hr>
          </ns3:TrackPointExtension>
        </extensions>
      </trkpt>
      <trkpt lat="47.681526727974414825439453125" lon="-122.32775154523551464080810546875">
        <ele>0</ele>
        <time>2026-07-23T15:08:40.000Z</time>
        <extensions>
          <ns3:TrackPointExtension>
            <ns3:atemp>23.0</ns3:atemp>
            <ns3:hr>91</ns3:hr>
          </ns3:TrackPointExtension>
        </extensions>
      </trkpt>
      <trkpt lat="47.6814754307270050048828125" lon="-122.3278034292161464691162109375">
        <ele>-0.4000000059604644775390625</ele>
        <time>2026-07-23T15:08:42.000Z</time>
        <extensions>
          <ns3:TrackPointExtension>
            <ns3:atemp>23.0</ns3:atemp>
            <ns3:hr>87</ns3:hr>
          </ns3:TrackPointExtension>
        </extensions>
      </trkpt>
      <trkpt lat="47.68145489506423473358154296875" lon="-122.327836453914642333984375">
        <ele>-0.800000011920928955078125</ele>
        <time>2026-07-23T15:08:43.000Z</time>
        <extensions>
          <ns3:TrackPointExtension>
            <ns3:atemp>23.0</ns3:atemp>
            <ns3:hr>86</ns3:hr>
          </ns3:TrackPointExtension>
        </extensions>
      </trkpt>
      <trkpt lat="47.6814325153827667236328125" lon="-122.3278738372027873992919921875">
        <ele>-1</ele>
        <time>2026-07-23T15:08:44.000Z</time>
        <extensions>
          <ns3:TrackPointExtension>
            <ns3:atemp>23.0</ns3:atemp>
            <ns3:hr>85</ns3:hr>
          </ns3:TrackPointExtension>
        </extensions>
      </trkpt>
      <trkpt lat="47.68131910823285579681396484375" lon="-122.32801415026187896728515625">
        <ele>-1.7999999523162841796875</ele>
        <time>2026-07-23T15:08:48.000Z</time>
        <extensions>
          <ns3:TrackPointExtension>
            <ns3:atemp>23.0</ns3:atemp>
            <ns3:hr>83</ns3:hr>
          </ns3:TrackPointExtension>
        </extensions>
      </trkpt>
      <trkpt lat="47.68123260699212551116943359375" lon="-122.32811464928090572357177734375">
        <ele>-2.599999904632568359375</ele>
        <time>2026-07-23T15:08:51.000Z</time>
        <extensions>
          <ns3:TrackPointExtension>
            <ns3:atemp>23.0</ns3:atemp>
            <ns3:hr>81</ns3:hr>
          </ns3:TrackPointExtension>
        </extensions>
      </trkpt>
      <trkpt lat="47.68116907216608524322509765625" lon="-122.3281762562692165374755859375">
        <ele>-2.2000000476837158203125</ele>
        <time>2026-07-23T15:08:53.000Z</time>
        <extensions>
          <ns3:TrackPointExtension>
            <ns3:atemp>23.0</ns3:atemp>
            <ns3:hr>78</ns3:hr>
          </ns3:TrackPointExtension>
        </extensions>
      </trkpt>
      <trkpt lat="47.6810140907764434814453125" lon="-122.328265607357025146484375">
        <ele>-2</ele>
        <time>2026-07-23T15:08:57.000Z</time>
        <extensions>
          <ns3:TrackPointExtension>
            <ns3:atemp>23.0</ns3:atemp>
            <ns3:hr>74</ns3:hr>
          </ns3:TrackPointExtension>
        </extensions>
      </trkpt>
      <trkpt lat="47.680720053613185882568359375" lon="-122.32844808138906955718994140625">
        <ele>-2.400000095367431640625</ele>
        <time>2026-07-23T15:09:05.000Z</time>
        <extensions>
          <ns3:TrackPointExtension>
            <ns3:atemp>23.0</ns3:atemp>
            <ns3:hr>74</ns3:hr>
          </ns3:TrackPointExtension>
        </extensions>
      </trkpt>
      <trkpt lat="47.68058854155242443084716796875" lon="-122.328462414443492889404296875">
        <ele>-3</ele>
        <time>2026-07-23T15:09:09.000Z</time>
        <extensions>
          <ns3:TrackPointExtension>
            <ns3:atemp>23.0</ns3:atemp>
            <ns3:hr>72</ns3:hr>
          </ns3:TrackPointExtension>
        </extensions>
      </trkpt>
      <trkpt lat="47.68055878579616546630859375" lon="-122.32847825624048709869384765625">
        <ele>-3</ele>
        <time>2026-07-23T15:09:10.000Z</time>
        <extensions>
          <ns3:TrackPointExtension>
            <ns3:atemp>23.0</ns3:atemp>
            <ns3:hr>75</ns3:hr>
          </ns3:TrackPointExtension>
        </extensions>
      </trkpt>
      <trkpt lat="47.68053355626761913299560546875" lon="-122.32848311774432659149169921875">
        <ele>-3.2000000476837158203125</ele>
        <time>2026-07-23T15:09:11.000Z</time>
        <extensions>
          <ns3:TrackPointExtension>
            <ns3:atemp>23.0</ns3:atemp>
            <ns3:hr>74</ns3:hr>
          </ns3:TrackPointExtension>
        </extensions>
      </trkpt>
      <trkpt lat="47.6804811693727970123291015625" lon="-122.32842947356402873992919921875">
        <ele>-3</ele>
        <time>2026-07-23T15:09:14.000Z</time>
        <extensions>
          <ns3:TrackPointExtension>
            <ns3:atemp>23.0</ns3:atemp>
            <ns3:hr>77</ns3:hr>
          </ns3:TrackPointExtension>
        </extensions>
      </trkpt>
      <trkpt lat="47.680469267070293426513671875" lon="-122.3284037411212921142578125">
        <ele>-2.7999999523162841796875</ele>
        <time>2026-07-23T15:09:15.000Z</time>
        <extensions>
          <ns3:TrackPointExtension>
            <ns3:atemp>23.0</ns3:atemp>
            <ns3:hr>79</ns3:hr>
          </ns3:TrackPointExtension>
        </extensions>
      </trkpt>
      <trkpt lat="47.68044705502688884735107421875" lon="-122.32837356626987457275390625">
        <ele>-2.400000095367431640625</ele>
        <time>2026-07-23T15:09:17.000Z</time>
        <extensions>
          <ns3:TrackPointExtension>
            <ns3:atemp>23.0</ns3:atemp>
            <ns3:hr>81</ns3:hr>
          </ns3:TrackPointExtension>
        </extensions>
      </trkpt>
      <trkpt lat="47.68044102005660533905029296875" lon="-122.32836895622313022613525390625">
        <ele>-2.2000000476837158203125</ele>
        <time>2026-07-23T15:09:20.000Z</time>
        <extensions>
          <ns3:TrackPointExtension>
            <ns3:atemp>23.0</ns3:atemp>
            <ns3:hr>83</ns3:hr>
          </ns3:TrackPointExtension>
        </extensions>
      </trkpt>
      <trkpt lat="47.68044102005660533905029296875" lon="-122.32836895622313022613525390625">
        <ele>-2</ele>
        <time>2026-07-23T15:09:27.000Z</time>
        <extensions>
          <ns3:TrackPointExtension>
            <ns3:atemp>23.0</ns3:atemp>
            <ns3:hr>84</ns3:hr>
          </ns3:TrackPointExtension>
        </extensions>
      </trkpt>
      <trkpt lat="47.68044102005660533905029296875" lon="-122.32836895622313022613525390625">
        <ele>-2.2000000476837158203125</ele>
        <time>2026-07-23T15:09:28.000Z</time>
        <extensions>
          <ns3:TrackPointExtension>
            <ns3:atemp>23.0</ns3:atemp>
            <ns3:hr>84</ns3:hr>
          </ns3:TrackPointExtension>
        </extensions>
      </trkpt>
      <trkpt lat="47.68044102005660533905029296875" lon="-122.32836895622313022613525390625">
        <ele>-2.7999999523162841796875</ele>
        <time>2026-07-23T15:09:41.000Z</time>
        <extensions>
          <ns3:TrackPointExtension>
            <ns3:atemp>23.0</ns3:atemp>
            <ns3:hr>87</ns3:hr>
          </ns3:TrackPointExtension>
        </extensions>
      </trkpt>
      <trkpt lat="47.68044102005660533905029296875" lon="-122.32836895622313022613525390625">
        <ele>-3</ele>
        <time>2026-07-23T15:09:46.000Z</time>
        <extensions>
          <ns3:TrackPointExtension>
            <ns3:atemp>23.0</ns3:atemp>
            <ns3:hr>85</ns3:hr>
          </ns3:TrackPointExtension>
        </extensions>
      </trkpt>
      <trkpt lat="47.6804454624652862548828125" lon="-122.32836895622313022613525390625">
        <ele>-3.2000000476837158203125</ele>
        <time>2026-07-23T15:09:49.000Z</time>
        <extensions>
          <ns3:TrackPointExtension>
            <ns3:atemp>23.0</ns3:atemp>
            <ns3:hr>82</ns3:hr>
          </ns3:TrackPointExtension>
        </extensions>
      </trkpt>
      <trkpt lat="47.6804543472826480865478515625" lon="-122.328364513814449310302734375">
        <ele>-3.2000000476837158203125</ele>
        <time>2026-07-23T15:09:53.000Z</time>
        <extensions>
          <ns3:TrackPointExtension>
            <ns3:atemp>23.0</ns3:atemp>
            <ns3:hr>82</ns3:hr>
          </ns3:TrackPointExtension>
        </extensions>
      </trkpt>
      <trkpt lat="47.68045308999717235565185546875" lon="-122.3283656872808933258056640625">
        <ele>-2.400000095367431640625</ele>
        <time>2026-07-23T15:10:05.000Z</time>
        <extensions>
          <ns3:TrackPointExtension>
            <ns3:atemp>23.0</ns3:atemp>
            <ns3:hr>84</ns3:hr>
          </ns3:TrackPointExtension>
        </extensions>
      </trkpt>
      <trkpt lat="47.68045308999717235565185546875" lon="-122.3283656872808933258056640625">
        <ele>-2.599999904632568359375</ele>
        <time>2026-07-23T15:10:11.000Z</time>
        <extensions>
          <ns3:TrackPointExtension>
            <ns3:atemp>23.0</ns3:atemp>
            <ns3:hr>81</ns3:hr>
          </ns3:TrackPointExtension>
        </extensions>
      </trkpt>
      <trkpt lat="47.68045292235910892486572265625" lon="-122.32836694456636905670166015625">
        <ele>-2.599999904632568359375</ele>
        <time>2026-07-23T15:10:12.000Z</time>
        <extensions>
          <ns3:TrackPointExtension>
            <ns3:atemp>23.0</ns3:atemp>
            <ns3:hr>86</ns3:hr>
          </ns3:TrackPointExtension>
        </extensions>
      </trkpt>
      <trkpt lat="47.68045292235910892486572265625" lon="-122.32836694456636905670166015625">
        <ele>-2.599999904632568359375</ele>
        <time>2026-07-23T15:10:16.000Z</time>
        <extensions>
          <ns3:TrackPointExtension>
            <ns3:atemp>23.0</ns3:atemp>
            <ns3:hr>85</ns3:hr>
          </ns3:TrackPointExtension>
        </extensions>
      </trkpt>
      <trkpt lat="47.6804469712078571319580078125" lon="-122.32837490737438201904296875">
        <ele>-2.2000000476837158203125</ele>
        <time>2026-07-23T15:10:32.000Z</time>
        <extensions>
          <ns3:TrackPointExtension>
            <ns3:atemp>23.0</ns3:atemp>
            <ns3:hr>82</ns3:hr>
          </ns3:TrackPointExtension>
        </extensions>
      </trkpt>
      <trkpt lat="47.6804469712078571319580078125" lon="-122.32837490737438201904296875">
        <ele>-2</ele>
        <time>2026-07-23T15:10:34.000Z</time>
        <extensions>
          <ns3:TrackPointExtension>
            <ns3:atemp>23.0</ns3:atemp>
            <ns3:hr>81</ns3:hr>
          </ns3:TrackPointExtension>
        </extensions>
      </trkpt>
      <trkpt lat="47.6804469712078571319580078125" lon="-122.32837490737438201904296875">
        <ele>-2</ele>
        <time>2026-07-23T15:10:53.000Z</time>
        <extensions>
          <ns3:TrackPointExtension>
            <ns3:atemp>23.0</ns3:atemp>
            <ns3:hr>78</ns3:hr>
          </ns3:TrackPointExtension>
        </extensions>
      </trkpt>
      <trkpt lat="47.68043682910501956939697265625" lon="-122.3283769190311431884765625">
        <ele>-3</ele>
        <time>2026-07-23T15:11:12.000Z</time>
        <extensions>
          <ns3:TrackPointExtension>
            <ns3:atemp>23.0</ns3:atemp>
            <ns3:hr>78</ns3:hr>
          </ns3:TrackPointExtension>
        </extensions>
      </trkpt>
      <trkpt lat="47.68043817020952701568603515625" lon="-122.32838471420109272003173828125">
        <ele>-2.2000000476837158203125</ele>
        <time>2026-07-23T15:11:27.000Z</time>
        <extensions>
          <ns3:TrackPointExtension>
            <ns3:atemp>23.0</ns3:atemp>
            <ns3:hr>82</ns3:hr>
          </ns3:TrackPointExtension>
        </extensions>
      </trkpt>
      <trkpt lat="47.68043817020952701568603515625" lon="-122.3283847980201244354248046875">
        <ele>-2</ele>
        <time>2026-07-23T15:11:28.000Z</time>
        <extensions>
          <ns3:TrackPointExtension>
            <ns3:atemp>23.0</ns3:atemp>
            <ns3:hr>79</ns3:hr>
          </ns3:TrackPointExtension>
        </extensions>
      </trkpt>
      <trkpt lat="47.68043900839984416961669921875" lon="-122.32838563621044158935546875">
        <ele>-2</ele>
        <time>2026-07-23T15:11:29.000Z</time>
        <extensions>
          <ns3:TrackPointExtension>
            <ns3:atemp>23.0</ns3:atemp>
            <ns3:hr>80</ns3:hr>
          </ns3:TrackPointExtension>
        </extensions>
      </trkpt>
      <trkpt lat="47.68043666146695613861083984375" lon="-122.3283982090651988983154296875">
        <ele>-2.2000000476837158203125</ele>
        <time>2026-07-23T15:11:32.000Z</time>
        <extensions>
          <ns3:TrackPointExtension>
            <ns3:atemp>23.0</ns3:atemp>
            <ns3:hr>81</ns3:hr>
          </ns3:TrackPointExtension>
        </extensions>
      </trkpt>
      <trkpt lat="47.68043548800051212310791015625" lon="-122.32840633951127529144287109375">
        <ele>-2.2000000476837158203125</ele>
        <time>2026-07-23T15:11:33.000Z</time>
        <extensions>
          <ns3:TrackPointExtension>
            <ns3:atemp>23.0</ns3:atemp>
            <ns3:hr>79</ns3:hr>
          </ns3:TrackPointExtension>
        </extensions>
      </trkpt>
      <trkpt lat="47.68043548800051212310791015625" lon="-122.32840633951127529144287109375">
        <ele>-2.2000000476837158203125</ele>
        <time>2026-07-23T15:11:34.000Z</time>
        <extensions>
          <ns3:TrackPointExtension>
            <ns3:atemp>23.0</ns3:atemp>
            <ns3:hr>82</ns3:hr>
          </ns3:TrackPointExtension>
        </extensions>
      </trkpt>
      <trkpt lat="47.6804181374609470367431640625" lon="-122.32839812524616718292236328125">
        <ele>-2</ele>
        <time>2026-07-23T15:11:37.000Z</time>
        <extensions>
          <ns3:TrackPointExtension>
            <ns3:atemp>23.0</ns3:atemp>
            <ns3:hr>80</ns3:hr>
          </ns3:TrackPointExtension>
        </extensions>
      </trkpt>
      <trkpt lat="47.6803805865347385406494140625" lon="-122.32838672585785388946533203125">
        <ele>-1.7999999523162841796875</ele>
        <time>2026-07-23T15:11:40.000Z</time>
        <extensions>
          <ns3:TrackPointExtension>
            <ns3:atemp>23.0</ns3:atemp>
            <ns3:hr>79</ns3:hr>
          </ns3:TrackPointExtension>
        </extensions>
      </trkpt>
      <trkpt lat="47.6803524233400821685791015625" lon="-122.3283871449530124664306640625">
        <ele>-1.7999999523162841796875</ele>
        <time>2026-07-23T15:11:42.000Z</time>
        <extensions>
          <ns3:TrackPointExtension>
            <ns3:atemp>23.0</ns3:atemp>
            <ns3:hr>76</ns3:hr>
          </ns3:TrackPointExtension>
        </extensions>
      </trkpt>
      <trkpt lat="47.680347226560115814208984375" lon="-122.328371219336986541748046875">
        <ele>-2</ele>
        <time>2026-07-23T15:11:49.000Z</time>
        <extensions>
          <ns3:TrackPointExtension>
            <ns3:atemp>23.0</ns3:atemp>
            <ns3:hr>74</ns3:hr>
          </ns3:TrackPointExtension>
        </extensions>
      </trkpt>
      <trkpt lat="47.68033859319984912872314453125" lon="-122.328368537127971649169921875">
        <ele>-0.800000011920928955078125</ele>
        <time>2026-07-23T15:11:55.000Z</time>
        <extensions>
          <ns3:TrackPointExtension>
            <ns3:atemp>23.0</ns3:atemp>
            <ns3:hr>73</ns3:hr>
          </ns3:TrackPointExtension>
        </extensions>
      </trkpt>
      <trkpt lat="47.68033859319984912872314453125" lon="-122.328368537127971649169921875">
        <ele>-0.800000011920928955078125</ele>
        <time>2026-07-23T15:11:56.000Z</time>
        <extensions>
          <ns3:TrackPointExtension>
            <ns3:atemp>23.0</ns3:atemp>
            <ns3:hr>73</ns3:hr>
          </ns3:TrackPointExtension>
        </extensions>
      </trkpt>
      <trkpt lat="47.68033859319984912872314453125" lon="-122.328368537127971649169921875">
        <ele>-0.60000002384185791015625</ele>
        <time>2026-07-23T15:11:57.000Z</time>
        <extensions>
          <ns3:TrackPointExtension>
            <ns3:atemp>23.0</ns3:atemp>
            <ns3:hr>73</ns3:hr>
          </ns3:TrackPointExtension>
        </extensions>
      </trkpt>
    </trkseg>
  </trk>
</gpx>
