<gpx xmlns:ns3="http://www.garmin.com/xmlschemas/TrackPointExtension/v1" xmlns="http://www.topografix.com/GPX/1/1" xmlns:xsi="http://www.w3.org/2001/XMLSchema-instance" xmlns:ns2="http://www.garmin.com/xmlschemas/GpxExtensions/v3" creator="Garmin Connect" version="1.1" xsi:schemaLocation="http://www.topografix.com/GPX/1/1 http://www.topografix.com/GPX/11.xsd">
  <extensions>
<distance>1899.08</distance>
<average_hr>94.0</average_hr>
<average_speed>4.322999954223633</average_speed>
<start_time>2026-07-24T17:55:55+00:00</start_time>
<end_time>2026-07-24T18:03:14.329000+00:00</end_time>
<moving_time>413.0</moving_time>
<elapsed_time>439.329</elapsed_time>
</extensions>
<metadata>
    <link href="connect.garmin.com">
      <text>Garmin Connect</text>
    </link>
    <time>2026-07-24T17:55:55.000Z</time>
  </metadata>
  <trk>
    <name>Seattle Cycling</name>
    <type>cycling</type>
    <trkseg>
      <trkpt lat="47.69927817396819591522216796875" lon="-122.3540354333817958831787109375">
        <ele>99.1999969482421875</ele>
        <time>2026-07-24T17:56:04.000Z</time>
        <extensions>
          <ns3:TrackPointExtension>
            <ns3:atemp>25.0</ns3:atemp>
            <ns3:hr>74</ns3:hr>
          </ns3:TrackPointExtension>
        </extensions>
      </trkpt>
      <trkpt lat="47.699211202561855316162109375" lon="-122.35404741950333118438720703125">
        <ele>99.1999969482421875</ele>
        <time>2026-07-24T17:56:06.000Z</time>
        <extensions>
          <ns3:TrackPointExtension>
            <ns3:atemp>25.0</ns3:atemp>
            <ns3:hr>77</ns3:hr>
          </ns3:TrackPointExtension>
        </extensions>
      </trkpt>
      <trkpt lat="47.69913199357688426971435546875" lon="-122.35403249971568584442138671875">
        <ele>98.8000030517578125</ele>
        <time>2026-07-24T17:56:08.000Z</time>
        <extensions>
          <ns3:TrackPointExtension>
            <ns3:atemp>25.0</ns3:atemp>
            <ns3:hr>80</ns3:hr>
          </ns3:TrackPointExtension>
        </extensions>
      </trkpt>
      <trkpt lat="47.6990910060703754425048828125" lon="-122.35404607839882373809814453125">
        <ele>98.40000152587890625</ele>
        <time>2026-07-24T17:56:09.000Z</time>
        <extensions>
          <ns3:TrackPointExtension>
            <ns3:atemp>25.0</ns3:atemp>
            <ns3:hr>75</ns3:hr>
          </ns3:TrackPointExtension>
        </extensions>
      </trkpt>
      <trkpt lat="47.6990390382707118988037109375" lon="-122.35404859296977519989013671875">
        <ele>98.1999969482421875</ele>
        <time>2026-07-24T17:56:10.000Z</time>
        <extensions>
          <ns3:TrackPointExtension>
            <ns3:atemp>25.0</ns3:atemp>
            <ns3:hr>73</ns3:hr>
          </ns3:TrackPointExtension>
        </extensions>
      </trkpt>
      <trkpt lat="47.69885170273482799530029296875" lon="-122.35405580140650272369384765625">
        <ele>98</ele>
        <time>2026-07-24T17:56:14.000Z</time>
        <extensions>
          <ns3:TrackPointExtension>
            <ns3:atemp>25.0</ns3:atemp>
            <ns3:hr>74</ns3:hr>
          </ns3:TrackPointExtension>
        </extensions>
      </trkpt>
      <trkpt lat="47.6985485292971134185791015625" lon="-122.35404322855174541473388671875">
        <ele>97.59999847412109375</ele>
        <time>2026-07-24T17:56:21.000Z</time>
        <extensions>
          <ns3:TrackPointExtension>
            <ns3:atemp>25.0</ns3:atemp>
            <ns3:hr>71</ns3:hr>
          </ns3:TrackPointExtension>
        </extensions>
      </trkpt>
      <trkpt lat="47.6984392292797565460205078125" lon="-122.354043312370777130126953125">
        <ele>97.59999847412109375</ele>
        <time>2026-07-24T17:56:24.000Z</time>
        <extensions>
          <ns3:TrackPointExtension>
            <ns3:atemp>25.0</ns3:atemp>
            <ns3:hr>73</ns3:hr>
          </ns3:TrackPointExtension>
        </extensions>
      </trkpt>
      <trkpt lat="47.69817846827208995819091796875" lon="-122.3540481738746166229248046875">
        <ele>98.1999969482421875</ele>
        <time>2026-07-24T17:56:31.000Z</time>
        <extensions>
          <ns3:TrackPointExtension>
            <ns3:atemp>25.0</ns3:atemp>
            <ns3:hr>76</ns3:hr>
          </ns3:TrackPointExtension>
        </extensions>
      </trkpt>
      <trkpt lat="47.6981478743255138397216796875" lon="-122.3540471680462360382080078125">
        <ele>98.1999969482421875</ele>
        <time>2026-07-24T17:56:32.000Z</time>
        <extensions>
          <ns3:TrackPointExtension>
            <ns3:atemp>25.0</ns3:atemp>
            <ns3:hr>78</ns3:hr>
          </ns3:TrackPointExtension>
        </extensions>
      </trkpt>
      <trkpt lat="47.69783766008913516998291015625" lon="-122.35406644642353057861328125">
        <ele>97.40000152587890625</ele>
        <time>2026-07-24T17:56:40.000Z</time>
        <extensions>
          <ns3:TrackPointExtension>
            <ns3:atemp>25.0</ns3:atemp>
            <ns3:hr>75</ns3:hr>
          </ns3:TrackPointExtension>
        </extensions>
      </trkpt>
      <trkpt lat="47.69774344749748706817626953125" lon="-122.35407558269798755645751953125">
        <ele>97.1999969482421875</ele>
        <time>2026-07-24T17:56:42.000Z</time>
        <extensions>
          <ns3:TrackPointExtension>
            <ns3:atemp>25.0</ns3:atemp>
            <ns3:hr>77</ns3:hr>
          </ns3:TrackPointExtension>
        </extensions>
      </trkpt>
      <trkpt lat="47.69769567064940929412841796875" lon="-122.354072816669940948486328125">
        <ele>97.1999969482421875</ele>
        <time>2026-07-24T17:56:43.000Z</time>
        <extensions>
          <ns3:TrackPointExtension>
            <ns3:atemp>25.0</ns3:atemp>
            <ns3:hr>76</ns3:hr>
          </ns3:TrackPointExtension>
        </extensions>
      </trkpt>
      <trkpt lat="47.69755435176193714141845703125" lon="-122.35406032763421535491943359375">
        <ele>96.59999847412109375</ele>
        <time>2026-07-24T17:56:46.000Z</time>
        <extensions>
          <ns3:TrackPointExtension>
            <ns3:atemp>25.0</ns3:atemp>
            <ns3:hr>79</ns3:hr>
          </ns3:TrackPointExtension>
        </extensions>
      </trkpt>
      <trkpt lat="47.69750137813389301300048828125" lon="-122.35405563376843929290771484375">
        <ele>96.59999847412109375</ele>
        <time>2026-07-24T17:56:47.000Z</time>
        <extensions>
          <ns3:TrackPointExtension>
            <ns3:atemp>25.0</ns3:atemp>
            <ns3:hr>79</ns3:hr>
          </ns3:TrackPointExtension>
        </extensions>
      </trkpt>
      <trkpt lat="47.69744706340134143829345703125" lon="-122.35405127517879009246826171875">
        <ele>96</ele>
        <time>2026-07-24T17:56:48.000Z</time>
        <extensions>
          <ns3:TrackPointExtension>
            <ns3:atemp>26.0</ns3:atemp>
            <ns3:hr>80</ns3:hr>
          </ns3:TrackPointExtension>
        </extensions>
      </trkpt>
      <trkpt lat="47.69716425798833370208740234375" lon="-122.35405915416777133941650390625">
        <ele>95.40000152587890625</ele>
        <time>2026-07-24T17:56:53.000Z</time>
        <extensions>
          <ns3:TrackPointExtension>
            <ns3:atemp>26.0</ns3:atemp>
            <ns3:hr>83</ns3:hr>
          </ns3:TrackPointExtension>
        </extensions>
      </trkpt>
      <trkpt lat="47.69711899571120738983154296875" lon="-122.3540585674345493316650390625">
        <ele>95.40000152587890625</ele>
        <time>2026-07-24T17:56:54.000Z</time>
        <extensions>
          <ns3:TrackPointExtension>
            <ns3:atemp>26.0</ns3:atemp>
            <ns3:hr>83</ns3:hr>
          </ns3:TrackPointExtension>
        </extensions>
      </trkpt>
      <trkpt lat="47.69705168902873992919921875" lon="-122.3540545441210269927978515625">
        <ele>95</ele>
        <time>2026-07-24T17:56:55.000Z</time>
        <extensions>
          <ns3:TrackPointExtension>
            <ns3:atemp>26.0</ns3:atemp>
            <ns3:hr>84</ns3:hr>
          </ns3:TrackPointExtension>
        </extensions>
      </trkpt>
      <trkpt lat="47.6967812888324260711669921875" lon="-122.35405999235808849334716796875">
        <ele>94.8000030517578125</ele>
        <time>2026-07-24T17:57:00.000Z</time>
        <extensions>
          <ns3:TrackPointExtension>
            <ns3:atemp>26.0</ns3:atemp>
            <ns3:hr>87</ns3:hr>
          </ns3:TrackPointExtension>
        </extensions>
      </trkpt>
      <trkpt lat="47.696671821177005767822265625" lon="-122.35405974090099334716796875">
        <ele>94.1999969482421875</ele>
        <time>2026-07-24T17:57:02.000Z</time>
        <extensions>
          <ns3:TrackPointExtension>
            <ns3:atemp>26.0</ns3:atemp>
            <ns3:hr>88</ns3:hr>
          </ns3:TrackPointExtension>
        </extensions>
      </trkpt>
      <trkpt lat="47.69661641679704189300537109375" lon="-122.35406518913805484771728515625">
        <ele>94</ele>
        <time>2026-07-24T17:57:03.000Z</time>
        <extensions>
          <ns3:TrackPointExtension>
            <ns3:atemp>26.0</ns3:atemp>
            <ns3:hr>88</ns3:hr>
          </ns3:TrackPointExtension>
        </extensions>
      </trkpt>
      <trkpt lat="47.6962686516344547271728515625" lon="-122.3540572263300418853759765625">
        <ele>93.1999969482421875</ele>
        <time>2026-07-24T17:57:09.000Z</time>
        <extensions>
          <ns3:TrackPointExtension>
            <ns3:atemp>26.0</ns3:atemp>
            <ns3:hr>90</ns3:hr>
          </ns3:TrackPointExtension>
        </extensions>
      </trkpt>
      <trkpt lat="47.696152813732624053955078125" lon="-122.354053370654582977294921875">
        <ele>93</ele>
        <time>2026-07-24T17:57:11.000Z</time>
        <extensions>
          <ns3:TrackPointExtension>
            <ns3:atemp>26.0</ns3:atemp>
            <ns3:hr>91</ns3:hr>
          </ns3:TrackPointExtension>
        </extensions>
      </trkpt>
      <trkpt lat="47.695887275040149688720703125" lon="-122.3540478385984897613525390625">
        <ele>93.1999969482421875</ele>
        <time>2026-07-24T17:57:16.000Z</time>
        <extensions>
          <ns3:TrackPointExtension>
            <ns3:atemp>26.0</ns3:atemp>
            <ns3:hr>94</ns3:hr>
          </ns3:TrackPointExtension>
        </extensions>
      </trkpt>
      <trkpt lat="47.69578493200242519378662109375" lon="-122.354041971266269683837890625">
        <ele>93.40000152587890625</ele>
        <time>2026-07-24T17:57:18.000Z</time>
        <extensions>
          <ns3:TrackPointExtension>
            <ns3:atemp>26.0</ns3:atemp>
            <ns3:hr>94</ns3:hr>
          </ns3:TrackPointExtension>
        </extensions>
      </trkpt>
      <trkpt lat="47.695632465183734893798828125" lon="-122.35403518192470073699951171875">
        <ele>93</ele>
        <time>2026-07-24T17:57:21.000Z</time>
        <extensions>
          <ns3:TrackPointExtension>
            <ns3:atemp>26.0</ns3:atemp>
            <ns3:hr>93</ns3:hr>
          </ns3:TrackPointExtension>
        </extensions>
      </trkpt>
      <trkpt lat="47.6952571235597133636474609375" lon="-122.354027219116687774658203125">
        <ele>92.40000152587890625</ele>
        <time>2026-07-24T17:57:28.000Z</time>
        <extensions>
          <ns3:TrackPointExtension>
            <ns3:atemp>26.0</ns3:atemp>
            <ns3:hr>92</ns3:hr>
          </ns3:TrackPointExtension>
        </extensions>
      </trkpt>
      <trkpt lat="47.695022262632846832275390625" lon="-122.3540283925831317901611328125">
        <ele>91.59999847412109375</ele>
        <time>2026-07-24T17:57:32.000Z</time>
        <extensions>
          <ns3:TrackPointExtension>
            <ns3:atemp>26.0</ns3:atemp>
            <ns3:hr>92</ns3:hr>
          </ns3:TrackPointExtension>
        </extensions>
      </trkpt>
      <trkpt lat="47.69466024823486804962158203125" lon="-122.35400483943521976470947265625">
        <ele>90.59999847412109375</ele>
        <time>2026-07-24T17:57:38.000Z</time>
        <extensions>
          <ns3:TrackPointExtension>
            <ns3:atemp>26.0</ns3:atemp>
            <ns3:hr>92</ns3:hr>
          </ns3:TrackPointExtension>
        </extensions>
      </trkpt>
      <trkpt lat="47.69444164820015430450439453125" lon="-122.35398991964757442474365234375">
        <ele>89.40000152587890625</ele>
        <time>2026-07-24T17:57:42.000Z</time>
        <extensions>
          <ns3:TrackPointExtension>
            <ns3:atemp>26.0</ns3:atemp>
            <ns3:hr>93</ns3:hr>
          </ns3:TrackPointExtension>
        </extensions>
      </trkpt>
      <trkpt lat="47.69429278559982776641845703125" lon="-122.353985644876956939697265625">
        <ele>88.8000030517578125</ele>
        <time>2026-07-24T17:57:45.000Z</time>
        <extensions>
          <ns3:TrackPointExtension>
            <ns3:atemp>26.0</ns3:atemp>
            <ns3:hr>96</ns3:hr>
          </ns3:TrackPointExtension>
        </extensions>
      </trkpt>
      <trkpt lat="47.694246768951416015625" lon="-122.3539640195667743682861328125">
        <ele>88.8000030517578125</ele>
        <time>2026-07-24T17:57:46.000Z</time>
        <extensions>
          <ns3:TrackPointExtension>
            <ns3:atemp>26.0</ns3:atemp>
            <ns3:hr>98</ns3:hr>
          </ns3:TrackPointExtension>
        </extensions>
      </trkpt>
      <trkpt lat="47.69421257078647613525390625" lon="-122.3539278097450733184814453125">
        <ele>88.59999847412109375</ele>
        <time>2026-07-24T17:57:47.000Z</time>
        <extensions>
          <ns3:TrackPointExtension>
            <ns3:atemp>26.0</ns3:atemp>
            <ns3:hr>99</ns3:hr>
          </ns3:TrackPointExtension>
        </extensions>
      </trkpt>
      <trkpt lat="47.6941979862749576568603515625" lon="-122.35387810505926609039306640625">
        <ele>88.59999847412109375</ele>
        <time>2026-07-24T17:57:48.000Z</time>
        <extensions>
          <ns3:TrackPointExtension>
            <ns3:atemp>26.0</ns3:atemp>
            <ns3:hr>100</ns3:hr>
          </ns3:TrackPointExtension>
        </extensions>
      </trkpt>
      <trkpt lat="47.69419857300817966461181640625" lon="-122.35362765379250049591064453125">
        <ele>89</ele>
        <time>2026-07-24T17:57:52.000Z</time>
        <extensions>
          <ns3:TrackPointExtension>
            <ns3:atemp>26.0</ns3:atemp>
            <ns3:hr>102</ns3:hr>
          </ns3:TrackPointExtension>
        </extensions>
      </trkpt>
      <trkpt lat="47.69421047531068325042724609375" lon="-122.35347510315477848052978515625">
        <ele>89.1999969482421875</ele>
        <time>2026-07-24T17:57:54.000Z</time>
        <extensions>
          <ns3:TrackPointExtension>
            <ns3:atemp>26.0</ns3:atemp>
            <ns3:hr>103</ns3:hr>
          </ns3:TrackPointExtension>
        </extensions>
      </trkpt>
      <trkpt lat="47.6942060329020023345947265625" lon="-122.3531952314078807830810546875">
        <ele>89.8000030517578125</ele>
        <time>2026-07-24T17:57:58.000Z</time>
        <extensions>
          <ns3:TrackPointExtension>
            <ns3:atemp>26.0</ns3:atemp>
            <ns3:hr>105</ns3:hr>
          </ns3:TrackPointExtension>
        </extensions>
      </trkpt>
      <trkpt lat="47.69420376978814601898193359375" lon="-122.35312901437282562255859375">
        <ele>90.40000152587890625</ele>
        <time>2026-07-24T17:58:01.000Z</time>
        <extensions>
          <ns3:TrackPointExtension>
            <ns3:atemp>26.0</ns3:atemp>
            <ns3:hr>106</ns3:hr>
          </ns3:TrackPointExtension>
        </extensions>
      </trkpt>
      <trkpt lat="47.69419874064624309539794921875" lon="-122.3528183810412883758544921875">
        <ele>91.8000030517578125</ele>
        <time>2026-07-24T17:58:05.000Z</time>
        <extensions>
          <ns3:TrackPointExtension>
            <ns3:atemp>26.0</ns3:atemp>
            <ns3:hr>108</ns3:hr>
          </ns3:TrackPointExtension>
        </extensions>
      </trkpt>
      <trkpt lat="47.6941896043717861175537109375" lon="-122.35271804966032505035400390625">
        <ele>92.1999969482421875</ele>
        <time>2026-07-24T17:58:07.000Z</time>
        <extensions>
          <ns3:TrackPointExtension>
            <ns3:atemp>26.0</ns3:atemp>
            <ns3:hr>109</ns3:hr>
          </ns3:TrackPointExtension>
        </extensions>
      </trkpt>
      <trkpt lat="47.69419656135141849517822265625" lon="-122.35250833444297313690185546875">
        <ele>92.59999847412109375</ele>
        <time>2026-07-24T17:58:12.000Z</time>
        <extensions>
          <ns3:TrackPointExtension>
            <ns3:atemp>26.0</ns3:atemp>
            <ns3:hr>110</ns3:hr>
          </ns3:TrackPointExtension>
        </extensions>
      </trkpt>
      <trkpt lat="47.6942050270736217498779296875" lon="-122.3524106852710247039794921875">
        <ele>92.8000030517578125</ele>
        <time>2026-07-24T17:58:14.000Z</time>
        <extensions>
          <ns3:TrackPointExtension>
            <ns3:atemp>26.0</ns3:atemp>
            <ns3:hr>112</ns3:hr>
          </ns3:TrackPointExtension>
        </extensions>
      </trkpt>
      <trkpt lat="47.6942107267677783966064453125" lon="-122.3520770855247974395751953125">
        <ele>93.40000152587890625</ele>
        <time>2026-07-24T17:58:20.000Z</time>
        <extensions>
          <ns3:TrackPointExtension>
            <ns3:atemp>26.0</ns3:atemp>
            <ns3:hr>112</ns3:hr>
          </ns3:TrackPointExtension>
        </extensions>
      </trkpt>
      <trkpt lat="47.69420477561652660369873046875" lon="-122.351557910442352294921875">
        <ele>93.59999847412109375</ele>
        <time>2026-07-24T17:58:29.000Z</time>
        <extensions>
          <ns3:TrackPointExtension>
            <ns3:atemp>26.0</ns3:atemp>
            <ns3:hr>112</ns3:hr>
          </ns3:TrackPointExtension>
        </extensions>
      </trkpt>
      <trkpt lat="47.69419522024691104888916015625" lon="-122.35108290798962116241455078125">
        <ele>93.59999847412109375</ele>
        <time>2026-07-24T17:58:37.000Z</time>
        <extensions>
          <ns3:TrackPointExtension>
            <ns3:atemp>26.0</ns3:atemp>
            <ns3:hr>112</ns3:hr>
          </ns3:TrackPointExtension>
        </extensions>
      </trkpt>
      <trkpt lat="47.69420108757913112640380859375" lon="-122.3507036268711090087890625">
        <ele>94</ele>
        <time>2026-07-24T17:58:43.000Z</time>
        <extensions>
          <ns3:TrackPointExtension>
            <ns3:atemp>26.0</ns3:atemp>
            <ns3:hr>111</ns3:hr>
          </ns3:TrackPointExtension>
        </extensions>
      </trkpt>
      <trkpt lat="47.69420209340751171112060546875" lon="-122.35053288750350475311279296875">
        <ele>94.1999969482421875</ele>
        <time>2026-07-24T17:58:46.000Z</time>
        <extensions>
          <ns3:TrackPointExtension>
            <ns3:atemp>26.0</ns3:atemp>
            <ns3:hr>112</ns3:hr>
          </ns3:TrackPointExtension>
        </extensions>
      </trkpt>
      <trkpt lat="47.69420075230300426483154296875" lon="-122.35011898912489414215087890625">
        <ele>94</ele>
        <time>2026-07-24T17:58:53.000Z</time>
        <extensions>
          <ns3:TrackPointExtension>
            <ns3:atemp>26.0</ns3:atemp>
            <ns3:hr>112</ns3:hr>
          </ns3:TrackPointExtension>
        </extensions>
      </trkpt>
      <trkpt lat="47.694179378449916839599609375" lon="-122.35001270659267902374267578125">
        <ele>94.40000152587890625</ele>
        <time>2026-07-24T17:58:55.000Z</time>
        <extensions>
          <ns3:TrackPointExtension>
            <ns3:atemp>26.0</ns3:atemp>
            <ns3:hr>111</ns3:hr>
          </ns3:TrackPointExtension>
        </extensions>
      </trkpt>
      <trkpt lat="47.69410637207329273223876953125" lon="-122.3499423824250698089599609375">
        <ele>94.40000152587890625</ele>
        <time>2026-07-24T17:58:58.000Z</time>
        <extensions>
          <ns3:TrackPointExtension>
            <ns3:atemp>26.0</ns3:atemp>
            <ns3:hr>110</ns3:hr>
          </ns3:TrackPointExtension>
        </extensions>
      </trkpt>
      <trkpt lat="47.693994306027889251708984375" lon="-122.34993911348283290863037109375">
        <ele>94</ele>
        <time>2026-07-24T17:59:01.000Z</time>
        <extensions>
          <ns3:TrackPointExtension>
            <ns3:atemp>26.0</ns3:atemp>
            <ns3:hr>107</ns3:hr>
          </ns3:TrackPointExtension>
        </extensions>
      </trkpt>
      <trkpt lat="47.69381820224225521087646484375" lon="-122.34993760474026203155517578125">
        <ele>93.8000030517578125</ele>
        <time>2026-07-24T17:59:05.000Z</time>
        <extensions>
          <ns3:TrackPointExtension>
            <ns3:atemp>26.0</ns3:atemp>
            <ns3:hr>104</ns3:hr>
          </ns3:TrackPointExtension>
        </extensions>
      </trkpt>
      <trkpt lat="47.693559788167476654052734375" lon="-122.3499397002160549163818359375">
        <ele>94</ele>
        <time>2026-07-24T17:59:11.000Z</time>
        <extensions>
          <ns3:TrackPointExtension>
            <ns3:atemp>26.0</ns3:atemp>
            <ns3:hr>101</ns3:hr>
          </ns3:TrackPointExtension>
        </extensions>
      </trkpt>
      <trkpt lat="47.69351611845195293426513671875" lon="-122.34994146041572093963623046875">
        <ele>94</ele>
        <time>2026-07-24T17:59:12.000Z</time>
        <extensions>
          <ns3:TrackPointExtension>
            <ns3:atemp>26.0</ns3:atemp>
            <ns3:hr>101</ns3:hr>
          </ns3:TrackPointExtension>
        </extensions>
      </trkpt>
      <trkpt lat="47.69347169436514377593994140625" lon="-122.34994255006313323974609375">
        <ele>94</ele>
        <time>2026-07-24T17:59:13.000Z</time>
        <extensions>
          <ns3:TrackPointExtension>
            <ns3:atemp>26.0</ns3:atemp>
            <ns3:hr>101</ns3:hr>
          </ns3:TrackPointExtension>
        </extensions>
      </trkpt>
      <trkpt lat="47.6932089217007160186767578125" lon="-122.34996995888650417327880859375">
        <ele>93.59999847412109375</ele>
        <time>2026-07-24T17:59:19.000Z</time>
        <extensions>
          <ns3:TrackPointExtension>
            <ns3:atemp>26.0</ns3:atemp>
            <ns3:hr>102</ns3:hr>
          </ns3:TrackPointExtension>
        </extensions>
      </trkpt>
      <trkpt lat="47.6930204965174198150634765625" lon="-122.3499470762908458709716796875">
        <ele>94</ele>
        <time>2026-07-24T17:59:24.000Z</time>
        <extensions>
          <ns3:TrackPointExtension>
            <ns3:atemp>26.0</ns3:atemp>
            <ns3:hr>99</ns3:hr>
          </ns3:TrackPointExtension>
        </extensions>
      </trkpt>
      <trkpt lat="47.69292821176350116729736328125" lon="-122.349929474294185638427734375">
        <ele>94</ele>
        <time>2026-07-24T17:59:27.000Z</time>
        <extensions>
          <ns3:TrackPointExtension>
            <ns3:atemp>26.0</ns3:atemp>
            <ns3:hr>100</ns3:hr>
          </ns3:TrackPointExtension>
        </extensions>
      </trkpt>
      <trkpt lat="47.69260567612946033477783203125" lon="-122.349939532577991485595703125">
        <ele>93.59999847412109375</ele>
        <time>2026-07-24T17:59:35.000Z</time>
        <extensions>
          <ns3:TrackPointExtension>
            <ns3:atemp>26.0</ns3:atemp>
            <ns3:hr>100</ns3:hr>
          </ns3:TrackPointExtension>
        </extensions>
      </trkpt>
      <trkpt lat="47.69243669696152210235595703125" lon="-122.34994565136730670928955078125">
        <ele>93.40000152587890625</ele>
        <time>2026-07-24T17:59:39.000Z</time>
        <extensions>
          <ns3:TrackPointExtension>
            <ns3:atemp>26.0</ns3:atemp>
            <ns3:hr>97</ns3:hr>
          </ns3:TrackPointExtension>
        </extensions>
      </trkpt>
      <trkpt lat="47.6923117227852344512939453125" lon="-122.34993374906480312347412109375">
        <ele>93.40000152587890625</ele>
        <time>2026-07-24T17:59:42.000Z</time>
        <extensions>
          <ns3:TrackPointExtension>
            <ns3:atemp>26.0</ns3:atemp>
            <ns3:hr>97</ns3:hr>
          </ns3:TrackPointExtension>
        </extensions>
      </trkpt>
      <trkpt lat="47.69214400090277194976806640625" lon="-122.3499390296638011932373046875">
        <ele>93</ele>
        <time>2026-07-24T17:59:46.000Z</time>
        <extensions>
          <ns3:TrackPointExtension>
            <ns3:atemp>26.0</ns3:atemp>
            <ns3:hr>96</ns3:hr>
          </ns3:TrackPointExtension>
        </extensions>
      </trkpt>
      <trkpt lat="47.69208884797990322113037109375" lon="-122.34993659891188144683837890625">
        <ele>92.8000030517578125</ele>
        <time>2026-07-24T17:59:47.000Z</time>
        <extensions>
          <ns3:TrackPointExtension>
            <ns3:atemp>26.0</ns3:atemp>
            <ns3:hr>96</ns3:hr>
          </ns3:TrackPointExtension>
        </extensions>
      </trkpt>
      <trkpt lat="47.691995389759540557861328125" lon="-122.34993358142673969268798828125">
        <ele>92.8000030517578125</ele>
        <time>2026-07-24T17:59:49.000Z</time>
        <extensions>
          <ns3:TrackPointExtension>
            <ns3:atemp>26.0</ns3:atemp>
            <ns3:hr>96</ns3:hr>
          </ns3:TrackPointExtension>
        </extensions>
      </trkpt>
      <trkpt lat="47.6919134147465229034423828125" lon="-122.349923439323902130126953125">
        <ele>92.59999847412109375</ele>
        <time>2026-07-24T17:59:51.000Z</time>
        <extensions>
          <ns3:TrackPointExtension>
            <ns3:atemp>26.0</ns3:atemp>
            <ns3:hr>95</ns3:hr>
          </ns3:TrackPointExtension>
        </extensions>
      </trkpt>
      <trkpt lat="47.69169791601598262786865234375" lon="-122.34993207268416881561279296875">
        <ele>92.40000152587890625</ele>
        <time>2026-07-24T17:59:56.000Z</time>
        <extensions>
          <ns3:TrackPointExtension>
            <ns3:atemp>26.0</ns3:atemp>
            <ns3:hr>93</ns3:hr>
          </ns3:TrackPointExtension>
        </extensions>
      </trkpt>
      <trkpt lat="47.69152675755321979522705078125" lon="-122.3499232716858386993408203125">
        <ele>91.8000030517578125</ele>
        <time>2026-07-24T18:00:00.000Z</time>
        <extensions>
          <ns3:TrackPointExtension>
            <ns3:atemp>26.0</ns3:atemp>
            <ns3:hr>92</ns3:hr>
          </ns3:TrackPointExtension>
        </extensions>
      </trkpt>
      <trkpt lat="47.69137957133352756500244140625" lon="-122.349920086562633514404296875">
        <ele>91.59999847412109375</ele>
        <time>2026-07-24T18:00:03.000Z</time>
        <extensions>
          <ns3:TrackPointExtension>
            <ns3:atemp>26.0</ns3:atemp>
            <ns3:hr>89</ns3:hr>
          </ns3:TrackPointExtension>
        </extensions>
      </trkpt>
      <trkpt lat="47.6913325488567352294921875" lon="-122.34992151148617267608642578125">
        <ele>91.59999847412109375</ele>
        <time>2026-07-24T18:00:04.000Z</time>
        <extensions>
          <ns3:TrackPointExtension>
            <ns3:atemp>26.0</ns3:atemp>
            <ns3:hr>89</ns3:hr>
          </ns3:TrackPointExtension>
        </extensions>
      </trkpt>
      <trkpt lat="47.69115510396659374237060546875" lon="-122.34993374906480312347412109375">
        <ele>91.1999969482421875</ele>
        <time>2026-07-24T18:00:08.000Z</time>
        <extensions>
          <ns3:TrackPointExtension>
            <ns3:atemp>26.0</ns3:atemp>
            <ns3:hr>85</ns3:hr>
          </ns3:TrackPointExtension>
        </extensions>
      </trkpt>
      <trkpt lat="47.691028453409671783447265625" lon="-122.34994523227214813232421875">
        <ele>90.8000030517578125</ele>
        <time>2026-07-24T18:00:11.000Z</time>
        <extensions>
          <ns3:TrackPointExtension>
            <ns3:atemp>26.0</ns3:atemp>
            <ns3:hr>87</ns3:hr>
          </ns3:TrackPointExtension>
        </extensions>
      </trkpt>
      <trkpt lat="47.69083022139966487884521484375" lon="-122.34993877820670604705810546875">
        <ele>89.59999847412109375</ele>
        <time>2026-07-24T18:00:16.000Z</time>
        <extensions>
          <ns3:TrackPointExtension>
            <ns3:atemp>26.0</ns3:atemp>
            <ns3:hr>87</ns3:hr>
          </ns3:TrackPointExtension>
        </extensions>
      </trkpt>
      <trkpt lat="47.69079250283539295196533203125" lon="-122.34994900412857532501220703125">
        <ele>89.59999847412109375</ele>
        <time>2026-07-24T18:00:17.000Z</time>
        <extensions>
          <ns3:TrackPointExtension>
            <ns3:atemp>26.0</ns3:atemp>
            <ns3:hr>89</ns3:hr>
          </ns3:TrackPointExtension>
        </extensions>
      </trkpt>
      <trkpt lat="47.69071555696427822113037109375" lon="-122.34996560029685497283935546875">
        <ele>89.40000152587890625</ele>
        <time>2026-07-24T18:00:20.000Z</time>
        <extensions>
          <ns3:TrackPointExtension>
            <ns3:atemp>26.0</ns3:atemp>
            <ns3:hr>94</ns3:hr>
          </ns3:TrackPointExtension>
        </extensions>
      </trkpt>
      <trkpt lat="47.690673731267452239990234375" lon="-122.3499779216945171356201171875">
        <ele>89.59999847412109375</ele>
        <time>2026-07-24T18:00:22.000Z</time>
        <extensions>
          <ns3:TrackPointExtension>
            <ns3:atemp>26.0</ns3:atemp>
            <ns3:hr>98</ns3:hr>
          </ns3:TrackPointExtension>
        </extensions>
      </trkpt>
      <trkpt lat="47.690652273595333099365234375" lon="-122.34999074600636959075927734375">
        <ele>89.8000030517578125</ele>
        <time>2026-07-24T18:00:26.000Z</time>
        <extensions>
          <ns3:TrackPointExtension>
            <ns3:atemp>26.0</ns3:atemp>
            <ns3:hr>100</ns3:hr>
          </ns3:TrackPointExtension>
        </extensions>
      </trkpt>
      <trkpt lat="47.69063307903707027435302734375" lon="-122.34999141655862331390380859375">
        <ele>89.8000030517578125</ele>
        <time>2026-07-24T18:00:30.000Z</time>
        <extensions>
          <ns3:TrackPointExtension>
            <ns3:atemp>26.0</ns3:atemp>
            <ns3:hr>100</ns3:hr>
          </ns3:TrackPointExtension>
        </extensions>
      </trkpt>
      <trkpt lat="47.69059753976762294769287109375" lon="-122.34998814761638641357421875">
        <ele>89.59999847412109375</ele>
        <time>2026-07-24T18:00:32.000Z</time>
        <extensions>
          <ns3:TrackPointExtension>
            <ns3:atemp>26.0</ns3:atemp>
            <ns3:hr>100</ns3:hr>
          </ns3:TrackPointExtension>
        </extensions>
      </trkpt>
      <trkpt lat="47.69045286811888217926025390625" lon="-122.3499423824250698089599609375">
        <ele>89</ele>
        <time>2026-07-24T18:00:37.000Z</time>
        <extensions>
          <ns3:TrackPointExtension>
            <ns3:atemp>26.0</ns3:atemp>
            <ns3:hr>100</ns3:hr>
          </ns3:TrackPointExtension>
        </extensions>
      </trkpt>
      <trkpt lat="47.69037441350519657135009765625" lon="-122.34993441961705684661865234375">
        <ele>88.40000152587890625</ele>
        <time>2026-07-24T18:00:39.000Z</time>
        <extensions>
          <ns3:TrackPointExtension>
            <ns3:atemp>26.0</ns3:atemp>
            <ns3:hr>100</ns3:hr>
          </ns3:TrackPointExtension>
        </extensions>
      </trkpt>
      <trkpt lat="47.69020937383174896240234375" lon="-122.34992033801972866058349609375">
        <ele>87.59999847412109375</ele>
        <time>2026-07-24T18:00:42.000Z</time>
        <extensions>
          <ns3:TrackPointExtension>
            <ns3:atemp>26.0</ns3:atemp>
            <ns3:hr>100</ns3:hr>
          </ns3:TrackPointExtension>
        </extensions>
      </trkpt>
      <trkpt lat="47.6901619322597980499267578125" lon="-122.349917404353618621826171875">
        <ele>87.40000152587890625</ele>
        <time>2026-07-24T18:00:43.000Z</time>
        <extensions>
          <ns3:TrackPointExtension>
            <ns3:atemp>26.0</ns3:atemp>
            <ns3:hr>99</ns3:hr>
          </ns3:TrackPointExtension>
        </extensions>
      </trkpt>
      <trkpt lat="47.68984995782375335693359375" lon="-122.34995462000370025634765625">
        <ele>86.59999847412109375</ele>
        <time>2026-07-24T18:00:48.000Z</time>
        <extensions>
          <ns3:TrackPointExtension>
            <ns3:atemp>26.0</ns3:atemp>
            <ns3:hr>99</ns3:hr>
          </ns3:TrackPointExtension>
        </extensions>
      </trkpt>
      <trkpt lat="47.6897884346544742584228515625" lon="-122.3499527759850025177001953125">
        <ele>85.8000030517578125</ele>
        <time>2026-07-24T18:00:49.000Z</time>
        <extensions>
          <ns3:TrackPointExtension>
            <ns3:atemp>26.0</ns3:atemp>
            <ns3:hr>98</ns3:hr>
          </ns3:TrackPointExtension>
        </extensions>
      </trkpt>
      <trkpt lat="47.689654491841793060302734375" lon="-122.34993156976997852325439453125">
        <ele>84.40000152587890625</ele>
        <time>2026-07-24T18:00:51.000Z</time>
        <extensions>
          <ns3:TrackPointExtension>
            <ns3:atemp>26.0</ns3:atemp>
            <ns3:hr>96</ns3:hr>
          </ns3:TrackPointExtension>
        </extensions>
      </trkpt>
      <trkpt lat="47.68948291428387165069580078125" lon="-122.3499155603349208831787109375">
        <ele>83.59999847412109375</ele>
        <time>2026-07-24T18:00:54.000Z</time>
        <extensions>
          <ns3:TrackPointExtension>
            <ns3:atemp>26.0</ns3:atemp>
            <ns3:hr>95</ns3:hr>
          </ns3:TrackPointExtension>
        </extensions>
      </trkpt>
      <trkpt lat="47.6893076486885547637939453125" lon="-122.3499177396297454833984375">
        <ele>83.40000152587890625</ele>
        <time>2026-07-24T18:00:57.000Z</time>
        <extensions>
          <ns3:TrackPointExtension>
            <ns3:atemp>26.0</ns3:atemp>
            <ns3:hr>96</ns3:hr>
          </ns3:TrackPointExtension>
        </extensions>
      </trkpt>
      <trkpt lat="47.6891815848648548126220703125" lon="-122.34994296915829181671142578125">
        <ele>82.8000030517578125</ele>
        <time>2026-07-24T18:01:00.000Z</time>
        <extensions>
          <ns3:TrackPointExtension>
            <ns3:atemp>26.0</ns3:atemp>
            <ns3:hr>95</ns3:hr>
          </ns3:TrackPointExtension>
        </extensions>
      </trkpt>
      <trkpt lat="47.68909625709056854248046875" lon="-122.34995017759501934051513671875">
        <ele>82.40000152587890625</ele>
        <time>2026-07-24T18:01:02.000Z</time>
        <extensions>
          <ns3:TrackPointExtension>
            <ns3:atemp>26.0</ns3:atemp>
            <ns3:hr>96</ns3:hr>
          </ns3:TrackPointExtension>
        </extensions>
      </trkpt>
      <trkpt lat="47.6890521682798862457275390625" lon="-122.349936179816722869873046875">
        <ele>82.1999969482421875</ele>
        <time>2026-07-24T18:01:03.000Z</time>
        <extensions>
          <ns3:TrackPointExtension>
            <ns3:atemp>26.0</ns3:atemp>
            <ns3:hr>96</ns3:hr>
          </ns3:TrackPointExtension>
        </extensions>
      </trkpt>
      <trkpt lat="47.6890002004802227020263671875" lon="-122.3499231040477752685546875">
        <ele>82</ele>
        <time>2026-07-24T18:01:04.000Z</time>
        <extensions>
          <ns3:TrackPointExtension>
            <ns3:atemp>26.0</ns3:atemp>
            <ns3:hr>97</ns3:hr>
          </ns3:TrackPointExtension>
        </extensions>
      </trkpt>
      <trkpt lat="47.6889180578291416168212890625" lon="-122.349922768771648406982421875">
        <ele>81.8000030517578125</ele>
        <time>2026-07-24T18:01:06.000Z</time>
        <extensions>
          <ns3:TrackPointExtension>
            <ns3:atemp>26.0</ns3:atemp>
            <ns3:hr>94</ns3:hr>
          </ns3:TrackPointExtension>
        </extensions>
      </trkpt>
      <trkpt lat="47.68877900205552577972412109375" lon="-122.34992000274360179901123046875">
        <ele>81.1999969482421875</ele>
        <time>2026-07-24T18:01:09.000Z</time>
        <extensions>
          <ns3:TrackPointExtension>
            <ns3:atemp>26.0</ns3:atemp>
            <ns3:hr>96</ns3:hr>
          </ns3:TrackPointExtension>
        </extensions>
      </trkpt>
      <trkpt lat="47.688493430614471435546875" lon="-122.3499257862567901611328125">
        <ele>80.40000152587890625</ele>
        <time>2026-07-24T18:01:15.000Z</time>
        <extensions>
          <ns3:TrackPointExtension>
            <ns3:atemp>26.0</ns3:atemp>
            <ns3:hr>97</ns3:hr>
          </ns3:TrackPointExtension>
        </extensions>
      </trkpt>
      <trkpt lat="47.6883923448622226715087890625" lon="-122.34993559308350086212158203125">
        <ele>80.1999969482421875</ele>
        <time>2026-07-24T18:01:17.000Z</time>
        <extensions>
          <ns3:TrackPointExtension>
            <ns3:atemp>26.0</ns3:atemp>
            <ns3:hr>98</ns3:hr>
          </ns3:TrackPointExtension>
        </extensions>
      </trkpt>
      <trkpt lat="47.6882920973002910614013671875" lon="-122.34992352314293384552001953125">
        <ele>80</ele>
        <time>2026-07-24T18:01:19.000Z</time>
        <extensions>
          <ns3:TrackPointExtension>
            <ns3:atemp>26.0</ns3:atemp>
            <ns3:hr>98</ns3:hr>
          </ns3:TrackPointExtension>
        </extensions>
      </trkpt>
      <trkpt lat="47.68807525746524333953857421875" lon="-122.34990944154560565948486328125">
        <ele>79</ele>
        <time>2026-07-24T18:01:23.000Z</time>
        <extensions>
          <ns3:TrackPointExtension>
            <ns3:atemp>26.0</ns3:atemp>
            <ns3:hr>100</ns3:hr>
          </ns3:TrackPointExtension>
        </extensions>
      </trkpt>
      <trkpt lat="47.687914073467254638671875" lon="-122.34991396777331829071044921875">
        <ele>78.1999969482421875</ele>
        <time>2026-07-24T18:01:26.000Z</time>
        <extensions>
          <ns3:TrackPointExtension>
            <ns3:atemp>26.0</ns3:atemp>
            <ns3:hr>103</ns3:hr>
          </ns3:TrackPointExtension>
        </extensions>
      </trkpt>
      <trkpt lat="47.6878626085817813873291015625" lon="-122.34991514123976230621337890625">
        <ele>78</ele>
        <time>2026-07-24T18:01:27.000Z</time>
        <extensions>
          <ns3:TrackPointExtension>
            <ns3:atemp>26.0</ns3:atemp>
            <ns3:hr>103</ns3:hr>
          </ns3:TrackPointExtension>
        </extensions>
      </trkpt>
      <trkpt lat="47.68781240098178386688232421875" lon="-122.3499177396297454833984375">
        <ele>78</ele>
        <time>2026-07-24T18:01:28.000Z</time>
        <extensions>
          <ns3:TrackPointExtension>
            <ns3:atemp>26.0</ns3:atemp>
            <ns3:hr>104</ns3:hr>
          </ns3:TrackPointExtension>
        </extensions>
      </trkpt>
      <trkpt lat="47.687405459582805633544921875" lon="-122.3499497584998607635498046875">
        <ele>77</ele>
        <time>2026-07-24T18:01:36.000Z</time>
        <extensions>
          <ns3:TrackPointExtension>
            <ns3:atemp>26.0</ns3:atemp>
            <ns3:hr>104</ns3:hr>
          </ns3:TrackPointExtension>
        </extensions>
      </trkpt>
      <trkpt lat="47.68730864860117435455322265625" lon="-122.3499527759850025177001953125">
        <ele>76.8000030517578125</ele>
        <time>2026-07-24T18:01:38.000Z</time>
        <extensions>
          <ns3:TrackPointExtension>
            <ns3:atemp>26.0</ns3:atemp>
            <ns3:hr>103</ns3:hr>
          </ns3:TrackPointExtension>
        </extensions>
      </trkpt>
      <trkpt lat="47.68712692894041538238525390625" lon="-122.349944226443767547607421875">
        <ele>76</ele>
        <time>2026-07-24T18:01:42.000Z</time>
        <extensions>
          <ns3:TrackPointExtension>
            <ns3:atemp>26.0</ns3:atemp>
            <ns3:hr>102</ns3:hr>
          </ns3:TrackPointExtension>
        </extensions>
      </trkpt>
      <trkpt lat="47.68709323368966579437255859375" lon="-122.3499499261379241943359375">
        <ele>75.8000030517578125</ele>
        <time>2026-07-24T18:01:43.000Z</time>
        <extensions>
          <ns3:TrackPointExtension>
            <ns3:atemp>26.0</ns3:atemp>
            <ns3:hr>102</ns3:hr>
          </ns3:TrackPointExtension>
        </extensions>
      </trkpt>
      <trkpt lat="47.6870649866759777069091796875" lon="-122.34995487146079540252685546875">
        <ele>75.8000030517578125</ele>
        <time>2026-07-24T18:01:44.000Z</time>
        <extensions>
          <ns3:TrackPointExtension>
            <ns3:atemp>26.0</ns3:atemp>
            <ns3:hr>101</ns3:hr>
          </ns3:TrackPointExtension>
        </extensions>
      </trkpt>
      <trkpt lat="47.6870195567607879638671875" lon="-122.34996476210653781890869140625">
        <ele>75.59999847412109375</ele>
        <time>2026-07-24T18:01:48.000Z</time>
        <extensions>
          <ns3:TrackPointExtension>
            <ns3:atemp>26.0</ns3:atemp>
            <ns3:hr>100</ns3:hr>
          </ns3:TrackPointExtension>
        </extensions>
      </trkpt>
      <trkpt lat="47.6870195567607879638671875" lon="-122.34996476210653781890869140625">
        <ele>75.59999847412109375</ele>
        <time>2026-07-24T18:01:49.000Z</time>
        <extensions>
          <ns3:TrackPointExtension>
            <ns3:atemp>26.0</ns3:atemp>
            <ns3:hr>99</ns3:hr>
          </ns3:TrackPointExtension>
        </extensions>
      </trkpt>
      <trkpt lat="47.6870195567607879638671875" lon="-122.34996476210653781890869140625">
        <ele>75.8000030517578125</ele>
        <time>2026-07-24T18:01:55.000Z</time>
        <extensions>
          <ns3:TrackPointExtension>
            <ns3:atemp>26.0</ns3:atemp>
            <ns3:hr>96</ns3:hr>
          </ns3:TrackPointExtension>
        </extensions>
      </trkpt>
      <trkpt lat="47.6870195567607879638671875" lon="-122.34996476210653781890869140625">
        <ele>75.59999847412109375</ele>
        <time>2026-07-24T18:02:01.000Z</time>
        <extensions>
          <ns3:TrackPointExtension>
            <ns3:atemp>26.0</ns3:atemp>
            <ns3:hr>93</ns3:hr>
          </ns3:TrackPointExtension>
        </extensions>
      </trkpt>
      <trkpt lat="47.6870195567607879638671875" lon="-122.34996476210653781890869140625">
        <ele>75.59999847412109375</ele>
        <time>2026-07-24T18:02:02.000Z</time>
        <extensions>
          <ns3:TrackPointExtension>
            <ns3:atemp>26.0</ns3:atemp>
            <ns3:hr>92</ns3:hr>
          </ns3:TrackPointExtension>
        </extensions>
      </trkpt>
      <trkpt lat="47.6870180480182170867919921875" lon="-122.3499645106494426727294921875">
        <ele>75.59999847412109375</ele>
        <time>2026-07-24T18:02:07.000Z</time>
        <extensions>
          <ns3:TrackPointExtension>
            <ns3:atemp>26.0</ns3:atemp>
            <ns3:hr>89</ns3:hr>
          </ns3:TrackPointExtension>
        </extensions>
      </trkpt>
      <trkpt lat="47.68700145184993743896484375" lon="-122.34996023587882518768310546875">
        <ele>75.59999847412109375</ele>
        <time>2026-07-24T18:02:08.000Z</time>
        <extensions>
          <ns3:TrackPointExtension>
            <ns3:atemp>26.0</ns3:atemp>
            <ns3:hr>87</ns3:hr>
          </ns3:TrackPointExtension>
        </extensions>
      </trkpt>
      <trkpt lat="47.686966918408870697021484375" lon="-122.34995420090854167938232421875">
        <ele>75.8000030517578125</ele>
        <time>2026-07-24T18:02:10.000Z</time>
        <extensions>
          <ns3:TrackPointExtension>
            <ns3:atemp>26.0</ns3:atemp>
            <ns3:hr>85</ns3:hr>
          </ns3:TrackPointExtension>
        </extensions>
      </trkpt>
      <trkpt lat="47.68686993978917598724365234375" lon="-122.349937520921230316162109375">
        <ele>75.59999847412109375</ele>
        <time>2026-07-24T18:02:14.000Z</time>
        <extensions>
          <ns3:TrackPointExtension>
            <ns3:atemp>26.0</ns3:atemp>
            <ns3:hr>82</ns3:hr>
          </ns3:TrackPointExtension>
        </extensions>
      </trkpt>
      <trkpt lat="47.686840854585170745849609375" lon="-122.34993274323642253875732421875">
        <ele>75.40000152587890625</ele>
        <time>2026-07-24T18:02:15.000Z</time>
        <extensions>
          <ns3:TrackPointExtension>
            <ns3:atemp>27.0</ns3:atemp>
            <ns3:hr>81</ns3:hr>
          </ns3:TrackPointExtension>
        </extensions>
      </trkpt>
      <trkpt lat="47.686591409146785736083984375" lon="-122.3499185778200626373291015625">
        <ele>74.8000030517578125</ele>
        <time>2026-07-24T18:02:23.000Z</time>
        <extensions>
          <ns3:TrackPointExtension>
            <ns3:atemp>27.0</ns3:atemp>
            <ns3:hr>79</ns3:hr>
          </ns3:TrackPointExtension>
        </extensions>
      </trkpt>
      <trkpt lat="47.686476074159145355224609375" lon="-122.349923439323902130126953125">
        <ele>74.8000030517578125</ele>
        <time>2026-07-24T18:02:26.000Z</time>
        <extensions>
          <ns3:TrackPointExtension>
            <ns3:atemp>27.0</ns3:atemp>
            <ns3:hr>78</ns3:hr>
          </ns3:TrackPointExtension>
        </extensions>
      </trkpt>
      <trkpt lat="47.68625671975314617156982421875" lon="-122.34994799830019474029541015625">
        <ele>74.59999847412109375</ele>
        <time>2026-07-24T18:02:31.000Z</time>
        <extensions>
          <ns3:TrackPointExtension>
            <ns3:atemp>27.0</ns3:atemp>
            <ns3:hr>79</ns3:hr>
          </ns3:TrackPointExtension>
        </extensions>
      </trkpt>
      <trkpt lat="47.68604122102260589599609375" lon="-122.3499303124845027923583984375">
        <ele>73.8000030517578125</ele>
        <time>2026-07-24T18:02:36.000Z</time>
        <extensions>
          <ns3:TrackPointExtension>
            <ns3:atemp>27.0</ns3:atemp>
            <ns3:hr>79</ns3:hr>
          </ns3:TrackPointExtension>
        </extensions>
      </trkpt>
      <trkpt lat="47.68595094792544841766357421875" lon="-122.34991698525846004486083984375">
        <ele>73.1999969482421875</ele>
        <time>2026-07-24T18:02:38.000Z</time>
        <extensions>
          <ns3:TrackPointExtension>
            <ns3:atemp>27.0</ns3:atemp>
            <ns3:hr>80</ns3:hr>
          </ns3:TrackPointExtension>
        </extensions>
      </trkpt>
      <trkpt lat="47.68586830236017704010009765625" lon="-122.3498480021953582763671875">
        <ele>72.59999847412109375</ele>
        <time>2026-07-24T18:02:40.000Z</time>
        <extensions>
          <ns3:TrackPointExtension>
            <ns3:atemp>27.0</ns3:atemp>
            <ns3:hr>81</ns3:hr>
          </ns3:TrackPointExtension>
        </extensions>
      </trkpt>
      <trkpt lat="47.6858482696115970611572265625" lon="-122.3497898317873477935791015625">
        <ele>72.59999847412109375</ele>
        <time>2026-07-24T18:02:41.000Z</time>
        <extensions>
          <ns3:TrackPointExtension>
            <ns3:atemp>27.0</ns3:atemp>
            <ns3:hr>82</ns3:hr>
          </ns3:TrackPointExtension>
        </extensions>
      </trkpt>
      <trkpt lat="47.68584986217319965362548828125" lon="-122.34957114793360233306884765625">
        <ele>73.1999969482421875</ele>
        <time>2026-07-24T18:02:45.000Z</time>
        <extensions>
          <ns3:TrackPointExtension>
            <ns3:atemp>27.0</ns3:atemp>
            <ns3:hr>82</ns3:hr>
          </ns3:TrackPointExtension>
        </extensions>
      </trkpt>
      <trkpt lat="47.6858527958393096923828125" lon="-122.3495122231543064117431640625">
        <ele>73.8000030517578125</ele>
        <time>2026-07-24T18:02:46.000Z</time>
        <extensions>
          <ns3:TrackPointExtension>
            <ns3:atemp>27.0</ns3:atemp>
            <ns3:hr>83</ns3:hr>
          </ns3:TrackPointExtension>
        </extensions>
      </trkpt>
      <trkpt lat="47.68585614860057830810546875" lon="-122.349352799355983734130859375">
        <ele>75.1999969482421875</ele>
        <time>2026-07-24T18:02:49.000Z</time>
        <extensions>
          <ns3:TrackPointExtension>
            <ns3:atemp>27.0</ns3:atemp>
            <ns3:hr>85</ns3:hr>
          </ns3:TrackPointExtension>
        </extensions>
      </trkpt>
      <trkpt lat="47.68585908226668834686279296875" lon="-122.34926001168787479400634765625">
        <ele>75.59999847412109375</ele>
        <time>2026-07-24T18:02:51.000Z</time>
        <extensions>
          <ns3:TrackPointExtension>
            <ns3:atemp>27.0</ns3:atemp>
            <ns3:hr>86</ns3:hr>
          </ns3:TrackPointExtension>
        </extensions>
      </trkpt>
      <trkpt lat="47.6858616806566715240478515625" lon="-122.349133528769016265869140625">
        <ele>76</ele>
        <time>2026-07-24T18:02:54.000Z</time>
        <extensions>
          <ns3:TrackPointExtension>
            <ns3:atemp>27.0</ns3:atemp>
            <ns3:hr>89</ns3:hr>
          </ns3:TrackPointExtension>
        </extensions>
      </trkpt>
      <trkpt lat="47.68585883080959320068359375" lon="-122.34904694370925426483154296875">
        <ele>76.1999969482421875</ele>
        <time>2026-07-24T18:02:56.000Z</time>
        <extensions>
          <ns3:TrackPointExtension>
            <ns3:atemp>27.0</ns3:atemp>
            <ns3:hr>92</ns3:hr>
          </ns3:TrackPointExtension>
        </extensions>
      </trkpt>
      <trkpt lat="47.68586218357086181640625" lon="-122.3490012623369693756103515625">
        <ele>76.40000152587890625</ele>
        <time>2026-07-24T18:02:57.000Z</time>
        <extensions>
          <ns3:TrackPointExtension>
            <ns3:atemp>27.0</ns3:atemp>
            <ns3:hr>94</ns3:hr>
          </ns3:TrackPointExtension>
        </extensions>
      </trkpt>
      <trkpt lat="47.68586821854114532470703125" lon="-122.34881065785884857177734375">
        <ele>77.1999969482421875</ele>
        <time>2026-07-24T18:03:01.000Z</time>
        <extensions>
          <ns3:TrackPointExtension>
            <ns3:atemp>27.0</ns3:atemp>
            <ns3:hr>98</ns3:hr>
          </ns3:TrackPointExtension>
        </extensions>
      </trkpt>
      <trkpt lat="47.6858734153211116790771484375" lon="-122.34872474335134029388427734375">
        <ele>77.1999969482421875</ele>
        <time>2026-07-24T18:03:03.000Z</time>
        <extensions>
          <ns3:TrackPointExtension>
            <ns3:atemp>27.0</ns3:atemp>
            <ns3:hr>101</ns3:hr>
          </ns3:TrackPointExtension>
        </extensions>
      </trkpt>
      <trkpt lat="47.685876600444316864013671875" lon="-122.348645031452178955078125">
        <ele>77.40000152587890625</ele>
        <time>2026-07-24T18:03:05.000Z</time>
        <extensions>
          <ns3:TrackPointExtension>
            <ns3:atemp>27.0</ns3:atemp>
            <ns3:hr>103</ns3:hr>
          </ns3:TrackPointExtension>
        </extensions>
      </trkpt>
      <trkpt lat="47.6858740858733654022216796875" lon="-122.34860546886920928955078125">
        <ele>77.40000152587890625</ele>
        <time>2026-07-24T18:03:06.000Z</time>
        <extensions>
          <ns3:TrackPointExtension>
            <ns3:atemp>27.0</ns3:atemp>
            <ns3:hr>103</ns3:hr>
          </ns3:TrackPointExtension>
        </extensions>
      </trkpt>
      <trkpt lat="47.6858876645565032958984375" lon="-122.34845333732664585113525390625">
        <ele>77.59999847412109375</ele>
        <time>2026-07-24T18:03:11.000Z</time>
        <extensions>
          <ns3:TrackPointExtension>
            <ns3:atemp>27.0</ns3:atemp>
            <ns3:hr>104</ns3:hr>
          </ns3:TrackPointExtension>
        </extensions>
      </trkpt>
      <trkpt lat="47.68589965067803859710693359375" lon="-122.348411343991756439208984375">
        <ele>78</ele>
        <time>2026-07-24T18:03:16.000Z</time>
        <extensions>
          <ns3:TrackPointExtension>
            <ns3:atemp>27.0</ns3:atemp>
            <ns3:hr>102</ns3:hr>
          </ns3:TrackPointExtension>
        </extensions>
      </trkpt>
    </trkseg>
  </trk>
</gpx>
