<gpx xmlns:ns3="http://www.garmin.com/xmlschemas/TrackPointExtension/v1" xmlns="http://www.topografix.com/GPX/1/1" xmlns:xsi="http://www.w3.org/2001/XMLSchema-instance" xmlns:ns2="http://www.garmin.com/xmlschemas/GpxExtensions/v3" creator="Garmin Connect" version="1.1" xsi:schemaLocation="http://www.topografix.com/GPX/1/1 http://www.topografix.com/GPX/11.xsd">
  <extensions>
<distance>2077.91</distance>
<average_hr>101.0</average_hr>
<average_speed>3.552000045776367</average_speed>
<start_time>2026-07-29T15:11:08+00:00</start_time>
<end_time>2026-07-29T15:20:52.919000+00:00</end_time>
<moving_time>491.0</moving_time>
<elapsed_time>584.919</elapsed_time>
</extensions>
<metadata>
    <link href="connect.garmin.com">
      <text>Garmin Connect</text>
    </link>
    <time>2026-07-29T15:11:08.000Z</time>
  </metadata>
  <trk>
    <name>Seattle Cycling</name>
    <type>cycling</type>
    <trkseg>
      <trkpt lat="47.6859243772923946380615234375" lon="-122.34841411001980304718017578125">
        <ele>83.59999847412109375</ele>
        <time>2026-07-29T15:11:08.000Z</time>
        <extensions>
          <ns3:TrackPointExtension>
            <ns3:atemp>25.0</ns3:atemp>
            <ns3:hr>70</ns3:hr>
          </ns3:TrackPointExtension>
        </extensions>
      </trkpt>
      <trkpt lat="47.6858997344970703125" lon="-122.3484022915363311767578125">
        <ele>83.59999847412109375</ele>
        <time>2026-07-29T15:11:15.000Z</time>
        <extensions>
          <ns3:TrackPointExtension>
            <ns3:atemp>25.0</ns3:atemp>
            <ns3:hr>63</ns3:hr>
          </ns3:TrackPointExtension>
        </extensions>
      </trkpt>
      <trkpt lat="47.68588162958621978759765625" lon="-122.348368428647518157958984375">
        <ele>83.59999847412109375</ele>
        <time>2026-07-29T15:11:17.000Z</time>
        <extensions>
          <ns3:TrackPointExtension>
            <ns3:atemp>25.0</ns3:atemp>
            <ns3:hr>62</ns3:hr>
          </ns3:TrackPointExtension>
        </extensions>
      </trkpt>
      <trkpt lat="47.6858814619481563568115234375" lon="-122.34834018163383007049560546875">
        <ele>83.59999847412109375</ele>
        <time>2026-07-29T15:11:18.000Z</time>
        <extensions>
          <ns3:TrackPointExtension>
            <ns3:atemp>25.0</ns3:atemp>
            <ns3:hr>62</ns3:hr>
          </ns3:TrackPointExtension>
        </extensions>
      </trkpt>
      <trkpt lat="47.68589428626000881195068359375" lon="-122.3481422848999500274658203125">
        <ele>83</ele>
        <time>2026-07-29T15:11:23.000Z</time>
        <extensions>
          <ns3:TrackPointExtension>
            <ns3:atemp>25.0</ns3:atemp>
            <ns3:hr>63</ns3:hr>
          </ns3:TrackPointExtension>
        </extensions>
      </trkpt>
      <trkpt lat="47.68590652383863925933837890625" lon="-122.3478871397674083709716796875">
        <ele>82.59999847412109375</ele>
        <time>2026-07-29T15:11:28.000Z</time>
        <extensions>
          <ns3:TrackPointExtension>
            <ns3:atemp>25.0</ns3:atemp>
            <ns3:hr>64</ns3:hr>
          </ns3:TrackPointExtension>
        </extensions>
      </trkpt>
      <trkpt lat="47.68590518273413181304931640625" lon="-122.34783357940614223480224609375">
        <ele>82.59999847412109375</ele>
        <time>2026-07-29T15:11:29.000Z</time>
        <extensions>
          <ns3:TrackPointExtension>
            <ns3:atemp>25.0</ns3:atemp>
            <ns3:hr>63</ns3:hr>
          </ns3:TrackPointExtension>
        </extensions>
      </trkpt>
      <trkpt lat="47.6859072782099246978759765625" lon="-122.34758329577744007110595703125">
        <ele>81.59999847412109375</ele>
        <time>2026-07-29T15:11:34.000Z</time>
        <extensions>
          <ns3:TrackPointExtension>
            <ns3:atemp>25.0</ns3:atemp>
            <ns3:hr>65</ns3:hr>
          </ns3:TrackPointExtension>
        </extensions>
      </trkpt>
      <trkpt lat="47.685898728668689727783203125" lon="-122.34744348563253879547119140625">
        <ele>81.1999969482421875</ele>
        <time>2026-07-29T15:11:37.000Z</time>
        <extensions>
          <ns3:TrackPointExtension>
            <ns3:atemp>25.0</ns3:atemp>
            <ns3:hr>65</ns3:hr>
          </ns3:TrackPointExtension>
        </extensions>
      </trkpt>
      <trkpt lat="47.68588297069072723388671875" lon="-122.3472823016345500946044921875">
        <ele>81</ele>
        <time>2026-07-29T15:11:41.000Z</time>
        <extensions>
          <ns3:TrackPointExtension>
            <ns3:atemp>25.0</ns3:atemp>
            <ns3:hr>67</ns3:hr>
          </ns3:TrackPointExtension>
        </extensions>
      </trkpt>
      <trkpt lat="47.68582873977720737457275390625" lon="-122.3472427390515804290771484375">
        <ele>80.59999847412109375</ele>
        <time>2026-07-29T15:11:43.000Z</time>
        <extensions>
          <ns3:TrackPointExtension>
            <ns3:atemp>25.0</ns3:atemp>
            <ns3:hr>71</ns3:hr>
          </ns3:TrackPointExtension>
        </extensions>
      </trkpt>
      <trkpt lat="47.68579722382128238677978515625" lon="-122.34723511151969432830810546875">
        <ele>80.40000152587890625</ele>
        <time>2026-07-29T15:11:44.000Z</time>
        <extensions>
          <ns3:TrackPointExtension>
            <ns3:atemp>25.0</ns3:atemp>
            <ns3:hr>70</ns3:hr>
          </ns3:TrackPointExtension>
        </extensions>
      </trkpt>
      <trkpt lat="47.6857359521090984344482421875" lon="-122.34723896719515323638916015625">
        <ele>80.1999969482421875</ele>
        <time>2026-07-29T15:11:46.000Z</time>
        <extensions>
          <ns3:TrackPointExtension>
            <ns3:atemp>25.0</ns3:atemp>
            <ns3:hr>74</ns3:hr>
          </ns3:TrackPointExtension>
        </extensions>
      </trkpt>
      <trkpt lat="47.6856642030179500579833984375" lon="-122.34723393805325031280517578125">
        <ele>79.8000030517578125</ele>
        <time>2026-07-29T15:11:48.000Z</time>
        <extensions>
          <ns3:TrackPointExtension>
            <ns3:atemp>25.0</ns3:atemp>
            <ns3:hr>77</ns3:hr>
          </ns3:TrackPointExtension>
        </extensions>
      </trkpt>
      <trkpt lat="47.68558398820459842681884765625" lon="-122.34722622670233249664306640625">
        <ele>79.59999847412109375</ele>
        <time>2026-07-29T15:11:50.000Z</time>
        <extensions>
          <ns3:TrackPointExtension>
            <ns3:atemp>25.0</ns3:atemp>
            <ns3:hr>80</ns3:hr>
          </ns3:TrackPointExtension>
        </extensions>
      </trkpt>
      <trkpt lat="47.685305960476398468017578125" lon="-122.34721566550433635711669921875">
        <ele>79.1999969482421875</ele>
        <time>2026-07-29T15:11:57.000Z</time>
        <extensions>
          <ns3:TrackPointExtension>
            <ns3:atemp>25.0</ns3:atemp>
            <ns3:hr>79</ns3:hr>
          </ns3:TrackPointExtension>
        </extensions>
      </trkpt>
      <trkpt lat="47.685264050960540771484375" lon="-122.3472152464091777801513671875">
        <ele>79</ele>
        <time>2026-07-29T15:11:58.000Z</time>
        <extensions>
          <ns3:TrackPointExtension>
            <ns3:atemp>25.0</ns3:atemp>
            <ns3:hr>78</ns3:hr>
          </ns3:TrackPointExtension>
        </extensions>
      </trkpt>
      <trkpt lat="47.68504050560295581817626953125" lon="-122.34722019173204898834228515625">
        <ele>78</ele>
        <time>2026-07-29T15:12:03.000Z</time>
        <extensions>
          <ns3:TrackPointExtension>
            <ns3:atemp>25.0</ns3:atemp>
            <ns3:hr>76</ns3:hr>
          </ns3:TrackPointExtension>
        </extensions>
      </trkpt>
      <trkpt lat="47.68494394607841968536376953125" lon="-122.347213737666606903076171875">
        <ele>77.59999847412109375</ele>
        <time>2026-07-29T15:12:05.000Z</time>
        <extensions>
          <ns3:TrackPointExtension>
            <ns3:atemp>25.0</ns3:atemp>
            <ns3:hr>76</ns3:hr>
          </ns3:TrackPointExtension>
        </extensions>
      </trkpt>
      <trkpt lat="47.68486465327441692352294921875" lon="-122.3471780307590961456298828125">
        <ele>77.1999969482421875</ele>
        <time>2026-07-29T15:12:07.000Z</time>
        <extensions>
          <ns3:TrackPointExtension>
            <ns3:atemp>25.0</ns3:atemp>
            <ns3:hr>76</ns3:hr>
          </ns3:TrackPointExtension>
        </extensions>
      </trkpt>
      <trkpt lat="47.68480313010513782501220703125" lon="-122.3471069522202014923095703125">
        <ele>77</ele>
        <time>2026-07-29T15:12:09.000Z</time>
        <extensions>
          <ns3:TrackPointExtension>
            <ns3:atemp>25.0</ns3:atemp>
            <ns3:hr>76</ns3:hr>
          </ns3:TrackPointExtension>
        </extensions>
      </trkpt>
      <trkpt lat="47.68478468991816043853759765625" lon="-122.3470556549727916717529296875">
        <ele>76.8000030517578125</ele>
        <time>2026-07-29T15:12:10.000Z</time>
        <extensions>
          <ns3:TrackPointExtension>
            <ns3:atemp>25.0</ns3:atemp>
            <ns3:hr>76</ns3:hr>
          </ns3:TrackPointExtension>
        </extensions>
      </trkpt>
      <trkpt lat="47.6847750507295131683349609375" lon="-122.34699555672705173492431640625">
        <ele>76.59999847412109375</ele>
        <time>2026-07-29T15:12:11.000Z</time>
        <extensions>
          <ns3:TrackPointExtension>
            <ns3:atemp>25.0</ns3:atemp>
            <ns3:hr>76</ns3:hr>
          </ns3:TrackPointExtension>
        </extensions>
      </trkpt>
      <trkpt lat="47.684769518673419952392578125" lon="-122.34675784595310688018798828125">
        <ele>75.8000030517578125</ele>
        <time>2026-07-29T15:12:15.000Z</time>
        <extensions>
          <ns3:TrackPointExtension>
            <ns3:atemp>25.0</ns3:atemp>
            <ns3:hr>76</ns3:hr>
          </ns3:TrackPointExtension>
        </extensions>
      </trkpt>
      <trkpt lat="47.68477865494787693023681640625" lon="-122.34648409299552440643310546875">
        <ele>74.59999847412109375</ele>
        <time>2026-07-29T15:12:19.000Z</time>
        <extensions>
          <ns3:TrackPointExtension>
            <ns3:atemp>25.0</ns3:atemp>
            <ns3:hr>77</ns3:hr>
          </ns3:TrackPointExtension>
        </extensions>
      </trkpt>
      <trkpt lat="47.684783935546875" lon="-122.34622743912041187286376953125">
        <ele>73.1999969482421875</ele>
        <time>2026-07-29T15:12:23.000Z</time>
        <extensions>
          <ns3:TrackPointExtension>
            <ns3:atemp>25.0</ns3:atemp>
            <ns3:hr>75</ns3:hr>
          </ns3:TrackPointExtension>
        </extensions>
      </trkpt>
      <trkpt lat="47.68478468991816043853759765625" lon="-122.34610338695347309112548828125">
        <ele>72.40000152587890625</ele>
        <time>2026-07-29T15:12:25.000Z</time>
        <extensions>
          <ns3:TrackPointExtension>
            <ns3:atemp>25.0</ns3:atemp>
            <ns3:hr>74</ns3:hr>
          </ns3:TrackPointExtension>
        </extensions>
      </trkpt>
      <trkpt lat="47.68478728830814361572265625" lon="-122.34604605473577976226806640625">
        <ele>71.8000030517578125</ele>
        <time>2026-07-29T15:12:26.000Z</time>
        <extensions>
          <ns3:TrackPointExtension>
            <ns3:atemp>25.0</ns3:atemp>
            <ns3:hr>74</ns3:hr>
          </ns3:TrackPointExtension>
        </extensions>
      </trkpt>
      <trkpt lat="47.68478653393685817718505859375" lon="-122.34587573446333408355712890625">
        <ele>70.8000030517578125</ele>
        <time>2026-07-29T15:12:29.000Z</time>
        <extensions>
          <ns3:TrackPointExtension>
            <ns3:atemp>25.0</ns3:atemp>
            <ns3:hr>76</ns3:hr>
          </ns3:TrackPointExtension>
        </extensions>
      </trkpt>
      <trkpt lat="47.6847871206700801849365234375" lon="-122.34570926986634731292724609375">
        <ele>69.8000030517578125</ele>
        <time>2026-07-29T15:12:32.000Z</time>
        <extensions>
          <ns3:TrackPointExtension>
            <ns3:atemp>25.0</ns3:atemp>
            <ns3:hr>77</ns3:hr>
          </ns3:TrackPointExtension>
        </extensions>
      </trkpt>
      <trkpt lat="47.68478955142199993133544921875" lon="-122.345649339258670806884765625">
        <ele>69</ele>
        <time>2026-07-29T15:12:33.000Z</time>
        <extensions>
          <ns3:TrackPointExtension>
            <ns3:atemp>25.0</ns3:atemp>
            <ns3:hr>78</ns3:hr>
          </ns3:TrackPointExtension>
        </extensions>
      </trkpt>
      <trkpt lat="47.684789635241031646728515625" lon="-122.34559192322194576263427734375">
        <ele>68.59999847412109375</ele>
        <time>2026-07-29T15:12:34.000Z</time>
        <extensions>
          <ns3:TrackPointExtension>
            <ns3:atemp>25.0</ns3:atemp>
            <ns3:hr>78</ns3:hr>
          </ns3:TrackPointExtension>
        </extensions>
      </trkpt>
      <trkpt lat="47.68478133715689182281494140625" lon="-122.34548027627170085906982421875">
        <ele>67.59999847412109375</ele>
        <time>2026-07-29T15:12:36.000Z</time>
        <extensions>
          <ns3:TrackPointExtension>
            <ns3:atemp>25.0</ns3:atemp>
            <ns3:hr>79</ns3:hr>
          </ns3:TrackPointExtension>
        </extensions>
      </trkpt>
      <trkpt lat="47.6847790740430355072021484375" lon="-122.34536125324666500091552734375">
        <ele>66.59999847412109375</ele>
        <time>2026-07-29T15:12:38.000Z</time>
        <extensions>
          <ns3:TrackPointExtension>
            <ns3:atemp>25.0</ns3:atemp>
            <ns3:hr>79</ns3:hr>
          </ns3:TrackPointExtension>
        </extensions>
      </trkpt>
      <trkpt lat="47.68477781675755977630615234375" lon="-122.345306016504764556884765625">
        <ele>66.40000152587890625</ele>
        <time>2026-07-29T15:12:39.000Z</time>
        <extensions>
          <ns3:TrackPointExtension>
            <ns3:atemp>25.0</ns3:atemp>
            <ns3:hr>81</ns3:hr>
          </ns3:TrackPointExtension>
        </extensions>
      </trkpt>
      <trkpt lat="47.6847854442894458770751953125" lon="-122.345077693462371826171875">
        <ele>65.1999969482421875</ele>
        <time>2026-07-29T15:12:44.000Z</time>
        <extensions>
          <ns3:TrackPointExtension>
            <ns3:atemp>25.0</ns3:atemp>
            <ns3:hr>84</ns3:hr>
          </ns3:TrackPointExtension>
        </extensions>
      </trkpt>
      <trkpt lat="47.68478636629879474639892578125" lon="-122.3450312577188014984130859375">
        <ele>65.1999969482421875</ele>
        <time>2026-07-29T15:12:45.000Z</time>
        <extensions>
          <ns3:TrackPointExtension>
            <ns3:atemp>25.0</ns3:atemp>
            <ns3:hr>88</ns3:hr>
          </ns3:TrackPointExtension>
        </extensions>
      </trkpt>
      <trkpt lat="47.68478720448911190032958984375" lon="-122.34486303292214870452880859375">
        <ele>64.1999969482421875</ele>
        <time>2026-07-29T15:12:49.000Z</time>
        <extensions>
          <ns3:TrackPointExtension>
            <ns3:atemp>25.0</ns3:atemp>
            <ns3:hr>91</ns3:hr>
          </ns3:TrackPointExtension>
        </extensions>
      </trkpt>
      <trkpt lat="47.68477932550013065338134765625" lon="-122.3447048664093017578125">
        <ele>63.59999847412109375</ele>
        <time>2026-07-29T15:12:54.000Z</time>
        <extensions>
          <ns3:TrackPointExtension>
            <ns3:atemp>25.0</ns3:atemp>
            <ns3:hr>92</ns3:hr>
          </ns3:TrackPointExtension>
        </extensions>
      </trkpt>
      <trkpt lat="47.684741355478763580322265625" lon="-122.3446678183972835540771484375">
        <ele>63.799999237060546875</ele>
        <time>2026-07-29T15:12:58.000Z</time>
        <extensions>
          <ns3:TrackPointExtension>
            <ns3:atemp>25.0</ns3:atemp>
            <ns3:hr>95</ns3:hr>
          </ns3:TrackPointExtension>
        </extensions>
      </trkpt>
      <trkpt lat="47.68473791889846324920654296875" lon="-122.34466605819761753082275390625">
        <ele>63.59999847412109375</ele>
        <time>2026-07-29T15:13:06.000Z</time>
        <extensions>
          <ns3:TrackPointExtension>
            <ns3:atemp>25.0</ns3:atemp>
            <ns3:hr>98</ns3:hr>
          </ns3:TrackPointExtension>
        </extensions>
      </trkpt>
      <trkpt lat="47.684732638299465179443359375" lon="-122.344671003520488739013671875">
        <ele>63.59999847412109375</ele>
        <time>2026-07-29T15:13:10.000Z</time>
        <extensions>
          <ns3:TrackPointExtension>
            <ns3:atemp>25.0</ns3:atemp>
            <ns3:hr>98</ns3:hr>
          </ns3:TrackPointExtension>
        </extensions>
      </trkpt>
      <trkpt lat="47.684732638299465179443359375" lon="-122.344671003520488739013671875">
        <ele>63.40000152587890625</ele>
        <time>2026-07-29T15:13:19.000Z</time>
        <extensions>
          <ns3:TrackPointExtension>
            <ns3:atemp>25.0</ns3:atemp>
            <ns3:hr>95</ns3:hr>
          </ns3:TrackPointExtension>
        </extensions>
      </trkpt>
      <trkpt lat="47.68472769297659397125244140625" lon="-122.34464225359261035919189453125">
        <ele>63.40000152587890625</ele>
        <time>2026-07-29T15:13:26.000Z</time>
        <extensions>
          <ns3:TrackPointExtension>
            <ns3:atemp>25.0</ns3:atemp>
            <ns3:hr>95</ns3:hr>
          </ns3:TrackPointExtension>
        </extensions>
      </trkpt>
      <trkpt lat="47.68471931107342243194580078125" lon="-122.3445769585669040679931640625">
        <ele>63.40000152587890625</ele>
        <time>2026-07-29T15:13:28.000Z</time>
        <extensions>
          <ns3:TrackPointExtension>
            <ns3:atemp>25.0</ns3:atemp>
            <ns3:hr>96</ns3:hr>
          </ns3:TrackPointExtension>
        </extensions>
      </trkpt>
      <trkpt lat="47.68472232855856418609619140625" lon="-122.34453932382166385650634765625">
        <ele>63.59999847412109375</ele>
        <time>2026-07-29T15:13:29.000Z</time>
        <extensions>
          <ns3:TrackPointExtension>
            <ns3:atemp>25.0</ns3:atemp>
            <ns3:hr>99</ns3:hr>
          </ns3:TrackPointExtension>
        </extensions>
      </trkpt>
      <trkpt lat="47.6847217418253421783447265625" lon="-122.3444995097815990447998046875">
        <ele>63.59999847412109375</ele>
        <time>2026-07-29T15:13:30.000Z</time>
        <extensions>
          <ns3:TrackPointExtension>
            <ns3:atemp>25.0</ns3:atemp>
            <ns3:hr>96</ns3:hr>
          </ns3:TrackPointExtension>
        </extensions>
      </trkpt>
      <trkpt lat="47.68474495969712734222412109375" lon="-122.34427294693887233734130859375">
        <ele>63.59999847412109375</ele>
        <time>2026-07-29T15:13:35.000Z</time>
        <extensions>
          <ns3:TrackPointExtension>
            <ns3:atemp>25.0</ns3:atemp>
            <ns3:hr>95</ns3:hr>
          </ns3:TrackPointExtension>
        </extensions>
      </trkpt>
      <trkpt lat="47.6847495697438716888427734375" lon="-122.3441307060420513153076171875">
        <ele>63.200000762939453125</ele>
        <time>2026-07-29T15:13:38.000Z</time>
        <extensions>
          <ns3:TrackPointExtension>
            <ns3:atemp>25.0</ns3:atemp>
            <ns3:hr>92</ns3:hr>
          </ns3:TrackPointExtension>
        </extensions>
      </trkpt>
      <trkpt lat="47.6847566105425357818603515625" lon="-122.3440341465175151824951171875">
        <ele>63.200000762939453125</ele>
        <time>2026-07-29T15:13:40.000Z</time>
        <extensions>
          <ns3:TrackPointExtension>
            <ns3:atemp>25.0</ns3:atemp>
            <ns3:hr>90</ns3:hr>
          </ns3:TrackPointExtension>
        </extensions>
      </trkpt>
      <trkpt lat="47.6847602985799312591552734375" lon="-122.3439846932888031005859375">
        <ele>63</ele>
        <time>2026-07-29T15:13:41.000Z</time>
        <extensions>
          <ns3:TrackPointExtension>
            <ns3:atemp>25.0</ns3:atemp>
            <ns3:hr>90</ns3:hr>
          </ns3:TrackPointExtension>
        </extensions>
      </trkpt>
      <trkpt lat="47.68479374237358570098876953125" lon="-122.34351254068315029144287109375">
        <ele>62.40000152587890625</ele>
        <time>2026-07-29T15:13:50.000Z</time>
        <extensions>
          <ns3:TrackPointExtension>
            <ns3:atemp>25.0</ns3:atemp>
            <ns3:hr>92</ns3:hr>
          </ns3:TrackPointExtension>
        </extensions>
      </trkpt>
      <trkpt lat="47.6847820915281772613525390625" lon="-122.34339938499033451080322265625">
        <ele>62</ele>
        <time>2026-07-29T15:13:52.000Z</time>
        <extensions>
          <ns3:TrackPointExtension>
            <ns3:atemp>25.0</ns3:atemp>
            <ns3:hr>94</ns3:hr>
          </ns3:TrackPointExtension>
        </extensions>
      </trkpt>
      <trkpt lat="47.6847703568637371063232421875" lon="-122.3432848043739795684814453125">
        <ele>61.799999237060546875</ele>
        <time>2026-07-29T15:13:54.000Z</time>
        <extensions>
          <ns3:TrackPointExtension>
            <ns3:atemp>25.0</ns3:atemp>
            <ns3:hr>97</ns3:hr>
          </ns3:TrackPointExtension>
        </extensions>
      </trkpt>
      <trkpt lat="47.68477194942533969879150390625" lon="-122.34316804446280002593994140625">
        <ele>61.59999847412109375</ele>
        <time>2026-07-29T15:13:56.000Z</time>
        <extensions>
          <ns3:TrackPointExtension>
            <ns3:atemp>25.0</ns3:atemp>
            <ns3:hr>97</ns3:hr>
          </ns3:TrackPointExtension>
        </extensions>
      </trkpt>
      <trkpt lat="47.68477714620530605316162109375" lon="-122.34268893487751483917236328125">
        <ele>61.200000762939453125</ele>
        <time>2026-07-29T15:14:04.000Z</time>
        <extensions>
          <ns3:TrackPointExtension>
            <ns3:atemp>25.0</ns3:atemp>
            <ns3:hr>100</ns3:hr>
          </ns3:TrackPointExtension>
        </extensions>
      </trkpt>
      <trkpt lat="47.6847847737371921539306640625" lon="-122.34256974421441555023193359375">
        <ele>60.799999237060546875</ele>
        <time>2026-07-29T15:14:06.000Z</time>
        <extensions>
          <ns3:TrackPointExtension>
            <ns3:atemp>25.0</ns3:atemp>
            <ns3:hr>101</ns3:hr>
          </ns3:TrackPointExtension>
        </extensions>
      </trkpt>
      <trkpt lat="47.68478385172784328460693359375" lon="-122.34251006506383419036865234375">
        <ele>60.799999237060546875</ele>
        <time>2026-07-29T15:14:07.000Z</time>
        <extensions>
          <ns3:TrackPointExtension>
            <ns3:atemp>25.0</ns3:atemp>
            <ns3:hr>101</ns3:hr>
          </ns3:TrackPointExtension>
        </extensions>
      </trkpt>
      <trkpt lat="47.6847799122333526611328125" lon="-122.3422025330364704132080078125">
        <ele>60.200000762939453125</ele>
        <time>2026-07-29T15:14:12.000Z</time>
        <extensions>
          <ns3:TrackPointExtension>
            <ns3:atemp>25.0</ns3:atemp>
            <ns3:hr>100</ns3:hr>
          </ns3:TrackPointExtension>
        </extensions>
      </trkpt>
      <trkpt lat="47.68477362580597400665283203125" lon="-122.3420161195099353790283203125">
        <ele>59.799999237060546875</ele>
        <time>2026-07-29T15:14:15.000Z</time>
        <extensions>
          <ns3:TrackPointExtension>
            <ns3:atemp>25.0</ns3:atemp>
            <ns3:hr>101</ns3:hr>
          </ns3:TrackPointExtension>
        </extensions>
      </trkpt>
      <trkpt lat="47.68477697856724262237548828125" lon="-122.34188527800142765045166015625">
        <ele>59.59999847412109375</ele>
        <time>2026-07-29T15:14:17.000Z</time>
        <extensions>
          <ns3:TrackPointExtension>
            <ns3:atemp>25.0</ns3:atemp>
            <ns3:hr>101</ns3:hr>
          </ns3:TrackPointExtension>
        </extensions>
      </trkpt>
      <trkpt lat="47.684789635241031646728515625" lon="-122.34175510704517364501953125">
        <ele>59.40000152587890625</ele>
        <time>2026-07-29T15:14:19.000Z</time>
        <extensions>
          <ns3:TrackPointExtension>
            <ns3:atemp>25.0</ns3:atemp>
            <ns3:hr>102</ns3:hr>
          </ns3:TrackPointExtension>
        </extensions>
      </trkpt>
      <trkpt lat="47.6847841031849384307861328125" lon="-122.34148328192532062530517578125">
        <ele>58.59999847412109375</ele>
        <time>2026-07-29T15:14:23.000Z</time>
        <extensions>
          <ns3:TrackPointExtension>
            <ns3:atemp>25.0</ns3:atemp>
            <ns3:hr>103</ns3:hr>
          </ns3:TrackPointExtension>
        </extensions>
      </trkpt>
      <trkpt lat="47.68477530218660831451416015625" lon="-122.34108262695372104644775390625">
        <ele>58</ele>
        <time>2026-07-29T15:14:29.000Z</time>
        <extensions>
          <ns3:TrackPointExtension>
            <ns3:atemp>25.0</ns3:atemp>
            <ns3:hr>104</ns3:hr>
          </ns3:TrackPointExtension>
        </extensions>
      </trkpt>
      <trkpt lat="47.68477714620530605316162109375" lon="-122.34088431112468242645263671875">
        <ele>57.59999847412109375</ele>
        <time>2026-07-29T15:14:32.000Z</time>
        <extensions>
          <ns3:TrackPointExtension>
            <ns3:atemp>25.0</ns3:atemp>
            <ns3:hr>105</ns3:hr>
          </ns3:TrackPointExtension>
        </extensions>
      </trkpt>
      <trkpt lat="47.6847887970507144927978515625" lon="-122.3405720852315425872802734375">
        <ele>56.799999237060546875</ele>
        <time>2026-07-29T15:14:37.000Z</time>
        <extensions>
          <ns3:TrackPointExtension>
            <ns3:atemp>25.0</ns3:atemp>
            <ns3:hr>103</ns3:hr>
          </ns3:TrackPointExtension>
        </extensions>
      </trkpt>
      <trkpt lat="47.6847881264984607696533203125" lon="-122.3404627852141857147216796875">
        <ele>56.59999847412109375</ele>
        <time>2026-07-29T15:14:39.000Z</time>
        <extensions>
          <ns3:TrackPointExtension>
            <ns3:atemp>25.0</ns3:atemp>
            <ns3:hr>102</ns3:hr>
          </ns3:TrackPointExtension>
        </extensions>
      </trkpt>
      <trkpt lat="47.68477127887308597564697265625" lon="-122.340340912342071533203125">
        <ele>56.200000762939453125</ele>
        <time>2026-07-29T15:14:42.000Z</time>
        <extensions>
          <ns3:TrackPointExtension>
            <ns3:atemp>25.0</ns3:atemp>
            <ns3:hr>100</ns3:hr>
          </ns3:TrackPointExtension>
        </extensions>
      </trkpt>
      <trkpt lat="47.68469818867743015289306640625" lon="-122.34017520211637020111083984375">
        <ele>55.40000152587890625</ele>
        <time>2026-07-29T15:14:48.000Z</time>
        <extensions>
          <ns3:TrackPointExtension>
            <ns3:atemp>25.0</ns3:atemp>
            <ns3:hr>101</ns3:hr>
          </ns3:TrackPointExtension>
        </extensions>
      </trkpt>
      <trkpt lat="47.68468930386006832122802734375" lon="-122.33997034840285778045654296875">
        <ele>54.799999237060546875</ele>
        <time>2026-07-29T15:14:53.000Z</time>
        <extensions>
          <ns3:TrackPointExtension>
            <ns3:atemp>25.0</ns3:atemp>
            <ns3:hr>102</ns3:hr>
          </ns3:TrackPointExtension>
        </extensions>
      </trkpt>
      <trkpt lat="47.68472182564437389373779296875" lon="-122.33981662429869174957275390625">
        <ele>54.200000762939453125</ele>
        <time>2026-07-29T15:14:56.000Z</time>
        <extensions>
          <ns3:TrackPointExtension>
            <ns3:atemp>25.0</ns3:atemp>
            <ns3:hr>104</ns3:hr>
          </ns3:TrackPointExtension>
        </extensions>
      </trkpt>
      <trkpt lat="47.68475384451448917388916015625" lon="-122.339611016213893890380859375">
        <ele>53.59999847412109375</ele>
        <time>2026-07-29T15:15:00.000Z</time>
        <extensions>
          <ns3:TrackPointExtension>
            <ns3:atemp>25.0</ns3:atemp>
            <ns3:hr>106</ns3:hr>
          </ns3:TrackPointExtension>
        </extensions>
      </trkpt>
      <trkpt lat="47.6847545988857746124267578125" lon="-122.33956416137516498565673828125">
        <ele>53.200000762939453125</ele>
        <time>2026-07-29T15:15:02.000Z</time>
        <extensions>
          <ns3:TrackPointExtension>
            <ns3:atemp>25.0</ns3:atemp>
            <ns3:hr>106</ns3:hr>
          </ns3:TrackPointExtension>
        </extensions>
      </trkpt>
      <trkpt lat="47.68479642458260059356689453125" lon="-122.33925637789070606231689453125">
        <ele>52.40000152587890625</ele>
        <time>2026-07-29T15:15:08.000Z</time>
        <extensions>
          <ns3:TrackPointExtension>
            <ns3:atemp>25.0</ns3:atemp>
            <ns3:hr>107</ns3:hr>
          </ns3:TrackPointExtension>
        </extensions>
      </trkpt>
      <trkpt lat="47.684839926660060882568359375" lon="-122.33919150196015834808349609375">
        <ele>52.40000152587890625</ele>
        <time>2026-07-29T15:15:10.000Z</time>
        <extensions>
          <ns3:TrackPointExtension>
            <ns3:atemp>25.0</ns3:atemp>
            <ns3:hr>107</ns3:hr>
          </ns3:TrackPointExtension>
        </extensions>
      </trkpt>
      <trkpt lat="47.68490103073418140411376953125" lon="-122.3391540348529815673828125">
        <ele>52.59999847412109375</ele>
        <time>2026-07-29T15:15:12.000Z</time>
        <extensions>
          <ns3:TrackPointExtension>
            <ns3:atemp>25.0</ns3:atemp>
            <ns3:hr>107</ns3:hr>
          </ns3:TrackPointExtension>
        </extensions>
      </trkpt>
      <trkpt lat="47.684959284961223602294921875" lon="-122.33910365961492061614990234375">
        <ele>52.799999237060546875</ele>
        <time>2026-07-29T15:15:14.000Z</time>
        <extensions>
          <ns3:TrackPointExtension>
            <ns3:atemp>25.0</ns3:atemp>
            <ns3:hr>110</ns3:hr>
          </ns3:TrackPointExtension>
        </extensions>
      </trkpt>
      <trkpt lat="47.6850821636617183685302734375" lon="-122.33898648060858249664306640625">
        <ele>53</ele>
        <time>2026-07-29T15:15:19.000Z</time>
        <extensions>
          <ns3:TrackPointExtension>
            <ns3:atemp>25.0</ns3:atemp>
            <ns3:hr>109</ns3:hr>
          </ns3:TrackPointExtension>
        </extensions>
      </trkpt>
      <trkpt lat="47.685218788683414459228515625" lon="-122.33882856555283069610595703125">
        <ele>52.40000152587890625</ele>
        <time>2026-07-29T15:15:25.000Z</time>
        <extensions>
          <ns3:TrackPointExtension>
            <ns3:atemp>25.0</ns3:atemp>
            <ns3:hr>111</ns3:hr>
          </ns3:TrackPointExtension>
        </extensions>
      </trkpt>
      <trkpt lat="47.68528173677623271942138671875" lon="-122.33872312121093273162841796875">
        <ele>52.200000762939453125</ele>
        <time>2026-07-29T15:15:28.000Z</time>
        <extensions>
          <ns3:TrackPointExtension>
            <ns3:atemp>25.0</ns3:atemp>
            <ns3:hr>111</ns3:hr>
          </ns3:TrackPointExtension>
        </extensions>
      </trkpt>
      <trkpt lat="47.6853404939174652099609375" lon="-122.33862639404833316802978515625">
        <ele>52.200000762939453125</ele>
        <time>2026-07-29T15:15:31.000Z</time>
        <extensions>
          <ns3:TrackPointExtension>
            <ns3:atemp>25.0</ns3:atemp>
            <ns3:hr>110</ns3:hr>
          </ns3:TrackPointExtension>
        </extensions>
      </trkpt>
      <trkpt lat="47.6854771189391613006591796875" lon="-122.338291369378566741943359375">
        <ele>51.799999237060546875</ele>
        <time>2026-07-29T15:15:38.000Z</time>
        <extensions>
          <ns3:TrackPointExtension>
            <ns3:atemp>25.0</ns3:atemp>
            <ns3:hr>109</ns3:hr>
          </ns3:TrackPointExtension>
        </extensions>
      </trkpt>
      <trkpt lat="47.685539983212947845458984375" lon="-122.3381249047815799713134765625">
        <ele>52</ele>
        <time>2026-07-29T15:15:42.000Z</time>
        <extensions>
          <ns3:TrackPointExtension>
            <ns3:atemp>25.0</ns3:atemp>
            <ns3:hr>108</ns3:hr>
          </ns3:TrackPointExtension>
        </extensions>
      </trkpt>
      <trkpt lat="47.685570158064365386962890625" lon="-122.3380709253251552581787109375">
        <ele>52</ele>
        <time>2026-07-29T15:15:44.000Z</time>
        <extensions>
          <ns3:TrackPointExtension>
            <ns3:atemp>25.0</ns3:atemp>
            <ns3:hr>111</ns3:hr>
          </ns3:TrackPointExtension>
        </extensions>
      </trkpt>
      <trkpt lat="47.68559304066002368927001953125" lon="-122.33804963529109954833984375">
        <ele>52</ele>
        <time>2026-07-29T15:15:45.000Z</time>
        <extensions>
          <ns3:TrackPointExtension>
            <ns3:atemp>25.0</ns3:atemp>
            <ns3:hr>111</ns3:hr>
          </ns3:TrackPointExtension>
        </extensions>
      </trkpt>
      <trkpt lat="47.685607373714447021484375" lon="-122.3380068875849246978759765625">
        <ele>52</ele>
        <time>2026-07-29T15:15:46.000Z</time>
        <extensions>
          <ns3:TrackPointExtension>
            <ns3:atemp>25.0</ns3:atemp>
            <ns3:hr>112</ns3:hr>
          </ns3:TrackPointExtension>
        </extensions>
      </trkpt>
      <trkpt lat="47.6856246404349803924560546875" lon="-122.33784184791147708892822265625">
        <ele>52</ele>
        <time>2026-07-29T15:15:49.000Z</time>
        <extensions>
          <ns3:TrackPointExtension>
            <ns3:atemp>25.0</ns3:atemp>
            <ns3:hr>110</ns3:hr>
          </ns3:TrackPointExtension>
        </extensions>
      </trkpt>
      <trkpt lat="47.685644589364528656005859375" lon="-122.33755501918494701385498046875">
        <ele>52.200000762939453125</ele>
        <time>2026-07-29T15:15:54.000Z</time>
        <extensions>
          <ns3:TrackPointExtension>
            <ns3:atemp>25.0</ns3:atemp>
            <ns3:hr>113</ns3:hr>
          </ns3:TrackPointExtension>
        </extensions>
      </trkpt>
      <trkpt lat="47.6856501214206218719482421875" lon="-122.337444126605987548828125">
        <ele>52.200000762939453125</ele>
        <time>2026-07-29T15:15:56.000Z</time>
        <extensions>
          <ns3:TrackPointExtension>
            <ns3:atemp>25.0</ns3:atemp>
            <ns3:hr>114</ns3:hr>
          </ns3:TrackPointExtension>
        </extensions>
      </trkpt>
      <trkpt lat="47.68563344143331050872802734375" lon="-122.337032072246074676513671875">
        <ele>51.59999847412109375</ele>
        <time>2026-07-29T15:16:02.000Z</time>
        <extensions>
          <ns3:TrackPointExtension>
            <ns3:atemp>25.0</ns3:atemp>
            <ns3:hr>111</ns3:hr>
          </ns3:TrackPointExtension>
        </extensions>
      </trkpt>
      <trkpt lat="47.6856219582259654998779296875" lon="-122.3369635082781314849853515625">
        <ele>51.40000152587890625</ele>
        <time>2026-07-29T15:16:03.000Z</time>
        <extensions>
          <ns3:TrackPointExtension>
            <ns3:atemp>25.0</ns3:atemp>
            <ns3:hr>109</ns3:hr>
          </ns3:TrackPointExtension>
        </extensions>
      </trkpt>
      <trkpt lat="47.68554559908807277679443359375" lon="-122.3366429843008518218994140625">
        <ele>51.799999237060546875</ele>
        <time>2026-07-29T15:16:08.000Z</time>
        <extensions>
          <ns3:TrackPointExtension>
            <ns3:atemp>24.0</ns3:atemp>
            <ns3:hr>106</ns3:hr>
          </ns3:TrackPointExtension>
        </extensions>
      </trkpt>
      <trkpt lat="47.68548793159425258636474609375" lon="-122.3364773578941822052001953125">
        <ele>52</ele>
        <time>2026-07-29T15:16:11.000Z</time>
        <extensions>
          <ns3:TrackPointExtension>
            <ns3:atemp>24.0</ns3:atemp>
            <ns3:hr>106</ns3:hr>
          </ns3:TrackPointExtension>
        </extensions>
      </trkpt>
      <trkpt lat="47.6854653842747211456298828125" lon="-122.33642346225678920745849609375">
        <ele>52.200000762939453125</ele>
        <time>2026-07-29T15:16:12.000Z</time>
        <extensions>
          <ns3:TrackPointExtension>
            <ns3:atemp>24.0</ns3:atemp>
            <ns3:hr>106</ns3:hr>
          </ns3:TrackPointExtension>
        </extensions>
      </trkpt>
      <trkpt lat="47.68542188219726085662841796875" lon="-122.336317598819732666015625">
        <ele>52.40000152587890625</ele>
        <time>2026-07-29T15:16:14.000Z</time>
        <extensions>
          <ns3:TrackPointExtension>
            <ns3:atemp>24.0</ns3:atemp>
            <ns3:hr>107</ns3:hr>
          </ns3:TrackPointExtension>
        </extensions>
      </trkpt>
      <trkpt lat="47.68537896685302257537841796875" lon="-122.33621072955429553985595703125">
        <ele>52.799999237060546875</ele>
        <time>2026-07-29T15:16:16.000Z</time>
        <extensions>
          <ns3:TrackPointExtension>
            <ns3:atemp>24.0</ns3:atemp>
            <ns3:hr>107</ns3:hr>
          </ns3:TrackPointExtension>
        </extensions>
      </trkpt>
      <trkpt lat="47.685320377349853515625" lon="-122.33610629104077816009521484375">
        <ele>52.59999847412109375</ele>
        <time>2026-07-29T15:16:18.000Z</time>
        <extensions>
          <ns3:TrackPointExtension>
            <ns3:atemp>24.0</ns3:atemp>
            <ns3:hr>107</ns3:hr>
          </ns3:TrackPointExtension>
        </extensions>
      </trkpt>
      <trkpt lat="47.6851874403655529022216796875" lon="-122.33592323027551174163818359375">
        <ele>51.799999237060546875</ele>
        <time>2026-07-29T15:16:22.000Z</time>
        <extensions>
          <ns3:TrackPointExtension>
            <ns3:atemp>24.0</ns3:atemp>
            <ns3:hr>110</ns3:hr>
          </ns3:TrackPointExtension>
        </extensions>
      </trkpt>
      <trkpt lat="47.68515181727707386016845703125" lon="-122.33587930910289287567138671875">
        <ele>51.799999237060546875</ele>
        <time>2026-07-29T15:16:23.000Z</time>
        <extensions>
          <ns3:TrackPointExtension>
            <ns3:atemp>24.0</ns3:atemp>
            <ns3:hr>109</ns3:hr>
          </ns3:TrackPointExtension>
        </extensions>
      </trkpt>
      <trkpt lat="47.68486230634152889251708984375" lon="-122.3355972580611705780029296875">
        <ele>51.59999847412109375</ele>
        <time>2026-07-29T15:16:30.000Z</time>
        <extensions>
          <ns3:TrackPointExtension>
            <ns3:atemp>24.0</ns3:atemp>
            <ns3:hr>106</ns3:hr>
          </ns3:TrackPointExtension>
        </extensions>
      </trkpt>
      <trkpt lat="47.68478938378393650054931640625" lon="-122.3355278559029102325439453125">
        <ele>51.59999847412109375</ele>
        <time>2026-07-29T15:16:32.000Z</time>
        <extensions>
          <ns3:TrackPointExtension>
            <ns3:atemp>24.0</ns3:atemp>
            <ns3:hr>107</ns3:hr>
          </ns3:TrackPointExtension>
        </extensions>
      </trkpt>
      <trkpt lat="47.68443767912685871124267578125" lon="-122.33518897555768489837646484375">
        <ele>52.200000762939453125</ele>
        <time>2026-07-29T15:16:41.000Z</time>
        <extensions>
          <ns3:TrackPointExtension>
            <ns3:atemp>24.0</ns3:atemp>
            <ns3:hr>109</ns3:hr>
          </ns3:TrackPointExtension>
        </extensions>
      </trkpt>
      <trkpt lat="47.6840981282293796539306640625" lon="-122.33484975993633270263671875">
        <ele>52.40000152587890625</ele>
        <time>2026-07-29T15:16:50.000Z</time>
        <extensions>
          <ns3:TrackPointExtension>
            <ns3:atemp>24.0</ns3:atemp>
            <ns3:hr>109</ns3:hr>
          </ns3:TrackPointExtension>
        </extensions>
      </trkpt>
      <trkpt lat="47.68368733115494251251220703125" lon="-122.33444969169795513153076171875">
        <ele>52.799999237060546875</ele>
        <time>2026-07-29T15:17:01.000Z</time>
        <extensions>
          <ns3:TrackPointExtension>
            <ns3:atemp>24.0</ns3:atemp>
            <ns3:hr>108</ns3:hr>
          </ns3:TrackPointExtension>
        </extensions>
      </trkpt>
      <trkpt lat="47.6835730858147144317626953125" lon="-122.33433251269161701202392578125">
        <ele>53</ele>
        <time>2026-07-29T15:17:04.000Z</time>
        <extensions>
          <ns3:TrackPointExtension>
            <ns3:atemp>24.0</ns3:atemp>
            <ns3:hr>111</ns3:hr>
          </ns3:TrackPointExtension>
        </extensions>
      </trkpt>
      <trkpt lat="47.68353628925979137420654296875" lon="-122.33429529704153537750244140625">
        <ele>53</ele>
        <time>2026-07-29T15:17:05.000Z</time>
        <extensions>
          <ns3:TrackPointExtension>
            <ns3:atemp>24.0</ns3:atemp>
            <ns3:hr>108</ns3:hr>
          </ns3:TrackPointExtension>
        </extensions>
      </trkpt>
      <trkpt lat="47.68349940888583660125732421875" lon="-122.334253974258899688720703125">
        <ele>53.200000762939453125</ele>
        <time>2026-07-29T15:17:06.000Z</time>
        <extensions>
          <ns3:TrackPointExtension>
            <ns3:atemp>24.0</ns3:atemp>
            <ns3:hr>110</ns3:hr>
          </ns3:TrackPointExtension>
        </extensions>
      </trkpt>
      <trkpt lat="47.6833020150661468505859375" lon="-122.33404048718512058258056640625">
        <ele>53.59999847412109375</ele>
        <time>2026-07-29T15:17:10.000Z</time>
        <extensions>
          <ns3:TrackPointExtension>
            <ns3:atemp>24.0</ns3:atemp>
            <ns3:hr>109</ns3:hr>
          </ns3:TrackPointExtension>
        </extensions>
      </trkpt>
      <trkpt lat="47.68308140337467193603515625" lon="-122.333742342889308929443359375">
        <ele>53.200000762939453125</ele>
        <time>2026-07-29T15:17:17.000Z</time>
        <extensions>
          <ns3:TrackPointExtension>
            <ns3:atemp>24.0</ns3:atemp>
            <ns3:hr>112</ns3:hr>
          </ns3:TrackPointExtension>
        </extensions>
      </trkpt>
      <trkpt lat="47.683040834963321685791015625" lon="-122.33367620967328548431396484375">
        <ele>52.799999237060546875</ele>
        <time>2026-07-29T15:17:18.000Z</time>
        <extensions>
          <ns3:TrackPointExtension>
            <ns3:atemp>24.0</ns3:atemp>
            <ns3:hr>112</ns3:hr>
          </ns3:TrackPointExtension>
        </extensions>
      </trkpt>
      <trkpt lat="47.682946622371673583984375" lon="-122.33350739814341068267822265625">
        <ele>52.40000152587890625</ele>
        <time>2026-07-29T15:17:21.000Z</time>
        <extensions>
          <ns3:TrackPointExtension>
            <ns3:atemp>24.0</ns3:atemp>
            <ns3:hr>112</ns3:hr>
          </ns3:TrackPointExtension>
        </extensions>
      </trkpt>
      <trkpt lat="47.68288836814463138580322265625" lon="-122.33338435180485248565673828125">
        <ele>52.200000762939453125</ele>
        <time>2026-07-29T15:17:23.000Z</time>
        <extensions>
          <ns3:TrackPointExtension>
            <ns3:atemp>24.0</ns3:atemp>
            <ns3:hr>112</ns3:hr>
          </ns3:TrackPointExtension>
        </extensions>
      </trkpt>
      <trkpt lat="47.68281125463545322418212890625" lon="-122.3332090862095355987548828125">
        <ele>52.200000762939453125</ele>
        <time>2026-07-29T15:17:26.000Z</time>
        <extensions>
          <ns3:TrackPointExtension>
            <ns3:atemp>24.0</ns3:atemp>
            <ns3:hr>112</ns3:hr>
          </ns3:TrackPointExtension>
        </extensions>
      </trkpt>
      <trkpt lat="47.68267965875566005706787109375" lon="-122.3328369297087192535400390625">
        <ele>52.40000152587890625</ele>
        <time>2026-07-29T15:17:32.000Z</time>
        <extensions>
          <ns3:TrackPointExtension>
            <ns3:atemp>24.0</ns3:atemp>
            <ns3:hr>109</ns3:hr>
          </ns3:TrackPointExtension>
        </extensions>
      </trkpt>
      <trkpt lat="47.68264596350491046905517578125" lon="-122.33270977623760700225830078125">
        <ele>52.59999847412109375</ele>
        <time>2026-07-29T15:17:34.000Z</time>
        <extensions>
          <ns3:TrackPointExtension>
            <ns3:atemp>24.0</ns3:atemp>
            <ns3:hr>112</ns3:hr>
          </ns3:TrackPointExtension>
        </extensions>
      </trkpt>
      <trkpt lat="47.68257304094731807708740234375" lon="-122.332250364124774932861328125">
        <ele>52.59999847412109375</ele>
        <time>2026-07-29T15:17:41.000Z</time>
        <extensions>
          <ns3:TrackPointExtension>
            <ns3:atemp>24.0</ns3:atemp>
            <ns3:hr>113</ns3:hr>
          </ns3:TrackPointExtension>
        </extensions>
      </trkpt>
      <trkpt lat="47.682560719549655914306640625" lon="-122.3321194387972354888916015625">
        <ele>52.59999847412109375</ele>
        <time>2026-07-29T15:17:43.000Z</time>
        <extensions>
          <ns3:TrackPointExtension>
            <ns3:atemp>24.0</ns3:atemp>
            <ns3:hr>113</ns3:hr>
          </ns3:TrackPointExtension>
        </extensions>
      </trkpt>
      <trkpt lat="47.68254605121910572052001953125" lon="-122.33185515739023685455322265625">
        <ele>52.59999847412109375</ele>
        <time>2026-07-29T15:17:47.000Z</time>
        <extensions>
          <ns3:TrackPointExtension>
            <ns3:atemp>24.0</ns3:atemp>
            <ns3:hr>115</ns3:hr>
          </ns3:TrackPointExtension>
        </extensions>
      </trkpt>
      <trkpt lat="47.68254789523780345916748046875" lon="-122.3317234776914119720458984375">
        <ele>52.59999847412109375</ele>
        <time>2026-07-29T15:17:49.000Z</time>
        <extensions>
          <ns3:TrackPointExtension>
            <ns3:atemp>24.0</ns3:atemp>
            <ns3:hr>117</ns3:hr>
          </ns3:TrackPointExtension>
        </extensions>
      </trkpt>
      <trkpt lat="47.682564742863178253173828125" lon="-122.33132542110979557037353515625">
        <ele>53</ele>
        <time>2026-07-29T15:17:55.000Z</time>
        <extensions>
          <ns3:TrackPointExtension>
            <ns3:atemp>24.0</ns3:atemp>
            <ns3:hr>120</ns3:hr>
          </ns3:TrackPointExtension>
        </extensions>
      </trkpt>
      <trkpt lat="47.68257320858538150787353515625" lon="-122.33125534839928150177001953125">
        <ele>53</ele>
        <time>2026-07-29T15:17:56.000Z</time>
        <extensions>
          <ns3:TrackPointExtension>
            <ns3:atemp>24.0</ns3:atemp>
            <ns3:hr>121</ns3:hr>
          </ns3:TrackPointExtension>
        </extensions>
      </trkpt>
      <trkpt lat="47.68263079226016998291015625" lon="-122.33067221939563751220703125">
        <ele>52.200000762939453125</ele>
        <time>2026-07-29T15:18:04.000Z</time>
        <extensions>
          <ns3:TrackPointExtension>
            <ns3:atemp>24.0</ns3:atemp>
            <ns3:hr>118</ns3:hr>
          </ns3:TrackPointExtension>
        </extensions>
      </trkpt>
      <trkpt lat="47.68264763988554477691650390625" lon="-122.33052193187177181243896484375">
        <ele>52</ele>
        <time>2026-07-29T15:18:06.000Z</time>
        <extensions>
          <ns3:TrackPointExtension>
            <ns3:atemp>24.0</ns3:atemp>
            <ns3:hr>119</ns3:hr>
          </ns3:TrackPointExtension>
        </extensions>
      </trkpt>
      <trkpt lat="47.68264965154230594635009765625" lon="-122.33044683001935482025146484375">
        <ele>51.799999237060546875</ele>
        <time>2026-07-29T15:18:07.000Z</time>
        <extensions>
          <ns3:TrackPointExtension>
            <ns3:atemp>24.0</ns3:atemp>
            <ns3:hr>120</ns3:hr>
          </ns3:TrackPointExtension>
        </extensions>
      </trkpt>
      <trkpt lat="47.6826346479356288909912109375" lon="-122.3300732485949993133544921875">
        <ele>51.59999847412109375</ele>
        <time>2026-07-29T15:18:12.000Z</time>
        <extensions>
          <ns3:TrackPointExtension>
            <ns3:atemp>24.0</ns3:atemp>
            <ns3:hr>120</ns3:hr>
          </ns3:TrackPointExtension>
        </extensions>
      </trkpt>
      <trkpt lat="47.6826088316738605499267578125" lon="-122.329769320785999298095703125">
        <ele>51.59999847412109375</ele>
        <time>2026-07-29T15:18:16.000Z</time>
        <extensions>
          <ns3:TrackPointExtension>
            <ns3:atemp>24.0</ns3:atemp>
            <ns3:hr>119</ns3:hr>
          </ns3:TrackPointExtension>
        </extensions>
      </trkpt>
      <trkpt lat="47.68258561380207538604736328125" lon="-122.32962054200470447540283203125">
        <ele>51.40000152587890625</ele>
        <time>2026-07-29T15:18:18.000Z</time>
        <extensions>
          <ns3:TrackPointExtension>
            <ns3:atemp>24.0</ns3:atemp>
            <ns3:hr>118</ns3:hr>
          </ns3:TrackPointExtension>
        </extensions>
      </trkpt>
      <trkpt lat="47.68249441869556903839111328125" lon="-122.32920027337968349456787109375">
        <ele>51.200000762939453125</ele>
        <time>2026-07-29T15:18:24.000Z</time>
        <extensions>
          <ns3:TrackPointExtension>
            <ns3:atemp>24.0</ns3:atemp>
            <ns3:hr>118</ns3:hr>
          </ns3:TrackPointExtension>
        </extensions>
      </trkpt>
      <trkpt lat="47.68243364989757537841796875" lon="-122.32900899834930896759033203125">
        <ele>51.200000762939453125</ele>
        <time>2026-07-29T15:18:27.000Z</time>
        <extensions>
          <ns3:TrackPointExtension>
            <ns3:atemp>24.0</ns3:atemp>
            <ns3:hr>118</ns3:hr>
          </ns3:TrackPointExtension>
        </extensions>
      </trkpt>
      <trkpt lat="47.68229777924716472625732421875" lon="-122.32865092344582080841064453125">
        <ele>52</ele>
        <time>2026-07-29T15:18:33.000Z</time>
        <extensions>
          <ns3:TrackPointExtension>
            <ns3:atemp>24.0</ns3:atemp>
            <ns3:hr>114</ns3:hr>
          </ns3:TrackPointExtension>
        </extensions>
      </trkpt>
      <trkpt lat="47.682271040976047515869140625" lon="-122.32859442941844463348388671875">
        <ele>52</ele>
        <time>2026-07-29T15:18:34.000Z</time>
        <extensions>
          <ns3:TrackPointExtension>
            <ns3:atemp>24.0</ns3:atemp>
            <ns3:hr>113</ns3:hr>
          </ns3:TrackPointExtension>
        </extensions>
      </trkpt>
      <trkpt lat="47.68221345730125904083251953125" lon="-122.32848663814365863800048828125">
        <ele>52</ele>
        <time>2026-07-29T15:18:36.000Z</time>
        <extensions>
          <ns3:TrackPointExtension>
            <ns3:atemp>24.0</ns3:atemp>
            <ns3:hr>112</ns3:hr>
          </ns3:TrackPointExtension>
        </extensions>
      </trkpt>
      <trkpt lat="47.6821867190301418304443359375" lon="-122.32843148522078990936279296875">
        <ele>52.200000762939453125</ele>
        <time>2026-07-29T15:18:37.000Z</time>
        <extensions>
          <ns3:TrackPointExtension>
            <ns3:atemp>24.0</ns3:atemp>
            <ns3:hr>112</ns3:hr>
          </ns3:TrackPointExtension>
        </extensions>
      </trkpt>
      <trkpt lat="47.68215931020677089691162109375" lon="-122.328378260135650634765625">
        <ele>52.200000762939453125</ele>
        <time>2026-07-29T15:18:38.000Z</time>
        <extensions>
          <ns3:TrackPointExtension>
            <ns3:atemp>24.0</ns3:atemp>
            <ns3:hr>113</ns3:hr>
          </ns3:TrackPointExtension>
        </extensions>
      </trkpt>
      <trkpt lat="47.682128883898258209228515625" lon="-122.32833006419241428375244140625">
        <ele>52.200000762939453125</ele>
        <time>2026-07-29T15:18:39.000Z</time>
        <extensions>
          <ns3:TrackPointExtension>
            <ns3:atemp>24.0</ns3:atemp>
            <ns3:hr>116</ns3:hr>
          </ns3:TrackPointExtension>
        </extensions>
      </trkpt>
      <trkpt lat="47.6819976232945919036865234375" lon="-122.32811984606087207794189453125">
        <ele>52.200000762939453125</ele>
        <time>2026-07-29T15:18:43.000Z</time>
        <extensions>
          <ns3:TrackPointExtension>
            <ns3:atemp>24.0</ns3:atemp>
            <ns3:hr>113</ns3:hr>
          </ns3:TrackPointExtension>
        </extensions>
      </trkpt>
      <trkpt lat="47.681972645223140716552734375" lon="-122.32808413915336132049560546875">
        <ele>52.200000762939453125</ele>
        <time>2026-07-29T15:18:44.000Z</time>
        <extensions>
          <ns3:TrackPointExtension>
            <ns3:atemp>24.0</ns3:atemp>
            <ns3:hr>112</ns3:hr>
          </ns3:TrackPointExtension>
        </extensions>
      </trkpt>
      <trkpt lat="47.68169746734201908111572265625" lon="-122.32766571454703807830810546875">
        <ele>52</ele>
        <time>2026-07-29T15:18:54.000Z</time>
        <extensions>
          <ns3:TrackPointExtension>
            <ns3:atemp>24.0</ns3:atemp>
            <ns3:hr>112</ns3:hr>
          </ns3:TrackPointExtension>
        </extensions>
      </trkpt>
      <trkpt lat="47.68162504769861698150634765625" lon="-122.3276178538799285888671875">
        <ele>52.40000152587890625</ele>
        <time>2026-07-29T15:18:57.000Z</time>
        <extensions>
          <ns3:TrackPointExtension>
            <ns3:atemp>24.0</ns3:atemp>
            <ns3:hr>110</ns3:hr>
          </ns3:TrackPointExtension>
        </extensions>
      </trkpt>
      <trkpt lat="47.6816003210842609405517578125" lon="-122.3276341147720813751220703125">
        <ele>52.40000152587890625</ele>
        <time>2026-07-29T15:18:58.000Z</time>
        <extensions>
          <ns3:TrackPointExtension>
            <ns3:atemp>24.0</ns3:atemp>
            <ns3:hr>111</ns3:hr>
          </ns3:TrackPointExtension>
        </extensions>
      </trkpt>
      <trkpt lat="47.681507281959056854248046875" lon="-122.32775523327291011810302734375">
        <ele>52.40000152587890625</ele>
        <time>2026-07-29T15:19:02.000Z</time>
        <extensions>
          <ns3:TrackPointExtension>
            <ns3:atemp>24.0</ns3:atemp>
            <ns3:hr>114</ns3:hr>
          </ns3:TrackPointExtension>
        </extensions>
      </trkpt>
      <trkpt lat="47.68144969828426837921142578125" lon="-122.3278232105076313018798828125">
        <ele>52.200000762939453125</ele>
        <time>2026-07-29T15:19:04.000Z</time>
        <extensions>
          <ns3:TrackPointExtension>
            <ns3:atemp>24.0</ns3:atemp>
            <ns3:hr>114</ns3:hr>
          </ns3:TrackPointExtension>
        </extensions>
      </trkpt>
      <trkpt lat="47.681322880089282989501953125" lon="-122.3279879987239837646484375">
        <ele>51</ele>
        <time>2026-07-29T15:19:08.000Z</time>
        <extensions>
          <ns3:TrackPointExtension>
            <ns3:atemp>24.0</ns3:atemp>
            <ns3:hr>114</ns3:hr>
          </ns3:TrackPointExtension>
        </extensions>
      </trkpt>
      <trkpt lat="47.68120947293937206268310546875" lon="-122.3281055130064487457275390625">
        <ele>50.59999847412109375</ele>
        <time>2026-07-29T15:19:11.000Z</time>
        <extensions>
          <ns3:TrackPointExtension>
            <ns3:atemp>24.0</ns3:atemp>
            <ns3:hr>114</ns3:hr>
          </ns3:TrackPointExtension>
        </extensions>
      </trkpt>
      <trkpt lat="47.6809926331043243408203125" lon="-122.328267283737659454345703125">
        <ele>49.799999237060546875</ele>
        <time>2026-07-29T15:19:16.000Z</time>
        <extensions>
          <ns3:TrackPointExtension>
            <ns3:atemp>24.0</ns3:atemp>
            <ns3:hr>113</ns3:hr>
          </ns3:TrackPointExtension>
        </extensions>
      </trkpt>
      <trkpt lat="47.6808446086943149566650390625" lon="-122.32836275361478328704833984375">
        <ele>49.40000152587890625</ele>
        <time>2026-07-29T15:19:20.000Z</time>
        <extensions>
          <ns3:TrackPointExtension>
            <ns3:atemp>24.0</ns3:atemp>
            <ns3:hr>112</ns3:hr>
          </ns3:TrackPointExtension>
        </extensions>
      </trkpt>
      <trkpt lat="47.68066196702420711517333984375" lon="-122.328430898487567901611328125">
        <ele>49.40000152587890625</ele>
        <time>2026-07-29T15:19:26.000Z</time>
        <extensions>
          <ns3:TrackPointExtension>
            <ns3:atemp>24.0</ns3:atemp>
            <ns3:hr>112</ns3:hr>
          </ns3:TrackPointExtension>
        </extensions>
      </trkpt>
      <trkpt lat="47.68055585213005542755126953125" lon="-122.32842276804149150848388671875">
        <ele>49.200000762939453125</ele>
        <time>2026-07-29T15:19:31.000Z</time>
        <extensions>
          <ns3:TrackPointExtension>
            <ns3:atemp>24.0</ns3:atemp>
            <ns3:hr>111</ns3:hr>
          </ns3:TrackPointExtension>
        </extensions>
      </trkpt>
      <trkpt lat="47.68054135143756866455078125" lon="-122.32845327816903591156005859375">
        <ele>49.200000762939453125</ele>
        <time>2026-07-29T15:19:33.000Z</time>
        <extensions>
          <ns3:TrackPointExtension>
            <ns3:atemp>24.0</ns3:atemp>
            <ns3:hr>110</ns3:hr>
          </ns3:TrackPointExtension>
        </extensions>
      </trkpt>
      <trkpt lat="47.68053506501019001007080078125" lon="-122.32848160900175571441650390625">
        <ele>49.200000762939453125</ele>
        <time>2026-07-29T15:19:36.000Z</time>
        <extensions>
          <ns3:TrackPointExtension>
            <ns3:atemp>24.0</ns3:atemp>
            <ns3:hr>111</ns3:hr>
          </ns3:TrackPointExtension>
        </extensions>
      </trkpt>
      <trkpt lat="47.680532969534397125244140625" lon="-122.328483201563358306884765625">
        <ele>49.200000762939453125</ele>
        <time>2026-07-29T15:19:39.000Z</time>
        <extensions>
          <ns3:TrackPointExtension>
            <ns3:atemp>24.0</ns3:atemp>
            <ns3:hr>109</ns3:hr>
          </ns3:TrackPointExtension>
        </extensions>
      </trkpt>
      <trkpt lat="47.68052115105092525482177734375" lon="-122.32847951352596282958984375">
        <ele>49</ele>
        <time>2026-07-29T15:19:41.000Z</time>
        <extensions>
          <ns3:TrackPointExtension>
            <ns3:atemp>24.0</ns3:atemp>
            <ns3:hr>109</ns3:hr>
          </ns3:TrackPointExtension>
        </extensions>
      </trkpt>
      <trkpt lat="47.6804868690669536590576171875" lon="-122.328461743891239166259765625">
        <ele>49.200000762939453125</ele>
        <time>2026-07-29T15:19:44.000Z</time>
        <extensions>
          <ns3:TrackPointExtension>
            <ns3:atemp>24.0</ns3:atemp>
            <ns3:hr>109</ns3:hr>
          </ns3:TrackPointExtension>
        </extensions>
      </trkpt>
      <trkpt lat="47.6804794929921627044677734375" lon="-122.3284305632114410400390625">
        <ele>49</ele>
        <time>2026-07-29T15:19:46.000Z</time>
        <extensions>
          <ns3:TrackPointExtension>
            <ns3:atemp>24.0</ns3:atemp>
            <ns3:hr>108</ns3:hr>
          </ns3:TrackPointExtension>
        </extensions>
      </trkpt>
      <trkpt lat="47.680467925965785980224609375" lon="-122.3283599875867366790771484375">
        <ele>49.200000762939453125</ele>
        <time>2026-07-29T15:19:49.000Z</time>
        <extensions>
          <ns3:TrackPointExtension>
            <ns3:atemp>24.0</ns3:atemp>
            <ns3:hr>110</ns3:hr>
          </ns3:TrackPointExtension>
        </extensions>
      </trkpt>
      <trkpt lat="47.68045761622488498687744140625" lon="-122.328344397246837615966796875">
        <ele>49.200000762939453125</ele>
        <time>2026-07-29T15:19:50.000Z</time>
        <extensions>
          <ns3:TrackPointExtension>
            <ns3:atemp>24.0</ns3:atemp>
            <ns3:hr>109</ns3:hr>
          </ns3:TrackPointExtension>
        </extensions>
      </trkpt>
      <trkpt lat="47.680441103875637054443359375" lon="-122.3283348418772220611572265625">
        <ele>49.59999847412109375</ele>
        <time>2026-07-29T15:19:54.000Z</time>
        <extensions>
          <ns3:TrackPointExtension>
            <ns3:atemp>24.0</ns3:atemp>
            <ns3:hr>109</ns3:hr>
          </ns3:TrackPointExtension>
        </extensions>
      </trkpt>
      <trkpt lat="47.680441103875637054443359375" lon="-122.3283348418772220611572265625">
        <ele>49.40000152587890625</ele>
        <time>2026-07-29T15:19:56.000Z</time>
        <extensions>
          <ns3:TrackPointExtension>
            <ns3:atemp>24.0</ns3:atemp>
            <ns3:hr>106</ns3:hr>
          </ns3:TrackPointExtension>
        </extensions>
      </trkpt>
      <trkpt lat="47.680441103875637054443359375" lon="-122.3283348418772220611572265625">
        <ele>49.200000762939453125</ele>
        <time>2026-07-29T15:20:01.000Z</time>
        <extensions>
          <ns3:TrackPointExtension>
            <ns3:atemp>24.0</ns3:atemp>
            <ns3:hr>104</ns3:hr>
          </ns3:TrackPointExtension>
        </extensions>
      </trkpt>
      <trkpt lat="47.680441103875637054443359375" lon="-122.3283348418772220611572265625">
        <ele>49.200000762939453125</ele>
        <time>2026-07-29T15:20:07.000Z</time>
        <extensions>
          <ns3:TrackPointExtension>
            <ns3:atemp>24.0</ns3:atemp>
            <ns3:hr>107</ns3:hr>
          </ns3:TrackPointExtension>
        </extensions>
      </trkpt>
      <trkpt lat="47.680441103875637054443359375" lon="-122.3283348418772220611572265625">
        <ele>49.200000762939453125</ele>
        <time>2026-07-29T15:20:12.000Z</time>
        <extensions>
          <ns3:TrackPointExtension>
            <ns3:atemp>24.0</ns3:atemp>
            <ns3:hr>105</ns3:hr>
          </ns3:TrackPointExtension>
        </extensions>
      </trkpt>
      <trkpt lat="47.680441103875637054443359375" lon="-122.3283348418772220611572265625">
        <ele>49</ele>
        <time>2026-07-29T15:20:37.000Z</time>
        <extensions>
          <ns3:TrackPointExtension>
            <ns3:atemp>24.0</ns3:atemp>
            <ns3:hr>108</ns3:hr>
          </ns3:TrackPointExtension>
        </extensions>
      </trkpt>
      <trkpt lat="47.680441103875637054443359375" lon="-122.3283348418772220611572265625">
        <ele>49</ele>
        <time>2026-07-29T15:20:40.000Z</time>
        <extensions>
          <ns3:TrackPointExtension>
            <ns3:atemp>24.0</ns3:atemp>
            <ns3:hr>105</ns3:hr>
          </ns3:TrackPointExtension>
        </extensions>
      </trkpt>
      <trkpt lat="47.680441103875637054443359375" lon="-122.3283348418772220611572265625">
        <ele>48.799999237060546875</ele>
        <time>2026-07-29T15:20:42.000Z</time>
        <extensions>
          <ns3:TrackPointExtension>
            <ns3:atemp>24.0</ns3:atemp>
            <ns3:hr>104</ns3:hr>
          </ns3:TrackPointExtension>
        </extensions>
      </trkpt>
      <trkpt lat="47.6804439537227153778076171875" lon="-122.3283348418772220611572265625">
        <ele>48.59999847412109375</ele>
        <time>2026-07-29T15:20:46.000Z</time>
        <extensions>
          <ns3:TrackPointExtension>
            <ns3:atemp>24.0</ns3:atemp>
            <ns3:hr>107</ns3:hr>
          </ns3:TrackPointExtension>
        </extensions>
      </trkpt>
      <trkpt lat="47.68044822849333286285400390625" lon="-122.32833333313465118408203125">
        <ele>48.799999237060546875</ele>
        <time>2026-07-29T15:20:54.000Z</time>
        <extensions>
          <ns3:TrackPointExtension>
            <ns3:atemp>24.0</ns3:atemp>
            <ns3:hr>107</ns3:hr>
          </ns3:TrackPointExtension>
        </extensions>
      </trkpt>
    </trkseg>
  </trk>
</gpx>
