<gpx xmlns:ns3="http://www.garmin.com/xmlschemas/TrackPointExtension/v1" xmlns="http://www.topografix.com/GPX/1/1" xmlns:xsi="http://www.w3.org/2001/XMLSchema-instance" xmlns:ns2="http://www.garmin.com/xmlschemas/GpxExtensions/v3" creator="Garmin Connect" version="1.1" xsi:schemaLocation="http://www.topografix.com/GPX/1/1 http://www.topografix.com/GPX/11.xsd">
  <extensions>
<distance>7085.31</distance>
<average_hr>145.0</average_hr>
<average_speed>3.1070001125335693</average_speed>
<start_time>2026-08-15T15:53:47+00:00</start_time>
<end_time>2026-08-15T16:31:47.563000+00:00</end_time>
<moving_time>2274.812</moving_time>
<elapsed_time>2289.608</elapsed_time>
</extensions>
<metadata>
    <link href="connect.garmin.com">
      <text>Garmin Connect</text>
    </link>
    <time>2026-08-15T15:53:47.000Z</time>
  </metadata>
  <trk>
    <name>Running</name>
    <type>running</type>
    <trkseg/>
  </trk>
</gpx>
