<gpx xmlns:ns3="http://www.garmin.com/xmlschemas/TrackPointExtension/v1" xmlns="http://www.topografix.com/GPX/1/1" xmlns:xsi="http://www.w3.org/2001/XMLSchema-instance" xmlns:ns2="http://www.garmin.com/xmlschemas/GpxExtensions/v3" creator="Garmin Connect" version="1.1" xsi:schemaLocation="http://www.topografix.com/GPX/1/1 http://www.topografix.com/GPX/11.xsd">
  <extensions>
<distance>3416.58</distance>
<average_hr>150.0</average_hr>
<average_speed>2.8320000171661377</average_speed>
<start_time>2026-08-14T14:40:53+00:00</start_time>
<end_time>2026-08-14T15:00:59.361000+00:00</end_time>
<moving_time>1187.542</moving_time>
<elapsed_time>1206.361</elapsed_time>
</extensions>
<metadata>
    <link href="connect.garmin.com">
      <text>Garmin Connect</text>
    </link>
    <time>2026-08-14T14:40:53.000Z</time>
  </metadata>
  <trk>
    <name>Running</name>
    <type>running</type>
    <trkseg/>
  </trk>
</gpx>
